{"type":"FeatureCollection","features":[{"type":"Feature","properties":{"label":null,"hover_name":"Cicero-Congress"},"geometry":{"type":"Point","coordinates":[-87.745172,41.871608]}},{"type":"Feature","properties":{"label":null,"hover_name":"Harlem-Lake"},"geometry":{"type":"Point","coordinates":[-87.803176,41.886848]}},{"type":"Feature","properties":{"label":null,"hover_name":"Ridgeland"},"geometry":{"type":"Point","coordinates":[-87.783661,41.887159]}},{"type":"Feature","properties":{"label":null,"hover_name":"Cumberland"},"geometry":{"type":"Point","coordinates":[-87.838026,41.984294]}},{"type":"Feature","properties":{"label":null,"hover_name":"Washington/Wabash"},"geometry":{"type":"Point","coordinates":[-87.626189,41.88322]}},{"type":"Feature","properties":{"label":null,"hover_name":"LaSalle"},"geometry":{"type":"Point","coordinates":[-87.631722,41.875568]}},{"type":"Feature","properties":{"label":null,"hover_name":"Grand/Milwaukee"},"geometry":{"type":"Point","coordinates":[-87.647578,41.891189]}},{"type":"Feature","properties":{"label":null,"hover_name":"Central-Evanston"},"geometry":{"type":"Point","coordinates":[-87.685617,42.063987]}},{"type":"Feature","properties":{"label":null,"hover_name":"Montrose-O'Hare"},"geometry":{"type":"Point","coordinates":[-87.743617,41.961487]}},{"type":"Feature","properties":{"label":null,"hover_name":"Indiana"},"geometry":{"type":"Point","coordinates":[-87.621463,41.821815]}},{"type":"Feature","properties":{"label":null,"hover_name":"Garfield-Dan Ryan"},"geometry":{"type":"Point","coordinates":[-87.631169,41.795418]}},{"type":"Feature","properties":{"label":null,"hover_name":"Kedzie-Lake"},"geometry":{"type":"Point","coordinates":[-87.706155,41.884321]}},{"type":"Feature","properties":{"label":null,"hover_name":"79th"},"geometry":{"type":"Point","coordinates":[-87.625178,41.750412]}},{"type":"Feature","properties":{"label":null,"hover_name":"North/Clybourn"},"geometry":{"type":"Point","coordinates":[-87.649177,41.910655]}},{"type":"Feature","properties":{"label":null,"hover_name":"47th-Dan Ryan"},"geometry":{"type":"Point","coordinates":[-87.631026,41.810338]}},{"type":"Feature","properties":{"label":null,"hover_name":"Davis"},"geometry":{"type":"Point","coordinates":[-87.683543,42.04771]}},{"type":"Feature","properties":{"label":null,"hover_name":"Addison-Ravenswood"},"geometry":{"type":"Point","coordinates":[-87.674736,41.947029]}},{"type":"Feature","properties":{"label":null,"hover_name":"California-Douglas"},"geometry":{"type":"Point","coordinates":[-87.694823,41.85428]}},{"type":"Feature","properties":{"label":null,"hover_name":"Clark/Lake"},"geometry":{"type":"Point","coordinates":[-87.630886,41.885737]}},{"type":"Feature","properties":{"label":null,"hover_name":"Lake/State"},"geometry":{"type":"Point","coordinates":[-87.627813,41.884809]}},{"type":"Feature","properties":{"label":null,"hover_name":"Main"},"geometry":{"type":"Point","coordinates":[-87.679538,42.033456]}},{"type":"Feature","properties":{"label":null,"hover_name":"Pulaski-Congress"},"geometry":{"type":"Point","coordinates":[-87.725625,41.873889]}},{"type":"Feature","properties":{"label":null,"hover_name":"Irving Park-O'Hare"},"geometry":{"type":"Point","coordinates":[-87.729177,41.95294]}},{"type":"Feature","properties":{"label":null,"hover_name":"18th"},"geometry":{"type":"Point","coordinates":[-87.66916,41.857908]}},{"type":"Feature","properties":{"label":null,"hover_name":"King Drive"},"geometry":{"type":"Point","coordinates":[-87.615546,41.78013]}},{"type":"Feature","properties":{"label":null,"hover_name":"Garfield-South Elevated"},"geometry":{"type":"Point","coordinates":[-87.618324,41.795177]}},{"type":"Feature","properties":{"label":null,"hover_name":"Foster"},"geometry":{"type":"Point","coordinates":[-87.68356,42.05416]}},{"type":"Feature","properties":{"label":null,"hover_name":"Cicero-Douglas"},"geometry":{"type":"Point","coordinates":[-87.745342,41.851925]}},{"type":"Feature","properties":{"label":null,"hover_name":"Argyle"},"geometry":{"type":"Point","coordinates":[-87.65853,41.973453]}},{"type":"Feature","properties":{"label":null,"hover_name":"Merchandise Mart"},"geometry":{"type":"Point","coordinates":[-87.633973,41.888968]}},{"type":"Feature","properties":{"label":null,"hover_name":"Chicago/State"},"geometry":{"type":"Point","coordinates":[-87.628176,41.896671]}},{"type":"Feature","properties":{"label":null,"hover_name":"Washington/Wells"},"geometry":{"type":"Point","coordinates":[-87.633854,41.882695]}},{"type":"Feature","properties":{"label":null,"hover_name":"Wilson"},"geometry":{"type":"Point","coordinates":[-87.657734,41.964254]}},{"type":"Feature","properties":{"label":null,"hover_name":"Oak Park-Lake"},"geometry":{"type":"Point","coordinates":[-87.793783,41.886988]}},{"type":"Feature","properties":{"label":null,"hover_name":"Midway Airport"},"geometry":{"type":"Point","coordinates":[-87.737956,41.786614]}},{"type":"Feature","properties":{"label":null,"hover_name":"Chicago/Milwaukee"},"geometry":{"type":"Point","coordinates":[-87.655214,41.896075]}},{"type":"Feature","properties":{"label":null,"hover_name":"Quincy/Wells"},"geometry":{"type":"Point","coordinates":[-87.63374,41.878723]}},{"type":"Feature","properties":{"label":null,"hover_name":"Armitage"},"geometry":{"type":"Point","coordinates":[-87.652644,41.918217]}},{"type":"Feature","properties":{"label":null,"hover_name":"Morgan"},"geometry":{"type":"Point","coordinates":[-87.652128,41.885577]}},{"type":"Feature","properties":{"label":null,"hover_name":"Laramie"},"geometry":{"type":"Point","coordinates":[-87.754986,41.887163]}},{"type":"Feature","properties":{"label":null,"hover_name":"Cottage Grove"},"geometry":{"type":"Point","coordinates":[-87.605857,41.780309]}},{"type":"Feature","properties":{"label":null,"hover_name":"Loyola"},"geometry":{"type":"Point","coordinates":[-87.661061,42.001073]}},{"type":"Feature","properties":{"label":null,"hover_name":"Library"},"geometry":{"type":"Point","coordinates":[-87.628209,41.876908]}},{"type":"Feature","properties":{"label":null,"hover_name":"Harrison"},"geometry":{"type":"Point","coordinates":[-87.627479,41.874039]}},{"type":"Feature","properties":{"label":null,"hover_name":"Rosemont"},"geometry":{"type":"Point","coordinates":[-87.859388,41.983507]}},{"type":"Feature","properties":{"label":null,"hover_name":"Roosevelt/Wabash"},"geometry":{"type":"Point","coordinates":[-87.62659,41.867405]}},{"type":"Feature","properties":{"label":null,"hover_name":"Rockwell"},"geometry":{"type":"Point","coordinates":[-87.694111,41.96621]}},{"type":"Feature","properties":{"label":null,"hover_name":"Racine"},"geometry":{"type":"Point","coordinates":[-87.659456,41.875886]}},{"type":"Feature","properties":{"label":null,"hover_name":"Kedzie-Homan"},"geometry":{"type":"Point","coordinates":[-87.705978,41.874426]}},{"type":"Feature","properties":{"label":null,"hover_name":"Belmont-O'Hare"},"geometry":{"type":"Point","coordinates":[-87.712359,41.938132]}},{"type":"Feature","properties":{"label":null,"hover_name":"Dempster"},"geometry":{"type":"Point","coordinates":[-87.681602,42.041655]}},{"type":"Feature","properties":{"label":null,"hover_name":"63rd-Dan Ryan"},"geometry":{"type":"Point","coordinates":[-87.631,41.780534]}},{"type":"Feature","properties":{"label":null,"hover_name":"Polk"},"geometry":{"type":"Point","coordinates":[-87.669543,41.871563]}},{"type":"Feature","properties":{"label":null,"hover_name":"Addison-North Main"},"geometry":{"type":"Point","coordinates":[-87.653626,41.947428]}},{"type":"Feature","properties":{"label":null,"hover_name":"Halsted-Midway"},"geometry":{"type":"Point","coordinates":[-87.648131,41.846901]}},{"type":"Feature","properties":{"label":null,"hover_name":"Pulaski-Midway"},"geometry":{"type":"Point","coordinates":[-87.72445,41.799888]}},{"type":"Feature","properties":{"label":null,"hover_name":"Francisco"},"geometry":{"type":"Point","coordinates":[-87.701656,41.966147]}},{"type":"Feature","properties":{"label":null,"hover_name":"South Boulevard"},"geometry":{"type":"Point","coordinates":[-87.678329,42.027612]}},{"type":"Feature","properties":{"label":null,"hover_name":"Berwyn"},"geometry":{"type":"Point","coordinates":[-87.658668,41.977984]}},{"type":"Feature","properties":{"label":null,"hover_name":"Southport"},"geometry":{"type":"Point","coordinates":[-87.66361,41.943812]}},{"type":"Feature","properties":{"label":null,"hover_name":"51st"},"geometry":{"type":"Point","coordinates":[-87.618501,41.802092]}},{"type":"Feature","properties":{"label":null,"hover_name":"Linden"},"geometry":{"type":"Point","coordinates":[-87.69073,42.073153]}},{"type":"Feature","properties":{"label":null,"hover_name":"Addison-O'Hare"},"geometry":{"type":"Point","coordinates":[-87.719099,41.94736]}},{"type":"Feature","properties":{"label":null,"hover_name":"Austin-Lake"},"geometry":{"type":"Point","coordinates":[-87.774135,41.887293]}},{"type":"Feature","properties":{"label":null,"hover_name":"47th-South Elevated"},"geometry":{"type":"Point","coordinates":[-87.618826,41.809209]}},{"type":"Feature","properties":{"label":null,"hover_name":"O'Hare Airport"},"geometry":{"type":"Point","coordinates":[-87.901848,41.978877]}},{"type":"Feature","properties":{"label":null,"hover_name":"35-Bronzeville-IIT"},"geometry":{"type":"Point","coordinates":[-87.625881,41.831678]}},{"type":"Feature","properties":{"label":null,"hover_name":"Irving Park-Ravenswood"},"geometry":{"type":"Point","coordinates":[-87.674956,41.954523]}},{"type":"Feature","properties":{"label":null,"hover_name":"Montrose-Ravenswood"},"geometry":{"type":"Point","coordinates":[-87.675165,41.961752]}},{"type":"Feature","properties":{"label":null,"hover_name":"Jefferson Park"},"geometry":{"type":"Point","coordinates":[-87.760892,41.970634]}},{"type":"Feature","properties":{"label":null,"hover_name":"Diversey"},"geometry":{"type":"Point","coordinates":[-87.653131,41.932732]}},{"type":"Feature","properties":{"label":null,"hover_name":"Monroe/Dearborn"},"geometry":{"type":"Point","coordinates":[-87.629378,41.880703]}},{"type":"Feature","properties":{"label":null,"hover_name":"Central-Lake"},"geometry":{"type":"Point","coordinates":[-87.76565,41.887389]}},{"type":"Feature","properties":{"label":null,"hover_name":"Cermak-Chinatown"},"geometry":{"type":"Point","coordinates":[-87.630968,41.853206]}},{"type":"Feature","properties":{"label":null,"hover_name":"Logan Square"},"geometry":{"type":"Point","coordinates":[-87.708541,41.929728]}},{"type":"Feature","properties":{"label":null,"hover_name":"Western-Ravenswood"},"geometry":{"type":"Point","coordinates":[-87.688503,41.96625]}},{"type":"Feature","properties":{"label":null,"hover_name":"Washington/Dearborn"},"geometry":{"type":"Point","coordinates":[-87.62944,41.883164]}},{"type":"Feature","properties":{"label":null,"hover_name":"Damen-Lake"},"geometry":{"type":"Point","coordinates":[-87.676886,41.884966]}},{"type":"Feature","properties":{"label":null,"hover_name":"Wellington"},"geometry":{"type":"Point","coordinates":[-87.653266,41.936033]}},{"type":"Feature","properties":{"label":null,"hover_name":"Oakton-Skokie"},"geometry":{"type":"Point","coordinates":[-87.747221,42.026244]}},{"type":"Feature","properties":{"label":null,"hover_name":"UIC-Halsted"},"geometry":{"type":"Point","coordinates":[-87.649642,41.875516]}},{"type":"Feature","properties":{"label":null,"hover_name":"Central Park"},"geometry":{"type":"Point","coordinates":[-87.71488,41.853992]}},{"type":"Feature","properties":{"label":null,"hover_name":"Ashland-Midway"},"geometry":{"type":"Point","coordinates":[-87.665312,41.839356]}},{"type":"Feature","properties":{"label":null,"hover_name":"Damen/Milwaukee"},"geometry":{"type":"Point","coordinates":[-87.677437,41.909744]}},{"type":"Feature","properties":{"label":null,"hover_name":"Noyes"},"geometry":{"type":"Point","coordinates":[-87.683337,42.058282]}},{"type":"Feature","properties":{"label":null,"hover_name":"Forest Park"},"geometry":{"type":"Point","coordinates":[-87.817318,41.874257]}},{"type":"Feature","properties":{"label":null,"hover_name":"California-Lake"},"geometry":{"type":"Point","coordinates":[-87.696234,41.88422]}},{"type":"Feature","properties":{"label":null,"hover_name":"95th/Dan Ryan"},"geometry":{"type":"Point","coordinates":[-87.624415,41.722376]}},{"type":"Feature","properties":{"label":null,"hover_name":"Sedgwick"},"geometry":{"type":"Point","coordinates":[-87.639302,41.910409]}},{"type":"Feature","properties":{"label":null,"hover_name":"Illinois Medical District"},"geometry":{"type":"Point","coordinates":[-87.673946,41.875635]}},{"type":"Feature","properties":{"label":null,"hover_name":"35th/Archer"},"geometry":{"type":"Point","coordinates":[-87.680587,41.82956]}},{"type":"Feature","properties":{"label":null,"hover_name":"Jarvis"},"geometry":{"type":"Point","coordinates":[-87.669092,42.015876]}},{"type":"Feature","properties":{"label":null,"hover_name":"Adams/Wabash"},"geometry":{"type":"Point","coordinates":[-87.626098,41.87951]}},{"type":"Feature","properties":{"label":null,"hover_name":"Ashland-Lake"},"geometry":{"type":"Point","coordinates":[-87.666951,41.885311]}},{"type":"Feature","properties":{"label":null,"hover_name":"Western-Douglas"},"geometry":{"type":"Point","coordinates":[-87.685179,41.854397]}},{"type":"Feature","properties":{"label":null,"hover_name":"Lawrence"},"geometry":{"type":"Point","coordinates":[-87.658493,41.969139]}},{"type":"Feature","properties":{"label":null,"hover_name":"54th/Cermak"},"geometry":{"type":"Point","coordinates":[-87.756692,41.851773]}},{"type":"Feature","properties":{"label":null,"hover_name":"Sheridan"},"geometry":{"type":"Point","coordinates":[-87.654929,41.953775]}},{"type":"Feature","properties":{"label":null,"hover_name":"Thorndale"},"geometry":{"type":"Point","coordinates":[-87.659076,41.990259]}},{"type":"Feature","properties":{"label":null,"hover_name":"Kedzie-Ravenswood"},"geometry":{"type":"Point","coordinates":[-87.708844,41.966093]}},{"type":"Feature","properties":{"label":null,"hover_name":"LaSalle/Van Buren"},"geometry":{"type":"Point","coordinates":[-87.631734,41.876855]}},{"type":"Feature","properties":{"label":null,"hover_name":"Harlem-Congress"},"geometry":{"type":"Point","coordinates":[-87.806961,41.87349]}},{"type":"Feature","properties":{"label":null,"hover_name":"Fullerton"},"geometry":{"type":"Point","coordinates":[-87.652866,41.925051]}},{"type":"Feature","properties":{"label":null,"hover_name":"Western-Congress"},"geometry":{"type":"Point","coordinates":[-87.688435,41.87553]}},{"type":"Feature","properties":{"label":null,"hover_name":"Damen-Ravenswood"},"geometry":{"type":"Point","coordinates":[-87.678635,41.966411]}},{"type":"Feature","properties":{"label":null,"hover_name":"Clark/Division"},"geometry":{"type":"Point","coordinates":[-87.631412,41.90392]}},{"type":"Feature","properties":{"label":null,"hover_name":"Ashland/63rd"},"geometry":{"type":"Point","coordinates":[-87.663845,41.778954]}},{"type":"Feature","properties":{"label":null,"hover_name":"Chicago/Franklin"},"geometry":{"type":"Point","coordinates":[-87.635947,41.896774]}},{"type":"Feature","properties":{"label":null,"hover_name":"69th"},"geometry":{"type":"Point","coordinates":[-87.625809,41.768368]}},{"type":"Feature","properties":{"label":null,"hover_name":"Roosevelt/State"},"geometry":{"type":"Point","coordinates":[-87.627402,41.867368]}},{"type":"Feature","properties":{"label":null,"hover_name":"Morse"},"geometry":{"type":"Point","coordinates":[-87.665909,42.008362]}},{"type":"Feature","properties":{"label":null,"hover_name":"Monroe/State"},"geometry":{"type":"Point","coordinates":[-87.627696,41.880745]}},{"type":"Feature","properties":{"label":null,"hover_name":"Cermak-McCormick Place"},"geometry":{"type":"Point","coordinates":[-87.626402,41.853115]}},{"type":"Feature","properties":{"label":null,"hover_name":"Western/Milwaukee"},"geometry":{"type":"Point","coordinates":[-87.687364,41.916157]}},{"type":"Feature","properties":{"label":null,"hover_name":"Howard"},"geometry":{"type":"Point","coordinates":[-87.672892,42.019063]}},{"type":"Feature","properties":{"label":null,"hover_name":"Sox-35th-Dan Ryan"},"geometry":{"type":"Point","coordinates":[-87.630636,41.831191]}},{"type":"Feature","properties":{"label":null,"hover_name":"43rd"},"geometry":{"type":"Point","coordinates":[-87.619036,41.816463]}},{"type":"Feature","properties":{"label":null,"hover_name":"Clinton-Congress"},"geometry":{"type":"Point","coordinates":[-87.640984,41.875539]}},{"type":"Feature","properties":{"label":null,"hover_name":"Division/Milwaukee"},"geometry":{"type":"Point","coordinates":[-87.666496,41.903355]}},{"type":"Feature","properties":{"label":null,"hover_name":"87th"},"geometry":{"type":"Point","coordinates":[-87.624753,41.735371]}},{"type":"Feature","properties":{"label":null,"hover_name":"California/Milwaukee"},"geometry":{"type":"Point","coordinates":[-87.69689,41.921939]}},{"type":"Feature","properties":{"label":null,"hover_name":"Kedzie-Midway"},"geometry":{"type":"Point","coordinates":[-87.704321,41.804349]}},{"type":"Feature","properties":{"label":null,"hover_name":"Pulaski-Lake"},"geometry":{"type":"Point","coordinates":[-87.725404,41.885412]}},{"type":"Feature","properties":{"label":null,"hover_name":"Cicero-Lake"},"geometry":{"type":"Point","coordinates":[-87.744698,41.886519]}},{"type":"Feature","properties":{"label":null,"hover_name":"Pulaski-Douglas"},"geometry":{"type":"Point","coordinates":[-87.724327,41.853857]}},{"type":"Feature","properties":{"label":null,"hover_name":"Belmont-North Main"},"geometry":{"type":"Point","coordinates":[-87.65338,41.939751]}},{"type":"Feature","properties":{"label":null,"hover_name":"Halsted/63rd"},"geometry":{"type":"Point","coordinates":[-87.644023,41.779028]}},{"type":"Feature","properties":{"label":null,"hover_name":"Dempster-Skokie"},"geometry":{"type":"Point","coordinates":[-87.751919,42.038951]}},{"type":"Feature","properties":{"label":null,"hover_name":"State/Lake"},"geometry":{"type":"Point","coordinates":[-87.627835,41.88574]}},{"type":"Feature","properties":{"label":null,"hover_name":"Western-Midway"},"geometry":{"type":"Point","coordinates":[-87.684065,41.804684]}},{"type":"Feature","properties":{"label":null,"hover_name":"Clinton-Lake"},"geometry":{"type":"Point","coordinates":[-87.641771,41.885703]}},{"type":"Feature","properties":{"label":null,"hover_name":"Jackson/Dearborn"},"geometry":{"type":"Point","coordinates":[-87.629296,41.878183]}},{"type":"Feature","properties":{"label":null,"hover_name":"Jackson/State"},"geometry":{"type":"Point","coordinates":[-87.627596,41.878153]}},{"type":"Feature","properties":{"label":null,"hover_name":"Damen"},"geometry":{"type":"Point","coordinates":[-87.675974,41.854515]}},{"type":"Feature","properties":{"label":null,"hover_name":"Oak Park-Congress"},"geometry":{"type":"Point","coordinates":[-87.791602,41.872108]}},{"type":"Feature","properties":{"label":null,"hover_name":"Bryn Mawr"},"geometry":{"type":"Point","coordinates":[-87.65884,41.983504]}},{"type":"Feature","properties":{"label":null,"hover_name":"Granville"},"geometry":{"type":"Point","coordinates":[-87.659202,41.993664]}},{"type":"Feature","properties":{"label":null,"hover_name":"Paulina"},"geometry":{"type":"Point","coordinates":[-87.670884,41.943709]}},{"type":"Feature","properties":{"label":null,"hover_name":"Austin-Congress"},"geometry":{"type":"Point","coordinates":[-87.776785,41.870886]}},{"type":"Feature","properties":{"label":null,"hover_name":"Kimball"},"geometry":{"type":"Point","coordinates":[-87.713142,41.967928]}},{"type":"Feature","properties":{"label":null,"hover_name":"Grand/State"},"geometry":{"type":"Point","coordinates":[-87.628021,41.891665]}},{"type":"Feature","properties":{"label":null,"hover_name":"Kedzie-Douglas"},"geometry":{"type":"Point","coordinates":[-87.705428,41.854131]}},{"type":"Feature","properties":{"label":null,"hover_name":"Conservatory-Central Park"},"geometry":{"type":"Point","coordinates":[-87.716523,41.884904]}},{"type":"Feature","properties":{"label":null,"hover_name":"Kostner"},"geometry":{"type":"Point","coordinates":[-87.733264,41.853751]}},{"type":"Feature","properties":{"label":null,"hover_name":"Harlem-O'Hare"},"geometry":{"type":"Point","coordinates":[-87.808895,41.982323]}}]}