{"type":"FeatureCollection","features":[{"type":"Feature","properties":{"label":null,"hover_name":"NOBLE - COMER"},"geometry":{"type":"Point","coordinates":[-87.604164,41.765252]}},{"type":"Feature","properties":{"label":null,"hover_name":"NOBLE - BAKER HS"},"geometry":{"type":"Point","coordinates":[-87.556201,41.734622]}},{"type":"Feature","properties":{"label":null,"hover_name":"CHICAGO VOCATIONAL HS"},"geometry":{"type":"Point","coordinates":[-87.573268,41.737174]}},{"type":"Feature","properties":{"label":null,"hover_name":"DUNBAR HS"},"geometry":{"type":"Point","coordinates":[-87.617637,41.840226]}},{"type":"Feature","properties":{"label":null,"hover_name":"SIMEON HS"},"geometry":{"type":"Point","coordinates":[-87.63541,41.745781]}},{"type":"Feature","properties":{"label":null,"hover_name":"BOGAN HS"},"geometry":{"type":"Point","coordinates":[-87.721097,41.749376]}},{"type":"Feature","properties":{"label":null,"hover_name":"FENGER HS"},"geometry":{"type":"Point","coordinates":[-87.637572,41.689951]}},{"type":"Feature","properties":{"label":null,"hover_name":"HARLAN HS"},"geometry":{"type":"Point","coordinates":[-87.620623,41.718372]}},{"type":"Feature","properties":{"label":null,"hover_name":"HIRSCH HS"},"geometry":{"type":"Point","coordinates":[-87.601727,41.753748]}},{"type":"Feature","properties":{"label":null,"hover_name":"HYDE PARK HS"},"geometry":{"type":"Point","coordinates":[-87.586615,41.782257]}},{"type":"Feature","properties":{"label":null,"hover_name":"MORGAN PARK HS"},"geometry":{"type":"Point","coordinates":[-87.665658,41.692035]}},{"type":"Feature","properties":{"label":null,"hover_name":"PHILLIPS HS"},"geometry":{"type":"Point","coordinates":[-87.619796,41.82388]}},{"type":"Feature","properties":{"label":null,"hover_name":"DAWES"},"geometry":{"type":"Point","coordinates":[-87.717353,41.745078]}},{"type":"Feature","properties":{"label":null,"hover_name":"DENEEN"},"geometry":{"type":"Point","coordinates":[-87.623345,41.76249]}},{"type":"Feature","properties":{"label":null,"hover_name":"CHICAGO AGRICULTURE HS"},"geometry":{"type":"Point","coordinates":[-87.71777,41.691221]}},{"type":"Feature","properties":{"label":null,"hover_name":"CHICAGO MILITARY HS"},"geometry":{"type":"Point","coordinates":[-87.619216,41.830555]}},{"type":"Feature","properties":{"label":null,"hover_name":"JULIAN HS"},"geometry":{"type":"Point","coordinates":[-87.653749,41.705859]}},{"type":"Feature","properties":{"label":null,"hover_name":"AVALON PARK"},"geometry":{"type":"Point","coordinates":[-87.591654,41.748247]}},{"type":"Feature","properties":{"label":null,"hover_name":"BARNARD"},"geometry":{"type":"Point","coordinates":[-87.658074,41.705131]}},{"type":"Feature","properties":{"label":null,"hover_name":"JOPLIN"},"geometry":{"type":"Point","coordinates":[-87.669366,41.749339]}},{"type":"Feature","properties":{"label":null,"hover_name":"HAMPTON"},"geometry":{"type":"Point","coordinates":[-87.708731,41.753457]}},{"type":"Feature","properties":{"label":null,"hover_name":"HALEY"},"geometry":{"type":"Point","coordinates":[-87.633632,41.68666]}},{"type":"Feature","properties":{"label":null,"hover_name":"BROWNELL"},"geometry":{"type":"Point","coordinates":[-87.621746,41.77162]}},{"type":"Feature","properties":{"label":null,"hover_name":"BOUCHET"},"geometry":{"type":"Point","coordinates":[-87.576075,41.760847]}},{"type":"Feature","properties":{"label":null,"hover_name":"BURNHAM"},"geometry":{"type":"Point","coordinates":[-87.567131,41.714402]}},{"type":"Feature","properties":{"label":null,"hover_name":"BURNSIDE"},"geometry":{"type":"Point","coordinates":[-87.607435,41.728481]}},{"type":"Feature","properties":{"label":null,"hover_name":"DAISY BATES"},"geometry":{"type":"Point","coordinates":[-87.580729,41.739226]}},{"type":"Feature","properties":{"label":null,"hover_name":"CARNEGIE"},"geometry":{"type":"Point","coordinates":[-87.590795,41.783368]}},{"type":"Feature","properties":{"label":null,"hover_name":"CARROLL"},"geometry":{"type":"Point","coordinates":[-87.696012,41.742517]}},{"type":"Feature","properties":{"label":null,"hover_name":"CLISSOLD"},"geometry":{"type":"Point","coordinates":[-87.680897,41.693026]}},{"type":"Feature","properties":{"label":null,"hover_name":"COLES"},"geometry":{"type":"Point","coordinates":[-87.56597,41.741413]}},{"type":"Feature","properties":{"label":null,"hover_name":"COOK"},"geometry":{"type":"Point","coordinates":[-87.659775,41.745237]}},{"type":"Feature","properties":{"label":null,"hover_name":"SMITH"},"geometry":{"type":"Point","coordinates":[-87.60466,41.707558]}},{"type":"Feature","properties":{"label":null,"hover_name":"DIXON"},"geometry":{"type":"Point","coordinates":[-87.609979,41.743669]}},{"type":"Feature","properties":{"label":null,"hover_name":"DOOLITTLE"},"geometry":{"type":"Point","coordinates":[-87.612275,41.831121]}},{"type":"Feature","properties":{"label":null,"hover_name":"TURNER-DREW"},"geometry":{"type":"Point","coordinates":[-87.630164,41.725609]}},{"type":"Feature","properties":{"label":null,"hover_name":"METCALFE"},"geometry":{"type":"Point","coordinates":[-87.634306,41.669444]}},{"type":"Feature","properties":{"label":null,"hover_name":"ESMOND"},"geometry":{"type":"Point","coordinates":[-87.669159,41.68942]}},{"type":"Feature","properties":{"label":null,"hover_name":"FERNWOOD"},"geometry":{"type":"Point","coordinates":[-87.640414,41.711184]}},{"type":"Feature","properties":{"label":null,"hover_name":"FISKE"},"geometry":{"type":"Point","coordinates":[-87.608633,41.785183]}},{"type":"Feature","properties":{"label":null,"hover_name":"FORT DEARBORN"},"geometry":{"type":"Point","coordinates":[-87.655481,41.729673]}},{"type":"Feature","properties":{"label":null,"hover_name":"FOSTER PARK"},"geometry":{"type":"Point","coordinates":[-87.668099,41.738425]}},{"type":"Feature","properties":{"label":null,"hover_name":"FARMER"},"geometry":{"type":"Point","coordinates":[-87.611784,41.818003]}},{"type":"Feature","properties":{"label":null,"hover_name":"GILLESPIE"},"geometry":{"type":"Point","coordinates":[-87.623719,41.725332]}},{"type":"Feature","properties":{"label":null,"hover_name":"OWENS"},"geometry":{"type":"Point","coordinates":[-87.622546,41.670618]}},{"type":"Feature","properties":{"label":null,"hover_name":"GRESHAM"},"geometry":{"type":"Point","coordinates":[-87.645025,41.73892]}},{"type":"Feature","properties":{"label":null,"hover_name":"WOODLAWN"},"geometry":{"type":"Point","coordinates":[-87.594392,41.773366]}},{"type":"Feature","properties":{"label":null,"hover_name":"HOYNE"},"geometry":{"type":"Point","coordinates":[-87.568228,41.733338]}},{"type":"Feature","properties":{"label":null,"hover_name":"CUFFE"},"geometry":{"type":"Point","coordinates":[-87.653633,41.742452]}},{"type":"Feature","properties":{"label":null,"hover_name":"KERSHAW"},"geometry":{"type":"Point","coordinates":[-87.640892,41.776453]}},{"type":"Feature","properties":{"label":null,"hover_name":"OWEN"},"geometry":{"type":"Point","coordinates":[-87.705749,41.74285]}},{"type":"Feature","properties":{"label":null,"hover_name":"WELLS ES"},"geometry":{"type":"Point","coordinates":[-87.61978,41.827355]}},{"type":"Feature","properties":{"label":null,"hover_name":"PARKER"},"geometry":{"type":"Point","coordinates":[-87.634086,41.77078]}},{"type":"Feature","properties":{"label":null,"hover_name":"PARK MANOR"},"geometry":{"type":"Point","coordinates":[-87.611546,41.766477]}},{"type":"Feature","properties":{"label":null,"hover_name":"HARVARD"},"geometry":{"type":"Point","coordinates":[-87.632737,41.757341]}},{"type":"Feature","properties":{"label":null,"hover_name":"KIPLING"},"geometry":{"type":"Point","coordinates":[-87.639521,41.723627]}},{"type":"Feature","properties":{"label":null,"hover_name":"KOZMINSKI"},"geometry":{"type":"Point","coordinates":[-87.602481,41.798002]}},{"type":"Feature","properties":{"label":null,"hover_name":"GREEN"},"geometry":{"type":"Point","coordinates":[-87.6525,41.719292]}},{"type":"Feature","properties":{"label":null,"hover_name":"MADISON"},"geometry":{"type":"Point","coordinates":[-87.590712,41.759548]}},{"type":"Feature","properties":{"label":null,"hover_name":"MANN"},"geometry":{"type":"Point","coordinates":[-87.574816,41.748274]}},{"type":"Feature","properties":{"label":null,"hover_name":"TILL"},"geometry":{"type":"Point","coordinates":[-87.609357,41.775424]}},{"type":"Feature","properties":{"label":null,"hover_name":"MCDADE"},"geometry":{"type":"Point","coordinates":[-87.619214,41.73455]}},{"type":"Feature","properties":{"label":null,"hover_name":"MOUNT VERNON"},"geometry":{"type":"Point","coordinates":[-87.647652,41.701952]}},{"type":"Feature","properties":{"label":null,"hover_name":"MURRAY"},"geometry":{"type":"Point","coordinates":[-87.59334,41.798535]}},{"type":"Feature","properties":{"label":null,"hover_name":"BROWN R"},"geometry":{"type":"Point","coordinates":[-87.638958,41.664873]}},{"type":"Feature","properties":{"label":null,"hover_name":"NEIL"},"geometry":{"type":"Point","coordinates":[-87.620933,41.738407]}},{"type":"Feature","properties":{"label":null,"hover_name":"OGLESBY"},"geometry":{"type":"Point","coordinates":[-87.645469,41.75467]}},{"type":"Feature","properties":{"label":null,"hover_name":"WASHINGTON H ES"},"geometry":{"type":"Point","coordinates":[-87.596257,41.728534]}},{"type":"Feature","properties":{"label":null,"hover_name":"PERSHING"},"geometry":{"type":"Point","coordinates":[-87.618338,41.836527]}},{"type":"Feature","properties":{"label":null,"hover_name":"GARVEY"},"geometry":{"type":"Point","coordinates":[-87.647577,41.706603]}},{"type":"Feature","properties":{"label":null,"hover_name":"PIRIE"},"geometry":{"type":"Point","coordinates":[-87.607891,41.74034]}},{"type":"Feature","properties":{"label":null,"hover_name":"RAY"},"geometry":{"type":"Point","coordinates":[-87.594752,41.792348]}},{"type":"Feature","properties":{"label":null,"hover_name":"REAVIS"},"geometry":{"type":"Point","coordinates":[-87.604925,41.804174]}},{"type":"Feature","properties":{"label":null,"hover_name":"REVERE"},"geometry":{"type":"Point","coordinates":[-87.600177,41.764196]}},{"type":"Feature","properties":{"label":null,"hover_name":"RUGGLES"},"geometry":{"type":"Point","coordinates":[-87.618066,41.751946]}},{"type":"Feature","properties":{"label":null,"hover_name":"RYDER"},"geometry":{"type":"Point","coordinates":[-87.638843,41.735379]}},{"type":"Feature","properties":{"label":null,"hover_name":"SHOOP"},"geometry":{"type":"Point","coordinates":[-87.658669,41.690919]}},{"type":"Feature","properties":{"label":null,"hover_name":"SCHMID"},"geometry":{"type":"Point","coordinates":[-87.596932,41.716989]}},{"type":"Feature","properties":{"label":null,"hover_name":"DUNNE"},"geometry":{"type":"Point","coordinates":[-87.639974,41.696496]}},{"type":"Feature","properties":{"label":null,"hover_name":"COLEMON"},"geometry":{"type":"Point","coordinates":[-87.658111,41.677505]}},{"type":"Feature","properties":{"label":null,"hover_name":"VANDERPOEL"},"geometry":{"type":"Point","coordinates":[-87.665559,41.720817]}},{"type":"Feature","properties":{"label":null,"hover_name":"LAVIZZO"},"geometry":{"type":"Point","coordinates":[-87.627148,41.696262]}},{"type":"Feature","properties":{"label":null,"hover_name":"WADSWORTH"},"geometry":{"type":"Point","coordinates":[-87.601018,41.773478]}},{"type":"Feature","properties":{"label":null,"hover_name":"WARREN"},"geometry":{"type":"Point","coordinates":[-87.575353,41.726763]}},{"type":"Feature","properties":{"label":null,"hover_name":"WHISTLER"},"geometry":{"type":"Point","coordinates":[-87.655384,41.683907]}},{"type":"Feature","properties":{"label":null,"hover_name":"ROBINSON"},"geometry":{"type":"Point","coordinates":[-87.599067,41.817349]}},{"type":"Feature","properties":{"label":null,"hover_name":"DULLES"},"geometry":{"type":"Point","coordinates":[-87.617214,41.779901]}},{"type":"Feature","properties":{"label":null,"hover_name":"ASHE"},"geometry":{"type":"Point","coordinates":[-87.601174,41.740184]}},{"type":"Feature","properties":{"label":null,"hover_name":"TANNER"},"geometry":{"type":"Point","coordinates":[-87.606791,41.760673]}},{"type":"Feature","properties":{"label":null,"hover_name":"ASHBURN"},"geometry":{"type":"Point","coordinates":[-87.70961,41.742351]}},{"type":"Feature","properties":{"label":null,"hover_name":"MAYS"},"geometry":{"type":"Point","coordinates":[-87.637277,41.772728]}},{"type":"Feature","properties":{"label":null,"hover_name":"HIGGINS"},"geometry":{"type":"Point","coordinates":[-87.646994,41.681031]}},{"type":"Feature","properties":{"label":null,"hover_name":"LENART"},"geometry":{"type":"Point","coordinates":[-87.62804,41.747186]}},{"type":"Feature","properties":{"label":null,"hover_name":"KING ES"},"geometry":{"type":"Point","coordinates":[-87.641335,41.765335]}},{"type":"Feature","properties":{"label":null,"hover_name":"WESTCOTT"},"geometry":{"type":"Point","coordinates":[-87.634751,41.748868]}},{"type":"Feature","properties":{"label":null,"hover_name":"MCDOWELL"},"geometry":{"type":"Point","coordinates":[-87.589589,41.733132]}},{"type":"Feature","properties":{"label":null,"hover_name":"WHITE"},"geometry":{"type":"Point","coordinates":[-87.650539,41.672309]}},{"type":"Feature","properties":{"label":null,"hover_name":"EARHART"},"geometry":{"type":"Point","coordinates":[-87.582182,41.726107]}},{"type":"Feature","properties":{"label":null,"hover_name":"BOWEN HS"},"geometry":{"type":"Point","coordinates":[-87.55755,41.734627]}},{"type":"Feature","properties":{"label":null,"hover_name":"WOODSON"},"geometry":{"type":"Point","coordinates":[-87.608419,41.814499]}},{"type":"Feature","properties":{"label":null,"hover_name":"BLACK"},"geometry":{"type":"Point","coordinates":[-87.576643,41.729692]}},{"type":"Feature","properties":{"label":null,"hover_name":"EVERS"},"geometry":{"type":"Point","coordinates":[-87.639305,41.715665]}},{"type":"Feature","properties":{"label":null,"hover_name":"WACKER"},"geometry":{"type":"Point","coordinates":[-87.648044,41.716193]}},{"type":"Feature","properties":{"label":null,"hover_name":"HUGHES L"},"geometry":{"type":"Point","coordinates":[-87.629869,41.705342]}},{"type":"Feature","properties":{"label":null,"hover_name":"JACKSON M"},"geometry":{"type":"Point","coordinates":[-87.646767,41.734125]}},{"type":"Feature","properties":{"label":null,"hover_name":"SOUTH SHORE ES"},"geometry":{"type":"Point","coordinates":[-87.590396,41.767755]}},{"type":"Feature","properties":{"label":null,"hover_name":"SOUTH SHORE INTL HS"},"geometry":{"type":"Point","coordinates":[-87.576353,41.758792]}},{"type":"Feature","properties":{"label":null,"hover_name":"GOODE HS"},"geometry":{"type":"Point","coordinates":[-87.707345,41.75375]}},{"type":"Feature","properties":{"label":null,"hover_name":"DYETT ARTS HS"},"geometry":{"type":"Point","coordinates":[-87.612239,41.801204]}},{"type":"Feature","properties":{"label":null,"hover_name":"ENGLEWOOD STEM HS"},"geometry":{"type":"Point","coordinates":[-87.636851,41.77025]}},{"type":"Feature","properties":{"label":null,"hover_name":"URBAN PREP - BRONZEVILLE HS"},"geometry":{"type":"Point","coordinates":[-87.613629,41.831118]}},{"type":"Feature","properties":{"label":null,"hover_name":"BARTON"},"geometry":{"type":"Point","coordinates":[-87.670927,41.754194]}},{"type":"Feature","properties":{"label":null,"hover_name":"U OF C - NKO"},"geometry":{"type":"Point","coordinates":[-87.598786,41.811183]}},{"type":"Feature","properties":{"label":null,"hover_name":"LEARN - SOUTH CHICAGO"},"geometry":{"type":"Point","coordinates":[-87.54558,41.733333]}},{"type":"Feature","properties":{"label":null,"hover_name":"NOBLE - BUTLER HS"},"geometry":{"type":"Point","coordinates":[-87.602573,41.706667]}},{"type":"Feature","properties":{"label":null,"hover_name":"BROOKS HS"},"geometry":{"type":"Point","coordinates":[-87.616353,41.692763]}},{"type":"Feature","properties":{"label":null,"hover_name":"WASHINGTON HS"},"geometry":{"type":"Point","coordinates":[-87.53757,41.688137]}},{"type":"Feature","properties":{"label":null,"hover_name":"KENWOOD HS"},"geometry":{"type":"Point","coordinates":[-87.590421,41.803772]}},{"type":"Feature","properties":{"label":null,"hover_name":"CLAY"},"geometry":{"type":"Point","coordinates":[-87.544614,41.654558]}},{"type":"Feature","properties":{"label":null,"hover_name":"KING HS"},"geometry":{"type":"Point","coordinates":[-87.603874,41.813675]}},{"type":"Feature","properties":{"label":null,"hover_name":"CARVER MILITARY HS"},"geometry":{"type":"Point","coordinates":[-87.59062,41.65629]}},{"type":"Feature","properties":{"label":null,"hover_name":"CORLISS HS"},"geometry":{"type":"Point","coordinates":[-87.601216,41.70666]}},{"type":"Feature","properties":{"label":null,"hover_name":"ADDAMS"},"geometry":{"type":"Point","coordinates":[-87.532976,41.698739]}},{"type":"Feature","properties":{"label":null,"hover_name":"BENNETT"},"geometry":{"type":"Point","coordinates":[-87.61739,41.710435]}},{"type":"Feature","properties":{"label":null,"hover_name":"BRADWELL"},"geometry":{"type":"Point","coordinates":[-87.557142,41.754365]}},{"type":"Feature","properties":{"label":null,"hover_name":"BRIGHT"},"geometry":{"type":"Point","coordinates":[-87.562084,41.699726]}},{"type":"Feature","properties":{"label":null,"hover_name":"CARVER G"},"geometry":{"type":"Point","coordinates":[-87.601756,41.65254]}},{"type":"Feature","properties":{"label":null,"hover_name":"ALDRIDGE"},"geometry":{"type":"Point","coordinates":[-87.606474,41.657405]}},{"type":"Feature","properties":{"label":null,"hover_name":"CURTIS"},"geometry":{"type":"Point","coordinates":[-87.621653,41.685418]}},{"type":"Feature","properties":{"label":null,"hover_name":"GALLISTEL"},"geometry":{"type":"Point","coordinates":[-87.535175,41.706801]}},{"type":"Feature","properties":{"label":null,"hover_name":"GRISSOM"},"geometry":{"type":"Point","coordinates":[-87.553307,41.662481]}},{"type":"Feature","properties":{"label":null,"hover_name":"ARIEL"},"geometry":{"type":"Point","coordinates":[-87.597503,41.811173]}},{"type":"Feature","properties":{"label":null,"hover_name":"CULLEN"},"geometry":{"type":"Point","coordinates":[-87.611244,41.700335]}},{"type":"Feature","properties":{"label":null,"hover_name":"NINOS HEROES"},"geometry":{"type":"Point","coordinates":[-87.551862,41.743753]}},{"type":"Feature","properties":{"label":null,"hover_name":"HARTE"},"geometry":{"type":"Point","coordinates":[-87.586854,41.793447]}},{"type":"Feature","properties":{"label":null,"hover_name":"MARSH"},"geometry":{"type":"Point","coordinates":[-87.552483,41.716588]}},{"type":"Feature","properties":{"label":null,"hover_name":"OKEEFFE"},"geometry":{"type":"Point","coordinates":[-87.572806,41.768602]}},{"type":"Feature","properties":{"label":null,"hover_name":"PARKSIDE"},"geometry":{"type":"Point","coordinates":[-87.582954,41.768555]}},{"type":"Feature","properties":{"label":null,"hover_name":"POE"},"geometry":{"type":"Point","coordinates":[-87.606419,41.70263]}},{"type":"Feature","properties":{"label":null,"hover_name":"PULLMAN"},"geometry":{"type":"Point","coordinates":[-87.609431,41.688819]}},{"type":"Feature","properties":{"label":null,"hover_name":"MIRELES"},"geometry":{"type":"Point","coordinates":[-87.552788,41.731717]}},{"type":"Feature","properties":{"label":null,"hover_name":"SHOESMITH"},"geometry":{"type":"Point","coordinates":[-87.593905,41.804294]}},{"type":"Feature","properties":{"label":null,"hover_name":"NEW SULLIVAN"},"geometry":{"type":"Point","coordinates":[-87.542928,41.743829]}},{"type":"Feature","properties":{"label":null,"hover_name":"TAYLOR"},"geometry":{"type":"Point","coordinates":[-87.532971,41.71547]}},{"type":"Feature","properties":{"label":null,"hover_name":"THORP J"},"geometry":{"type":"Point","coordinates":[-87.54428,41.733324]}},{"type":"Feature","properties":{"label":null,"hover_name":"WASHINGTON G ES"},"geometry":{"type":"Point","coordinates":[-87.536015,41.688131]}},{"type":"Feature","properties":{"label":null,"hover_name":"POWELL"},"geometry":{"type":"Point","coordinates":[-87.556789,41.760332]}},{"type":"Feature","properties":{"label":null,"hover_name":"DUBOIS"},"geometry":{"type":"Point","coordinates":[-87.61432,41.653733]}},{"type":"Feature","properties":{"label":null,"hover_name":"SADLOWSKI"},"geometry":{"type":"Point","coordinates":[-87.527985,41.704859]}},{"type":"Feature","properties":{"label":null,"hover_name":"PROSSER HS"},"geometry":{"type":"Point","coordinates":[-87.761048,41.920059]}},{"type":"Feature","properties":{"label":null,"hover_name":"NORTH-GRAND HS"},"geometry":{"type":"Point","coordinates":[-87.735238,41.911674]}},{"type":"Feature","properties":{"label":null,"hover_name":"FOREMAN HS"},"geometry":{"type":"Point","coordinates":[-87.754167,41.939797]}},{"type":"Feature","properties":{"label":null,"hover_name":"KELVYN PARK HS"},"geometry":{"type":"Point","coordinates":[-87.735999,41.927918]}},{"type":"Feature","properties":{"label":null,"hover_name":"LANE TECH HS"},"geometry":{"type":"Point","coordinates":[-87.691013,41.946645]}},{"type":"Feature","properties":{"label":null,"hover_name":"ROOSEVELT HS"},"geometry":{"type":"Point","coordinates":[-87.714819,41.964828]}},{"type":"Feature","properties":{"label":null,"hover_name":"STEINMETZ HS"},"geometry":{"type":"Point","coordinates":[-87.783515,41.935634]}},{"type":"Feature","properties":{"label":null,"hover_name":"VON STEUBEN HS"},"geometry":{"type":"Point","coordinates":[-87.713386,41.973185]}},{"type":"Feature","properties":{"label":null,"hover_name":"HENRY"},"geometry":{"type":"Point","coordinates":[-87.715632,41.958989]}},{"type":"Feature","properties":{"label":null,"hover_name":"HIBBARD"},"geometry":{"type":"Point","coordinates":[-87.710362,41.970335]}},{"type":"Feature","properties":{"label":null,"hover_name":"DARWIN"},"geometry":{"type":"Point","coordinates":[-87.705413,41.923323]}},{"type":"Feature","properties":{"label":null,"hover_name":"CHASE"},"geometry":{"type":"Point","coordinates":[-87.694562,41.917993]}},{"type":"Feature","properties":{"label":null,"hover_name":"CHOPIN"},"geometry":{"type":"Point","coordinates":[-87.688937,41.896713]}},{"type":"Feature","properties":{"label":null,"hover_name":"CLEVELAND"},"geometry":{"type":"Point","coordinates":[-87.706443,41.952042]}},{"type":"Feature","properties":{"label":null,"hover_name":"MARINE LEADERSHIP AT AMES HS"},"geometry":{"type":"Point","coordinates":[-87.721742,41.916045]}},{"type":"Feature","properties":{"label":null,"hover_name":"BARRY"},"geometry":{"type":"Point","coordinates":[-87.739388,41.932511]}},{"type":"Feature","properties":{"label":null,"hover_name":"BATEMAN"},"geometry":{"type":"Point","coordinates":[-87.702151,41.95822]}},{"type":"Feature","properties":{"label":null,"hover_name":"EDISON"},"geometry":{"type":"Point","coordinates":[-87.709304,41.971506]}},{"type":"Feature","properties":{"label":null,"hover_name":"BRENTANO"},"geometry":{"type":"Point","coordinates":[-87.696294,41.930966]}},{"type":"Feature","properties":{"label":null,"hover_name":"BRIDGE"},"geometry":{"type":"Point","coordinates":[-87.798669,41.949114]}},{"type":"Feature","properties":{"label":null,"hover_name":"CAMERON"},"geometry":{"type":"Point","coordinates":[-87.717927,41.903792]}},{"type":"Feature","properties":{"label":null,"hover_name":"CANTY"},"geometry":{"type":"Point","coordinates":[-87.829296,41.948007]}},{"type":"Feature","properties":{"label":null,"hover_name":"DEVER"},"geometry":{"type":"Point","coordinates":[-87.813132,41.942552]}},{"type":"Feature","properties":{"label":null,"hover_name":"FALCONER"},"geometry":{"type":"Point","coordinates":[-87.749331,41.935785]}},{"type":"Feature","properties":{"label":null,"hover_name":"BELMONT-CRAGIN"},"geometry":{"type":"Point","coordinates":[-87.778683,41.923808]}},{"type":"Feature","properties":{"label":null,"hover_name":"FUNSTON"},"geometry":{"type":"Point","coordinates":[-87.716892,41.917617]}},{"type":"Feature","properties":{"label":null,"hover_name":"GOETHE"},"geometry":{"type":"Point","coordinates":[-87.6929,41.922831]}},{"type":"Feature","properties":{"label":null,"hover_name":"GRAY"},"geometry":{"type":"Point","coordinates":[-87.757116,41.948764]}},{"type":"Feature","properties":{"label":null,"hover_name":"CASALS"},"geometry":{"type":"Point","coordinates":[-87.714234,41.904503]}},{"type":"Feature","properties":{"label":null,"hover_name":"PICCOLO"},"geometry":{"type":"Point","coordinates":[-87.731261,41.90014]}},{"type":"Feature","properties":{"label":null,"hover_name":"MCAULIFFE"},"geometry":{"type":"Point","coordinates":[-87.723931,41.914816]}},{"type":"Feature","properties":{"label":null,"hover_name":"HAUGAN"},"geometry":{"type":"Point","coordinates":[-87.723128,41.964029]}},{"type":"Feature","properties":{"label":null,"hover_name":"VON LINNE"},"geometry":{"type":"Point","coordinates":[-87.702635,41.940009]}},{"type":"Feature","properties":{"label":null,"hover_name":"LLOYD"},"geometry":{"type":"Point","coordinates":[-87.748515,41.918814]}},{"type":"Feature","properties":{"label":null,"hover_name":"LOCKE J"},"geometry":{"type":"Point","coordinates":[-87.795604,41.931762]}},{"type":"Feature","properties":{"label":null,"hover_name":"LOWELL"},"geometry":{"type":"Point","coordinates":[-87.710217,41.90652]}},{"type":"Feature","properties":{"label":null,"hover_name":"LYON"},"geometry":{"type":"Point","coordinates":[-87.777174,41.934192]}},{"type":"Feature","properties":{"label":null,"hover_name":"NORTHWEST"},"geometry":{"type":"Point","coordinates":[-87.757921,41.920611]}},{"type":"Feature","properties":{"label":null,"hover_name":"HANSON PARK"},"geometry":{"type":"Point","coordinates":[-87.761515,41.923955]}},{"type":"Feature","properties":{"label":null,"hover_name":"LOGAN SQUARE"},"geometry":{"type":"Point","coordinates":[-87.719224,41.929989]}},{"type":"Feature","properties":{"label":null,"hover_name":"MOOS"},"geometry":{"type":"Point","coordinates":[-87.696941,41.912505]}},{"type":"Feature","properties":{"label":null,"hover_name":"MOZART"},"geometry":{"type":"Point","coordinates":[-87.721888,41.92091]}},{"type":"Feature","properties":{"label":null,"hover_name":"MURPHY"},"geometry":{"type":"Point","coordinates":[-87.716832,41.950078]}},{"type":"Feature","properties":{"label":null,"hover_name":"NIXON"},"geometry":{"type":"Point","coordinates":[-87.73142,41.919581]}},{"type":"Feature","properties":{"label":null,"hover_name":"NOBEL"},"geometry":{"type":"Point","coordinates":[-87.729955,41.906155]}},{"type":"Feature","properties":{"label":null,"hover_name":"WEST PARK"},"geometry":{"type":"Point","coordinates":[-87.732443,41.906907]}},{"type":"Feature","properties":{"label":null,"hover_name":"PORTAGE PARK"},"geometry":{"type":"Point","coordinates":[-87.761007,41.956988]}},{"type":"Feature","properties":{"label":null,"hover_name":"REILLY"},"geometry":{"type":"Point","coordinates":[-87.719541,41.941094]}},{"type":"Feature","properties":{"label":null,"hover_name":"REINBERG"},"geometry":{"type":"Point","coordinates":[-87.768983,41.943019]}},{"type":"Feature","properties":{"label":null,"hover_name":"SCAMMON"},"geometry":{"type":"Point","coordinates":[-87.732179,41.941678]}},{"type":"Feature","properties":{"label":null,"hover_name":"SCHUBERT"},"geometry":{"type":"Point","coordinates":[-87.76119,41.930403]}},{"type":"Feature","properties":{"label":null,"hover_name":"SMYSER"},"geometry":{"type":"Point","coordinates":[-87.781975,41.958868]}},{"type":"Feature","properties":{"label":null,"hover_name":"STOWE"},"geometry":{"type":"Point","coordinates":[-87.713318,41.911938]}},{"type":"Feature","properties":{"label":null,"hover_name":"RICKOVER MILITARY HS"},"geometry":{"type":"Point","coordinates":[-87.769938,41.957599]}},{"type":"Feature","properties":{"label":null,"hover_name":"THORP O"},"geometry":{"type":"Point","coordinates":[-87.777631,41.948571]}},{"type":"Feature","properties":{"label":null,"hover_name":"VOLTA"},"geometry":{"type":"Point","coordinates":[-87.724605,41.971634]}},{"type":"Feature","properties":{"label":null,"hover_name":"ALBANY PARK"},"geometry":{"type":"Point","coordinates":[-87.710609,41.971504]}},{"type":"Feature","properties":{"label":null,"hover_name":"YATES"},"geometry":{"type":"Point","coordinates":[-87.70028,41.915039]}},{"type":"Feature","properties":{"label":null,"hover_name":"CHICAGO ACADEMY ES"},"geometry":{"type":"Point","coordinates":[-87.778187,41.943056]}},{"type":"Feature","properties":{"label":null,"hover_name":"AVONDALE-LOGANDALE"},"geometry":{"type":"Point","coordinates":[-87.708041,41.93397]}},{"type":"Feature","properties":{"label":null,"hover_name":"CHICAGO ACADEMY HS"},"geometry":{"type":"Point","coordinates":[-87.776847,41.943054]}},{"type":"Feature","properties":{"label":null,"hover_name":"NORTH RIVER"},"geometry":{"type":"Point","coordinates":[-87.72122,41.966403]}},{"type":"Feature","properties":{"label":null,"hover_name":"PRIETO"},"geometry":{"type":"Point","coordinates":[-87.765781,41.921318]}},{"type":"Feature","properties":{"label":null,"hover_name":"CAMRAS"},"geometry":{"type":"Point","coordinates":[-87.770127,41.934931]}},{"type":"Feature","properties":{"label":null,"hover_name":"LORCA"},"geometry":{"type":"Point","coordinates":[-87.724783,41.940026]}},{"type":"Feature","properties":{"label":null,"hover_name":"DISNEY II HS"},"geometry":{"type":"Point","coordinates":[-87.721364,41.952488]}},{"type":"Feature","properties":{"label":null,"hover_name":"HANCOCK HS"},"geometry":{"type":"Point","coordinates":[-87.758238,41.775366]}},{"type":"Feature","properties":{"label":null,"hover_name":"FARRAGUT HS"},"geometry":{"type":"Point","coordinates":[-87.708706,41.84856]}},{"type":"Feature","properties":{"label":null,"hover_name":"GAGE PARK HS"},"geometry":{"type":"Point","coordinates":[-87.688954,41.791013]}},{"type":"Feature","properties":{"label":null,"hover_name":"KELLY HS"},"geometry":{"type":"Point","coordinates":[-87.694639,41.818729]}},{"type":"Feature","properties":{"label":null,"hover_name":"HUBBARD HS"},"geometry":{"type":"Point","coordinates":[-87.718014,41.780527]}},{"type":"Feature","properties":{"label":null,"hover_name":"HEDGES"},"geometry":{"type":"Point","coordinates":[-87.673327,41.807112]}},{"type":"Feature","properties":{"label":null,"hover_name":"LARA"},"geometry":{"type":"Point","coordinates":[-87.672182,41.80977]}},{"type":"Feature","properties":{"label":null,"hover_name":"HOLDEN"},"geometry":{"type":"Point","coordinates":[-87.653792,41.838027]}},{"type":"Feature","properties":{"label":null,"hover_name":"DAVIS N"},"geometry":{"type":"Point","coordinates":[-87.700202,41.821852]}},{"type":"Feature","properties":{"label":null,"hover_name":"CHRISTOPHER"},"geometry":{"type":"Point","coordinates":[-87.685607,41.801659]}},{"type":"Feature","properties":{"label":null,"hover_name":"CURIE HS"},"geometry":{"type":"Point","coordinates":[-87.722042,41.80306]}},{"type":"Feature","properties":{"label":null,"hover_name":"JUAREZ HS"},"geometry":{"type":"Point","coordinates":[-87.664339,41.85267]}},{"type":"Feature","properties":{"label":null,"hover_name":"ARMOUR"},"geometry":{"type":"Point","coordinates":[-87.650653,41.833854]}},{"type":"Feature","properties":{"label":null,"hover_name":"BURROUGHS"},"geometry":{"type":"Point","coordinates":[-87.692457,41.828868]}},{"type":"Feature","properties":{"label":null,"hover_name":"LITTLE VILLAGE"},"geometry":{"type":"Point","coordinates":[-87.717319,41.843698]}},{"type":"Feature","properties":{"label":null,"hover_name":"CARSON"},"geometry":{"type":"Point","coordinates":[-87.687799,41.793272]}},{"type":"Feature","properties":{"label":null,"hover_name":"COOPER"},"geometry":{"type":"Point","coordinates":[-87.667227,41.856031]}},{"type":"Feature","properties":{"label":null,"hover_name":"CORKERY"},"geometry":{"type":"Point","coordinates":[-87.731193,41.845602]}},{"type":"Feature","properties":{"label":null,"hover_name":"PEREZ"},"geometry":{"type":"Point","coordinates":[-87.65798,41.856029]}},{"type":"Feature","properties":{"label":null,"hover_name":"HEARST"},"geometry":{"type":"Point","coordinates":[-87.745726,41.808175]}},{"type":"Feature","properties":{"label":null,"hover_name":"EBERHART"},"geometry":{"type":"Point","coordinates":[-87.707953,41.774421]}},{"type":"Feature","properties":{"label":null,"hover_name":"EDWARDS"},"geometry":{"type":"Point","coordinates":[-87.725856,41.805542]}},{"type":"Feature","properties":{"label":null,"hover_name":"EVERETT"},"geometry":{"type":"Point","coordinates":[-87.68131,41.831555]}},{"type":"Feature","properties":{"label":null,"hover_name":"KANOON"},"geometry":{"type":"Point","coordinates":[-87.705112,41.850771]}},{"type":"Feature","properties":{"label":null,"hover_name":"TELPOCHCALLI"},"geometry":{"type":"Point","coordinates":[-87.696006,41.847947]}},{"type":"Feature","properties":{"label":null,"hover_name":"GARY"},"geometry":{"type":"Point","coordinates":[-87.718697,41.837065]}},{"type":"Feature","properties":{"label":null,"hover_name":"ORTIZ DE DOMINGUEZ"},"geometry":{"type":"Point","coordinates":[-87.71719,41.838791]}},{"type":"Feature","properties":{"label":null,"hover_name":"GREENE"},"geometry":{"type":"Point","coordinates":[-87.671492,41.829669]}},{"type":"Feature","properties":{"label":null,"hover_name":"GRIMES"},"geometry":{"type":"Point","coordinates":[-87.758803,41.775465]}},{"type":"Feature","properties":{"label":null,"hover_name":"GUNSAULUS"},"geometry":{"type":"Point","coordinates":[-87.699364,41.813008]}},{"type":"Feature","properties":{"label":null,"hover_name":"HURLEY"},"geometry":{"type":"Point","coordinates":[-87.719541,41.766785]}},{"type":"Feature","properties":{"label":null,"hover_name":"PILSEN"},"geometry":{"type":"Point","coordinates":[-87.662209,41.858849]}},{"type":"Feature","properties":{"label":null,"hover_name":"JUNGMAN"},"geometry":{"type":"Point","coordinates":[-87.652302,41.858065]}},{"type":"Feature","properties":{"label":null,"hover_name":"SAUCEDO"},"geometry":{"type":"Point","coordinates":[-87.697316,41.847941]}},{"type":"Feature","properties":{"label":null,"hover_name":"HAMLINE"},"geometry":{"type":"Point","coordinates":[-87.661175,41.807242]}},{"type":"Feature","properties":{"label":null,"hover_name":"HAMMOND"},"geometry":{"type":"Point","coordinates":[-87.696243,41.852719]}},{"type":"Feature","properties":{"label":null,"hover_name":"FINKL"},"geometry":{"type":"Point","coordinates":[-87.685668,41.849215]}},{"type":"Feature","properties":{"label":null,"hover_name":"ZAPATA"},"geometry":{"type":"Point","coordinates":[-87.734313,41.841394]}},{"type":"Feature","properties":{"label":null,"hover_name":"CARDENAS"},"geometry":{"type":"Point","coordinates":[-87.716017,41.848488]}},{"type":"Feature","properties":{"label":null,"hover_name":"FAIRFIELD"},"geometry":{"type":"Point","coordinates":[-87.692115,41.780904]}},{"type":"Feature","properties":{"label":null,"hover_name":"MCCORMICK"},"geometry":{"type":"Point","coordinates":[-87.7063,41.842267]}},{"type":"Feature","properties":{"label":null,"hover_name":"NIGHTINGALE"},"geometry":{"type":"Point","coordinates":[-87.689139,41.797715]}},{"type":"Feature","properties":{"label":null,"hover_name":"PASTEUR"},"geometry":{"type":"Point","coordinates":[-87.732666,41.786896]}},{"type":"Feature","properties":{"label":null,"hover_name":"PECK"},"geometry":{"type":"Point","coordinates":[-87.719216,41.787899]}},{"type":"Feature","properties":{"label":null,"hover_name":"RUIZ"},"geometry":{"type":"Point","coordinates":[-87.680745,41.848101]}},{"type":"Feature","properties":{"label":null,"hover_name":"PICKARD"},"geometry":{"type":"Point","coordinates":[-87.683291,41.8529]}},{"type":"Feature","properties":{"label":null,"hover_name":"CHAVEZ"},"geometry":{"type":"Point","coordinates":[-87.666037,41.807143]}},{"type":"Feature","properties":{"label":null,"hover_name":"SAWYER"},"geometry":{"type":"Point","coordinates":[-87.705006,41.797498]}},{"type":"Feature","properties":{"label":null,"hover_name":"SEWARD"},"geometry":{"type":"Point","coordinates":[-87.668772,41.810333]}},{"type":"Feature","properties":{"label":null,"hover_name":"COLUMBIA EXPLORERS"},"geometry":{"type":"Point","coordinates":[-87.704199,41.811069]}},{"type":"Feature","properties":{"label":null,"hover_name":"SHIELDS"},"geometry":{"type":"Point","coordinates":[-87.689647,41.81591]}},{"type":"Feature","properties":{"label":null,"hover_name":"STEVENSON"},"geometry":{"type":"Point","coordinates":[-87.731666,41.747107]}},{"type":"Feature","properties":{"label":null,"hover_name":"SANDOVAL"},"geometry":{"type":"Point","coordinates":[-87.710987,41.792346]}},{"type":"Feature","properties":{"label":null,"hover_name":"WHITNEY"},"geometry":{"type":"Point","coordinates":[-87.725546,41.84008]}},{"type":"Feature","properties":{"label":null,"hover_name":"WHITTIER"},"geometry":{"type":"Point","coordinates":[-87.673392,41.850481]}},{"type":"Feature","properties":{"label":null,"hover_name":"WORLD LANGUAGE HS"},"geometry":{"type":"Point","coordinates":[-87.735292,41.834397]}},{"type":"Feature","properties":{"label":null,"hover_name":"TARKINGTON"},"geometry":{"type":"Point","coordinates":[-87.706445,41.764407]}},{"type":"Feature","properties":{"label":null,"hover_name":"MONARCAS ACADEMY"},"geometry":{"type":"Point","coordinates":[-87.708179,41.787523]}},{"type":"Feature","properties":{"label":null,"hover_name":"TWAIN"},"geometry":{"type":"Point","coordinates":[-87.758928,41.799047]}},{"type":"Feature","properties":{"label":null,"hover_name":"MADERO"},"geometry":{"type":"Point","coordinates":[-87.705064,41.840957]}},{"type":"Feature","properties":{"label":null,"hover_name":"WALSH"},"geometry":{"type":"Point","coordinates":[-87.648086,41.854836]}},{"type":"Feature","properties":{"label":null,"hover_name":"DALEY"},"geometry":{"type":"Point","coordinates":[-87.672206,41.802343]}},{"type":"Feature","properties":{"label":null,"hover_name":"TALMAN"},"geometry":{"type":"Point","coordinates":[-87.690261,41.794048]}},{"type":"Feature","properties":{"label":null,"hover_name":"LEE"},"geometry":{"type":"Point","coordinates":[-87.728884,41.775306]}},{"type":"Feature","properties":{"label":null,"hover_name":"BRIGHTON PARK"},"geometry":{"type":"Point","coordinates":[-87.692077,41.8239]}},{"type":"Feature","properties":{"label":null,"hover_name":"EVERGREEN"},"geometry":{"type":"Point","coordinates":[-87.667817,41.829356]}},{"type":"Feature","properties":{"label":null,"hover_name":"OROZCO"},"geometry":{"type":"Point","coordinates":[-87.67521,41.857755]}},{"type":"Feature","properties":{"label":null,"hover_name":"DURKIN PARK"},"geometry":{"type":"Point","coordinates":[-87.729955,41.738844]}},{"type":"Feature","properties":{"label":null,"hover_name":"CALMECA"},"geometry":{"type":"Point","coordinates":[-87.711654,41.824377]}},{"type":"Feature","properties":{"label":null,"hover_name":"SPRY HS"},"geometry":{"type":"Point","coordinates":[-87.698946,41.847762]}},{"type":"Feature","properties":{"label":null,"hover_name":"SOCIAL JUSTICE HS"},"geometry":{"type":"Point","coordinates":[-87.735299,41.833507]}},{"type":"Feature","properties":{"label":null,"hover_name":"INFINITY HS"},"geometry":{"type":"Point","coordinates":[-87.735278,41.836169]}},{"type":"Feature","properties":{"label":null,"hover_name":"MULTICULTURAL ARTS HS"},"geometry":{"type":"Point","coordinates":[-87.735283,41.835282]}},{"type":"Feature","properties":{"label":null,"hover_name":"HERNANDEZ"},"geometry":{"type":"Point","coordinates":[-87.71137,41.79348]}},{"type":"Feature","properties":{"label":null,"hover_name":"SOLORIO HS"},"geometry":{"type":"Point","coordinates":[-87.711059,41.795201]}},{"type":"Feature","properties":{"label":null,"hover_name":"AZUELA"},"geometry":{"type":"Point","coordinates":[-87.73992,41.771079]}},{"type":"Feature","properties":{"label":null,"hover_name":"SHIELDS MIDDLE"},"geometry":{"type":"Point","coordinates":[-87.68978,41.806492]}},{"type":"Feature","properties":{"label":null,"hover_name":"BACK OF THE YARDS HS"},"geometry":{"type":"Point","coordinates":[-87.677541,41.808413]}},{"type":"Feature","properties":{"label":null,"hover_name":"SPRY ES"},"geometry":{"type":"Point","coordinates":[-87.700184,41.847747]}},{"type":"Feature","properties":{"label":null,"hover_name":"RICHARDSON"},"geometry":{"type":"Point","coordinates":[-87.725422,41.783827]}},{"type":"Feature","properties":{"label":null,"hover_name":"SOR JUANA"},"geometry":{"type":"Point","coordinates":[-87.72447,41.791464]}},{"type":"Feature","properties":{"label":null,"hover_name":"ROWE"},"geometry":{"type":"Point","coordinates":[-87.664072,41.907797]}},{"type":"Feature","properties":{"label":null,"hover_name":"LAKE VIEW HS"},"geometry":{"type":"Point","coordinates":[-87.668953,41.954764]}},{"type":"Feature","properties":{"label":null,"hover_name":"MATHER HS"},"geometry":{"type":"Point","coordinates":[-87.702496,41.987589]}},{"type":"Feature","properties":{"label":null,"hover_name":"SCHURZ HS"},"geometry":{"type":"Point","coordinates":[-87.735612,41.946365]}},{"type":"Feature","properties":{"label":null,"hover_name":"TAFT HS"},"geometry":{"type":"Point","coordinates":[-87.791547,41.982961]}},{"type":"Feature","properties":{"label":null,"hover_name":"LINCOLN PARK HS"},"geometry":{"type":"Point","coordinates":[-87.646009,41.918268]}},{"type":"Feature","properties":{"label":null,"hover_name":"HITCH"},"geometry":{"type":"Point","coordinates":[-87.779123,41.983672]}},{"type":"Feature","properties":{"label":null,"hover_name":"NORTHSIDE PREP HS"},"geometry":{"type":"Point","coordinates":[-87.708708,41.981315]}},{"type":"Feature","properties":{"label":null,"hover_name":"TUBMAN"},"geometry":{"type":"Point","coordinates":[-87.656229,41.934126]}},{"type":"Feature","properties":{"label":null,"hover_name":"AUDUBON"},"geometry":{"type":"Point","coordinates":[-87.681041,41.945062]}},{"type":"Feature","properties":{"label":null,"hover_name":"BEAUBIEN"},"geometry":{"type":"Point","coordinates":[-87.757565,41.972394]}},{"type":"Feature","properties":{"label":null,"hover_name":"BELDING"},"geometry":{"type":"Point","coordinates":[-87.73402,41.958938]}},{"type":"Feature","properties":{"label":null,"hover_name":"BELL"},"geometry":{"type":"Point","coordinates":[-87.686018,41.94953]}},{"type":"Feature","properties":{"label":null,"hover_name":"BLAINE"},"geometry":{"type":"Point","coordinates":[-87.664968,41.950781]}},{"type":"Feature","properties":{"label":null,"hover_name":"BUDLONG"},"geometry":{"type":"Point","coordinates":[-87.696556,41.975754]}},{"type":"Feature","properties":{"label":null,"hover_name":"BURLEY"},"geometry":{"type":"Point","coordinates":[-87.669853,41.937937]}},{"type":"Feature","properties":{"label":null,"hover_name":"BURR"},"geometry":{"type":"Point","coordinates":[-87.668661,41.912358]}},{"type":"Feature","properties":{"label":null,"hover_name":"COONLEY"},"geometry":{"type":"Point","coordinates":[-87.683765,41.955553]}},{"type":"Feature","properties":{"label":null,"hover_name":"DRUMMOND"},"geometry":{"type":"Point","coordinates":[-87.674495,41.915914]}},{"type":"Feature","properties":{"label":null,"hover_name":"EDGEBROOK"},"geometry":{"type":"Point","coordinates":[-87.76184,41.999437]}},{"type":"Feature","properties":{"label":null,"hover_name":"FARNSWORTH"},"geometry":{"type":"Point","coordinates":[-87.766072,41.97979]}},{"type":"Feature","properties":{"label":null,"hover_name":"GARVY"},"geometry":{"type":"Point","coordinates":[-87.796235,41.976352]}},{"type":"Feature","properties":{"label":null,"hover_name":"JAHN"},"geometry":{"type":"Point","coordinates":[-87.67581,41.939247]}},{"type":"Feature","properties":{"label":null,"hover_name":"JAMIESON"},"geometry":{"type":"Point","coordinates":[-87.700529,41.984641]}},{"type":"Feature","properties":{"label":null,"hover_name":"ORIOLE PARK"},"geometry":{"type":"Point","coordinates":[-87.812054,41.978501]}},{"type":"Feature","properties":{"label":null,"hover_name":"PALMER"},"geometry":{"type":"Point","coordinates":[-87.739213,41.973289]}},{"type":"Feature","properties":{"label":null,"hover_name":"HAMILTON"},"geometry":{"type":"Point","coordinates":[-87.670865,41.94522]}},{"type":"Feature","properties":{"label":null,"hover_name":"HAWTHORNE"},"geometry":{"type":"Point","coordinates":[-87.657709,41.942275]}},{"type":"Feature","properties":{"label":null,"hover_name":"LOZANO"},"geometry":{"type":"Point","coordinates":[-87.665093,41.908886]}},{"type":"Feature","properties":{"label":null,"hover_name":"LASALLE"},"geometry":{"type":"Point","coordinates":[-87.637565,41.9139]}},{"type":"Feature","properties":{"label":null,"hover_name":"LINCOLN"},"geometry":{"type":"Point","coordinates":[-87.644497,41.924525]}},{"type":"Feature","properties":{"label":null,"hover_name":"MAYER"},"geometry":{"type":"Point","coordinates":[-87.657287,41.923204]}},{"type":"Feature","properties":{"label":null,"hover_name":"MCPHERSON"},"geometry":{"type":"Point","coordinates":[-87.676288,41.967847]}},{"type":"Feature","properties":{"label":null,"hover_name":"INTER-AMERICAN"},"geometry":{"type":"Point","coordinates":[-87.651573,41.949003]}},{"type":"Feature","properties":{"label":null,"hover_name":"NETTELHORST"},"geometry":{"type":"Point","coordinates":[-87.644561,41.941637]}},{"type":"Feature","properties":{"label":null,"hover_name":"NEWBERRY"},"geometry":{"type":"Point","coordinates":[-87.64599,41.913947]}},{"type":"Feature","properties":{"label":null,"hover_name":"NORWOOD PARK"},"geometry":{"type":"Point","coordinates":[-87.802979,41.988153]}},{"type":"Feature","properties":{"label":null,"hover_name":"ONAHAN"},"geometry":{"type":"Point","coordinates":[-87.793108,41.99379]}},{"type":"Feature","properties":{"label":null,"hover_name":"PETERSON"},"geometry":{"type":"Point","coordinates":[-87.712583,41.981557]}},{"type":"Feature","properties":{"label":null,"hover_name":"PRESCOTT"},"geometry":{"type":"Point","coordinates":[-87.669528,41.928841]}},{"type":"Feature","properties":{"label":null,"hover_name":"PRUSSING"},"geometry":{"type":"Point","coordinates":[-87.772414,41.965619]}},{"type":"Feature","properties":{"label":null,"hover_name":"PULASKI"},"geometry":{"type":"Point","coordinates":[-87.683801,41.918486]}},{"type":"Feature","properties":{"label":null,"hover_name":"RAVENSWOOD"},"geometry":{"type":"Point","coordinates":[-87.670922,41.960746]}},{"type":"Feature","properties":{"label":null,"hover_name":"SAUGANASH"},"geometry":{"type":"Point","coordinates":[-87.745951,41.991169]}},{"type":"Feature","properties":{"label":null,"hover_name":"SOLOMON"},"geometry":{"type":"Point","coordinates":[-87.724043,41.993942]}},{"type":"Feature","properties":{"label":null,"hover_name":"WILDWOOD"},"geometry":{"type":"Point","coordinates":[-87.778345,42.007491]}},{"type":"Feature","properties":{"label":null,"hover_name":"WATERS"},"geometry":{"type":"Point","coordinates":[-87.691333,41.964365]}},{"type":"Feature","properties":{"label":null,"hover_name":"EDISON PARK"},"geometry":{"type":"Point","coordinates":[-87.813771,41.994238]}},{"type":"Feature","properties":{"label":null,"hover_name":"ALCOTT HS"},"geometry":{"type":"Point","coordinates":[-87.680562,41.935795]}},{"type":"Feature","properties":{"label":null,"hover_name":"ALCOTT ES"},"geometry":{"type":"Point","coordinates":[-87.646413,41.92985]}},{"type":"Feature","properties":{"label":null,"hover_name":"OGDEN ES"},"geometry":{"type":"Point","coordinates":[-87.629297,41.899976]}},{"type":"Feature","properties":{"label":null,"hover_name":"DISNEY II ES"},"geometry":{"type":"Point","coordinates":[-87.730678,41.950461]}},{"type":"Feature","properties":{"label":null,"hover_name":"KENNEDY HS"},"geometry":{"type":"Point","coordinates":[-87.78084,41.789962]}},{"type":"Feature","properties":{"label":null,"hover_name":"BYRNE"},"geometry":{"type":"Point","coordinates":[-87.791544,41.795031]}},{"type":"Feature","properties":{"label":null,"hover_name":"CASSELL"},"geometry":{"type":"Point","coordinates":[-87.703215,41.687347]}},{"type":"Feature","properties":{"label":null,"hover_name":"DORE"},"geometry":{"type":"Point","coordinates":[-87.799359,41.773899]}},{"type":"Feature","properties":{"label":null,"hover_name":"KELLOGG"},"geometry":{"type":"Point","coordinates":[-87.677233,41.725263]}},{"type":"Feature","properties":{"label":null,"hover_name":"HALE"},"geometry":{"type":"Point","coordinates":[-87.776579,41.780192]}},{"type":"Feature","properties":{"label":null,"hover_name":"KINZIE"},"geometry":{"type":"Point","coordinates":[-87.779483,41.789965]}},{"type":"Feature","properties":{"label":null,"hover_name":"MOUNT GREENWOOD"},"geometry":{"type":"Point","coordinates":[-87.70581,41.695734]}},{"type":"Feature","properties":{"label":null,"hover_name":"KELLER"},"geometry":{"type":"Point","coordinates":[-87.697278,41.69717]}},{"type":"Feature","properties":{"label":null,"hover_name":"SUTHERLAND"},"geometry":{"type":"Point","coordinates":[-87.676821,41.711445]}},{"type":"Feature","properties":{"label":null,"hover_name":"KIPP - ASCEND"},"geometry":{"type":"Point","coordinates":[-87.721071,41.85837]}},{"type":"Feature","properties":{"label":null,"hover_name":"NLCP - COLLINS HS"},"geometry":{"type":"Point","coordinates":[-87.708986,41.857564]}},{"type":"Feature","properties":{"label":null,"hover_name":"KIPP - ACADEMY"},"geometry":{"type":"Point","coordinates":[-87.746614,41.891816]}},{"type":"Feature","properties":{"label":null,"hover_name":"JONES HS"},"geometry":{"type":"Point","coordinates":[-87.627675,41.873066]}},{"type":"Feature","properties":{"label":null,"hover_name":"PAYTON HS"},"geometry":{"type":"Point","coordinates":[-87.635385,41.901575]}},{"type":"Feature","properties":{"label":null,"hover_name":"RICHARDS HS"},"geometry":{"type":"Point","coordinates":[-87.662278,41.802881]}},{"type":"Feature","properties":{"label":null,"hover_name":"WESTINGHOUSE HS"},"geometry":{"type":"Point","coordinates":[-87.707332,41.889977]}},{"type":"Feature","properties":{"label":null,"hover_name":"MANLEY HS"},"geometry":{"type":"Point","coordinates":[-87.699896,41.870939]}},{"type":"Feature","properties":{"label":null,"hover_name":"MARSHALL HS"},"geometry":{"type":"Point","coordinates":[-87.70805,41.878444]}},{"type":"Feature","properties":{"label":null,"hover_name":"TILDEN HS"},"geometry":{"type":"Point","coordinates":[-87.642966,41.80751]}},{"type":"Feature","properties":{"label":null,"hover_name":"WELLS HS"},"geometry":{"type":"Point","coordinates":[-87.667483,41.898995]}},{"type":"Feature","properties":{"label":null,"hover_name":"HEFFERAN"},"geometry":{"type":"Point","coordinates":[-87.735802,41.878665]}},{"type":"Feature","properties":{"label":null,"hover_name":"HENDERSON"},"geometry":{"type":"Point","coordinates":[-87.671887,41.790591]}},{"type":"Feature","properties":{"label":null,"hover_name":"HENDRICKS"},"geometry":{"type":"Point","coordinates":[-87.633664,41.815788]}},{"type":"Feature","properties":{"label":null,"hover_name":"SOUTH LOOP"},"geometry":{"type":"Point","coordinates":[-87.628349,41.859741]}},{"type":"Feature","properties":{"label":null,"hover_name":"HERZL"},"geometry":{"type":"Point","coordinates":[-87.718994,41.862081]}},{"type":"Feature","properties":{"label":null,"hover_name":"HOLMES"},"geometry":{"type":"Point","coordinates":[-87.649795,41.793788]}},{"type":"Feature","properties":{"label":null,"hover_name":"CHALMERS"},"geometry":{"type":"Point","coordinates":[-87.695259,41.866435]}},{"type":"Feature","properties":{"label":null,"hover_name":"YOUNG HS"},"geometry":{"type":"Point","coordinates":[-87.664233,41.878603]}},{"type":"Feature","properties":{"label":null,"hover_name":"CLEMENTE HS"},"geometry":{"type":"Point","coordinates":[-87.686906,41.902626]}},{"type":"Feature","properties":{"label":null,"hover_name":"BASS"},"geometry":{"type":"Point","coordinates":[-87.653532,41.774247]}},{"type":"Feature","properties":{"label":null,"hover_name":"NICHOLSON"},"geometry":{"type":"Point","coordinates":[-87.647453,41.784942]}},{"type":"Feature","properties":{"label":null,"hover_name":"CLARK ES"},"geometry":{"type":"Point","coordinates":[-87.770418,41.867813]}},{"type":"Feature","properties":{"label":null,"hover_name":"BEIDLER"},"geometry":{"type":"Point","coordinates":[-87.705855,41.885321]}},{"type":"Feature","properties":{"label":null,"hover_name":"BROWN W"},"geometry":{"type":"Point","coordinates":[-87.670682,41.882997]}},{"type":"Feature","properties":{"label":null,"hover_name":"BURBANK"},"geometry":{"type":"Point","coordinates":[-87.7827,41.917598]}},{"type":"Feature","properties":{"label":null,"hover_name":"BURKE"},"geometry":{"type":"Point","coordinates":[-87.61614,41.79676]}},{"type":"Feature","properties":{"label":null,"hover_name":"BRUNSON"},"geometry":{"type":"Point","coordinates":[-87.765606,41.897663]}},{"type":"Feature","properties":{"label":null,"hover_name":"CARTER"},"geometry":{"type":"Point","coordinates":[-87.622453,41.789828]}},{"type":"Feature","properties":{"label":null,"hover_name":"GINSBURG"},"geometry":{"type":"Point","coordinates":[-87.681938,41.899566]}},{"type":"Feature","properties":{"label":null,"hover_name":"LANGFORD"},"geometry":{"type":"Point","coordinates":[-87.657169,41.784681]}},{"type":"Feature","properties":{"label":null,"hover_name":"CROWN"},"geometry":{"type":"Point","coordinates":[-87.71247,41.852663]}},{"type":"Feature","properties":{"label":null,"hover_name":"HEALY"},"geometry":{"type":"Point","coordinates":[-87.640341,41.839595]}},{"type":"Feature","properties":{"label":null,"hover_name":"DEWEY"},"geometry":{"type":"Point","coordinates":[-87.642651,41.795646]}},{"type":"Feature","properties":{"label":null,"hover_name":"DRAKE"},"geometry":{"type":"Point","coordinates":[-87.628553,41.844043]}},{"type":"Feature","properties":{"label":null,"hover_name":"EARLE"},"geometry":{"type":"Point","coordinates":[-87.675547,41.781225]}},{"type":"Feature","properties":{"label":null,"hover_name":"ELLINGTON"},"geometry":{"type":"Point","coordinates":[-87.766589,41.88553]}},{"type":"Feature","properties":{"label":null,"hover_name":"ERICSON"},"geometry":{"type":"Point","coordinates":[-87.715804,41.875744]}},{"type":"Feature","properties":{"label":null,"hover_name":"KELLMAN"},"geometry":{"type":"Point","coordinates":[-87.702163,41.870168]}},{"type":"Feature","properties":{"label":null,"hover_name":"FRANKLIN"},"geometry":{"type":"Point","coordinates":[-87.635513,41.9066]}},{"type":"Feature","properties":{"label":null,"hover_name":"FULTON"},"geometry":{"type":"Point","coordinates":[-87.668436,41.79758]}},{"type":"Feature","properties":{"label":null,"hover_name":"RANDOLPH"},"geometry":{"type":"Point","coordinates":[-87.675966,41.760614]}},{"type":"Feature","properties":{"label":null,"hover_name":"GRAHAM ES"},"geometry":{"type":"Point","coordinates":[-87.643344,41.813304]}},{"type":"Feature","properties":{"label":null,"hover_name":"GREGORY"},"geometry":{"type":"Point","coordinates":[-87.718666,41.870742]}},{"type":"Feature","properties":{"label":null,"hover_name":"HAINES"},"geometry":{"type":"Point","coordinates":[-87.633806,41.849958]}},{"type":"Feature","properties":{"label":null,"hover_name":"HAY"},"geometry":{"type":"Point","coordinates":[-87.755813,41.899171]}},{"type":"Feature","properties":{"label":null,"hover_name":"HOWE"},"geometry":{"type":"Point","coordinates":[-87.759398,41.893612]}},{"type":"Feature","properties":{"label":null,"hover_name":"HUGHES C"},"geometry":{"type":"Point","coordinates":[-87.731777,41.860518]}},{"type":"Feature","properties":{"label":null,"hover_name":"GALILEO"},"geometry":{"type":"Point","coordinates":[-87.653366,41.871255]}},{"type":"Feature","properties":{"label":null,"hover_name":"OTIS"},"geometry":{"type":"Point","coordinates":[-87.665426,41.891806]}},{"type":"Feature","properties":{"label":null,"hover_name":"OTOOLE"},"geometry":{"type":"Point","coordinates":[-87.674865,41.774571]}},{"type":"Feature","properties":{"label":null,"hover_name":"LAWNDALE"},"geometry":{"type":"Point","coordinates":[-87.712957,41.86296]}},{"type":"Feature","properties":{"label":null,"hover_name":"LEWIS"},"geometry":{"type":"Point","coordinates":[-87.75455,41.906826]}},{"type":"Feature","properties":{"label":null,"hover_name":"LIBBY"},"geometry":{"type":"Point","coordinates":[-87.659933,41.797685]}},{"type":"Feature","properties":{"label":null,"hover_name":"LOVETT"},"geometry":{"type":"Point","coordinates":[-87.783919,41.912718]}},{"type":"Feature","properties":{"label":null,"hover_name":"MANIERRE"},"geometry":{"type":"Point","coordinates":[-87.639827,41.908247]}},{"type":"Feature","properties":{"label":null,"hover_name":"MARQUETTE"},"geometry":{"type":"Point","coordinates":[-87.69703,41.773881]}},{"type":"Feature","properties":{"label":null,"hover_name":"FARADAY"},"geometry":{"type":"Point","coordinates":[-87.708092,41.879714]}},{"type":"Feature","properties":{"label":null,"hover_name":"MASON"},"geometry":{"type":"Point","coordinates":[-87.729806,41.855029]}},{"type":"Feature","properties":{"label":null,"hover_name":"CHICAGO WORLD LANGUAGE ACADEMY"},"geometry":{"type":"Point","coordinates":[-87.660985,41.8743]}},{"type":"Feature","properties":{"label":null,"hover_name":"MINOSO"},"geometry":{"type":"Point","coordinates":[-87.641103,41.829993]}},{"type":"Feature","properties":{"label":null,"hover_name":"MCKAY"},"geometry":{"type":"Point","coordinates":[-87.691787,41.768143]}},{"type":"Feature","properties":{"label":null,"hover_name":"MITCHELL"},"geometry":{"type":"Point","coordinates":[-87.683185,41.892082]}},{"type":"Feature","properties":{"label":null,"hover_name":"MORRILL"},"geometry":{"type":"Point","coordinates":[-87.688549,41.784313]}},{"type":"Feature","properties":{"label":null,"hover_name":"SHERIDAN"},"geometry":{"type":"Point","coordinates":[-87.64134,41.8444]}},{"type":"Feature","properties":{"label":null,"hover_name":"NASH"},"geometry":{"type":"Point","coordinates":[-87.747936,41.89181]}},{"type":"Feature","properties":{"label":null,"hover_name":"IRVING"},"geometry":{"type":"Point","coordinates":[-87.683616,41.871595]}},{"type":"Feature","properties":{"label":null,"hover_name":"PENN"},"geometry":{"type":"Point","coordinates":[-87.722386,41.858372]}},{"type":"Feature","properties":{"label":null,"hover_name":"PLAMONDON"},"geometry":{"type":"Point","coordinates":[-87.692526,41.860259]}},{"type":"Feature","properties":{"label":null,"hover_name":"WARD L"},"geometry":{"type":"Point","coordinates":[-87.718797,41.893236]}},{"type":"Feature","properties":{"label":null,"hover_name":"SAYRE"},"geometry":{"type":"Point","coordinates":[-87.798721,41.914151]}},{"type":"Feature","properties":{"label":null,"hover_name":"SHERMAN"},"geometry":{"type":"Point","coordinates":[-87.650221,41.799766]}},{"type":"Feature","properties":{"label":null,"hover_name":"SHERWOOD"},"geometry":{"type":"Point","coordinates":[-87.632279,41.7908]}},{"type":"Feature","properties":{"label":null,"hover_name":"SKINNER"},"geometry":{"type":"Point","coordinates":[-87.659419,41.879103]}},{"type":"Feature","properties":{"label":null,"hover_name":"SMYTH"},"geometry":{"type":"Point","coordinates":[-87.653228,41.864953]}},{"type":"Feature","properties":{"label":null,"hover_name":"SPENCER"},"geometry":{"type":"Point","coordinates":[-87.750445,41.884876]}},{"type":"Feature","properties":{"label":null,"hover_name":"SUMNER"},"geometry":{"type":"Point","coordinates":[-87.733524,41.870828]}},{"type":"Feature","properties":{"label":null,"hover_name":"TALCOTT"},"geometry":{"type":"Point","coordinates":[-87.673723,41.892405]}},{"type":"Feature","properties":{"label":null,"hover_name":"PRITZKER"},"geometry":{"type":"Point","coordinates":[-87.677761,41.907053]}},{"type":"Feature","properties":{"label":null,"hover_name":"NATIONAL TEACHERS"},"geometry":{"type":"Point","coordinates":[-87.629308,41.8528]}},{"type":"Feature","properties":{"label":null,"hover_name":"LINDBLOM HS"},"geometry":{"type":"Point","coordinates":[-87.671662,41.782041]}},{"type":"Feature","properties":{"label":null,"hover_name":"SUDER"},"geometry":{"type":"Point","coordinates":[-87.677636,41.883215]}},{"type":"Feature","properties":{"label":null,"hover_name":"TILTON"},"geometry":{"type":"Point","coordinates":[-87.730566,41.884102]}},{"type":"Feature","properties":{"label":null,"hover_name":"WARD J"},"geometry":{"type":"Point","coordinates":[-87.635356,41.84398]}},{"type":"Feature","properties":{"label":null,"hover_name":"WEBSTER"},"geometry":{"type":"Point","coordinates":[-87.727524,41.869916]}},{"type":"Feature","properties":{"label":null,"hover_name":"WENTWORTH"},"geometry":{"type":"Point","coordinates":[-87.658205,41.765076]}},{"type":"Feature","properties":{"label":null,"hover_name":"YOUNG ES"},"geometry":{"type":"Point","coordinates":[-87.767143,41.906791]}},{"type":"Feature","properties":{"label":null,"hover_name":"BEETHOVEN"},"geometry":{"type":"Point","coordinates":[-87.627137,41.809135]}},{"type":"Feature","properties":{"label":null,"hover_name":"BOND"},"geometry":{"type":"Point","coordinates":[-87.653018,41.765361]}},{"type":"Feature","properties":{"label":null,"hover_name":"CLARK HS"},"geometry":{"type":"Point","coordinates":[-87.753325,41.872885]}},{"type":"Feature","properties":{"label":null,"hover_name":"DOUGLASS HS"},"geometry":{"type":"Point","coordinates":[-87.767668,41.890369]}},{"type":"Feature","properties":{"label":null,"hover_name":"BEASLEY"},"geometry":{"type":"Point","coordinates":[-87.625691,41.798465]}},{"type":"Feature","properties":{"label":null,"hover_name":"SALAZAR"},"geometry":{"type":"Point","coordinates":[-87.633632,41.901417]}},{"type":"Feature","properties":{"label":null,"hover_name":"CATHER"},"geometry":{"type":"Point","coordinates":[-87.699187,41.88295]}},{"type":"Feature","properties":{"label":null,"hover_name":"DETT"},"geometry":{"type":"Point","coordinates":[-87.680315,41.87987]}},{"type":"Feature","properties":{"label":null,"hover_name":"DVORAK"},"geometry":{"type":"Point","coordinates":[-87.715744,41.858883]}},{"type":"Feature","properties":{"label":null,"hover_name":"MORTON"},"geometry":{"type":"Point","coordinates":[-87.705108,41.889178]}},{"type":"Feature","properties":{"label":null,"hover_name":"JENSEN"},"geometry":{"type":"Point","coordinates":[-87.702241,41.873815]}},{"type":"Feature","properties":{"label":null,"hover_name":"JOHNSON"},"geometry":{"type":"Point","coordinates":[-87.703139,41.861836]}},{"type":"Feature","properties":{"label":null,"hover_name":"MOLLISON"},"geometry":{"type":"Point","coordinates":[-87.616618,41.814358]}},{"type":"Feature","properties":{"label":null,"hover_name":"MCNAIR"},"geometry":{"type":"Point","coordinates":[-87.746731,41.897819]}},{"type":"Feature","properties":{"label":null,"hover_name":"MELODY"},"geometry":{"type":"Point","coordinates":[-87.724661,41.878799]}},{"type":"Feature","properties":{"label":null,"hover_name":"PHOENIX MILITARY HS"},"geometry":{"type":"Point","coordinates":[-87.68696,41.879118]}},{"type":"Feature","properties":{"label":null,"hover_name":"LELAND"},"geometry":{"type":"Point","coordinates":[-87.749276,41.873587]}},{"type":"Feature","properties":{"label":null,"hover_name":"DE DIEGO"},"geometry":{"type":"Point","coordinates":[-87.685756,41.905294]}},{"type":"Feature","properties":{"label":null,"hover_name":"RABY HS"},"geometry":{"type":"Point","coordinates":[-87.715423,41.88621]}},{"type":"Feature","properties":{"label":null,"hover_name":"STAGG"},"geometry":{"type":"Point","coordinates":[-87.649217,41.758925]}},{"type":"Feature","properties":{"label":null,"hover_name":"SABIN"},"geometry":{"type":"Point","coordinates":[-87.68305,41.906816]}},{"type":"Feature","properties":{"label":null,"hover_name":"CLAREMONT"},"geometry":{"type":"Point","coordinates":[-87.681061,41.777511]}},{"type":"Feature","properties":{"label":null,"hover_name":"DEPRIEST"},"geometry":{"type":"Point","coordinates":[-87.766298,41.877979]}},{"type":"Feature","properties":{"label":null,"hover_name":"WILLIAMS HS"},"geometry":{"type":"Point","coordinates":[-87.62503,41.806118]}},{"type":"Feature","properties":{"label":null,"hover_name":"BRONZEVILLE HS"},"geometry":{"type":"Point","coordinates":[-87.625004,41.805204]}},{"type":"Feature","properties":{"label":null,"hover_name":"ORR HS"},"geometry":{"type":"Point","coordinates":[-87.72666,41.894547]}},{"type":"Feature","properties":{"label":null,"hover_name":"COLLINS STEAM HS"},"geometry":{"type":"Point","coordinates":[-87.702042,41.864149]}},{"type":"Feature","properties":{"label":null,"hover_name":"FRAZIER PROSPECTIVE"},"geometry":{"type":"Point","coordinates":[-87.727244,41.86698]}},{"type":"Feature","properties":{"label":null,"hover_name":"AIR FORCE HS"},"geometry":{"type":"Point","coordinates":[-87.632757,41.828145]}},{"type":"Feature","properties":{"label":null,"hover_name":"AUSTIN CCA HS"},"geometry":{"type":"Point","coordinates":[-87.761916,41.885993]}},{"type":"Feature","properties":{"label":null,"hover_name":"LASALLE II"},"geometry":{"type":"Point","coordinates":[-87.673696,41.902914]}},{"type":"Feature","properties":{"label":null,"hover_name":"DAVIS M"},"geometry":{"type":"Point","coordinates":[-87.66653,41.771221]}},{"type":"Feature","properties":{"label":null,"hover_name":"OGDEN HS"},"geometry":{"type":"Point","coordinates":[-87.659405,41.893548]}},{"type":"Feature","properties":{"label":null,"hover_name":"SKINNER NORTH"},"geometry":{"type":"Point","coordinates":[-87.644841,41.905109]}},{"type":"Feature","properties":{"label":null,"hover_name":"STEM"},"geometry":{"type":"Point","coordinates":[-87.664969,41.868576]}},{"type":"Feature","properties":{"label":null,"hover_name":"CRANE MEDICAL HS"},"geometry":{"type":"Point","coordinates":[-87.683301,41.876947]}},{"type":"Feature","properties":{"label":null,"hover_name":"KIPP - ONE"},"geometry":{"type":"Point","coordinates":[-87.726615,41.893805]}},{"type":"Feature","properties":{"label":null,"hover_name":"BRONZEVILLE CLASSICAL"},"geometry":{"type":"Point","coordinates":[-87.626621,41.819249]}},{"type":"Feature","properties":{"label":null,"hover_name":"DIRKSEN"},"geometry":{"type":"Point","coordinates":[-87.841041,41.973715]}},{"type":"Feature","properties":{"label":null,"hover_name":"AMUNDSEN HS"},"geometry":{"type":"Point","coordinates":[-87.679484,41.975067]}},{"type":"Feature","properties":{"label":null,"hover_name":"SENN HS"},"geometry":{"type":"Point","coordinates":[-87.667136,41.989029]}},{"type":"Feature","properties":{"label":null,"hover_name":"SULLIVAN HS"},"geometry":{"type":"Point","coordinates":[-87.669192,42.002688]}},{"type":"Feature","properties":{"label":null,"hover_name":"DECATUR"},"geometry":{"type":"Point","coordinates":[-87.704619,42.009289]}},{"type":"Feature","properties":{"label":null,"hover_name":"GREELEY"},"geometry":{"type":"Point","coordinates":[-87.65098,41.95281]}},{"type":"Feature","properties":{"label":null,"hover_name":"CHAPPELL"},"geometry":{"type":"Point","coordinates":[-87.683264,41.975894]}},{"type":"Feature","properties":{"label":null,"hover_name":"CLINTON"},"geometry":{"type":"Point","coordinates":[-87.69836,41.992541]}},{"type":"Feature","properties":{"label":null,"hover_name":"ARMSTRONG G"},"geometry":{"type":"Point","coordinates":[-87.684442,42.01015]}},{"type":"Feature","properties":{"label":null,"hover_name":"MOSAIC"},"geometry":{"type":"Point","coordinates":[-87.697463,42.003412]}},{"type":"Feature","properties":{"label":null,"hover_name":"JORDAN"},"geometry":{"type":"Point","coordinates":[-87.677763,42.017088]}},{"type":"Feature","properties":{"label":null,"hover_name":"EBINGER"},"geometry":{"type":"Point","coordinates":[-87.81117,42.004408]}},{"type":"Feature","properties":{"label":null,"hover_name":"FIELD"},"geometry":{"type":"Point","coordinates":[-87.669985,42.009664]}},{"type":"Feature","properties":{"label":null,"hover_name":"GALE"},"geometry":{"type":"Point","coordinates":[-87.671939,42.021091]}},{"type":"Feature","properties":{"label":null,"hover_name":"GOUDY"},"geometry":{"type":"Point","coordinates":[-87.657912,41.975817]}},{"type":"Feature","properties":{"label":null,"hover_name":"HAYT"},"geometry":{"type":"Point","coordinates":[-87.668504,41.994541]}},{"type":"Feature","properties":{"label":null,"hover_name":"KILMER"},"geometry":{"type":"Point","coordinates":[-87.668222,42.00364]}},{"type":"Feature","properties":{"label":null,"hover_name":"PEIRCE"},"geometry":{"type":"Point","coordinates":[-87.66585,41.983456]}},{"type":"Feature","properties":{"label":null,"hover_name":"ROGERS"},"geometry":{"type":"Point","coordinates":[-87.697185,42.015265]}},{"type":"Feature","properties":{"label":null,"hover_name":"STONE"},"geometry":{"type":"Point","coordinates":[-87.684793,41.995359]}},{"type":"Feature","properties":{"label":null,"hover_name":"SWIFT"},"geometry":{"type":"Point","coordinates":[-87.658296,41.989139]}},{"type":"Feature","properties":{"label":null,"hover_name":"UPLIFT HS"},"geometry":{"type":"Point","coordinates":[-87.652473,41.965547]}},{"type":"Feature","properties":{"label":null,"hover_name":"BRENNEMANN"},"geometry":{"type":"Point","coordinates":[-87.649749,41.959984]}},{"type":"Feature","properties":{"label":null,"hover_name":"MCCUTCHEON"},"geometry":{"type":"Point","coordinates":[-87.654758,41.970949]}},{"type":"Feature","properties":{"label":null,"hover_name":"NEW FIELD"},"geometry":{"type":"Point","coordinates":[-87.673168,42.007703]}},{"type":"Feature","properties":{"label":null,"hover_name":"COURTENAY"},"geometry":{"type":"Point","coordinates":[-87.663853,41.962308]}},{"type":"Feature","properties":{"label":null,"hover_name":"DISNEY"},"geometry":{"type":"Point","coordinates":[-87.646083,41.956816]}},{"type":"Feature","properties":{"label":null,"hover_name":"WEST RIDGE"},"geometry":{"type":"Point","coordinates":[-87.705917,42.002959]}},{"type":"Feature","properties":{"label":null,"hover_name":"CICS - AVALON/SOUTH SHORE"},"geometry":{"type":"Point","coordinates":[-87.587928,41.743179]}},{"type":"Feature","properties":{"label":null,"hover_name":"CICS - LOOMIS"},"geometry":{"type":"Point","coordinates":[-87.657561,41.720246]}},{"type":"Feature","properties":{"label":null,"hover_name":"CICS - WRIGHTWOOD"},"geometry":{"type":"Point","coordinates":[-87.692614,41.745365]}},{"type":"Feature","properties":{"label":null,"hover_name":"CICS - ELLISON HS"},"geometry":{"type":"Point","coordinates":[-87.66898,41.748382]}},{"type":"Feature","properties":{"label":null,"hover_name":"CICS - LONGWOOD"},"geometry":{"type":"Point","coordinates":[-87.655768,41.721221]}},{"type":"Feature","properties":{"label":null,"hover_name":"PERSPECTIVES - LEADERSHIP HS"},"geometry":{"type":"Point","coordinates":[-87.626501,41.738791]}},{"type":"Feature","properties":{"label":null,"hover_name":"PERSPECTIVES - TECH HS"},"geometry":{"type":"Point","coordinates":[-87.626495,41.737525]}},{"type":"Feature","properties":{"label":null,"hover_name":"PERSPECTIVES - MATH & SCI HS"},"geometry":{"type":"Point","coordinates":[-87.624788,41.827784]}},{"type":"Feature","properties":{"label":null,"hover_name":"U OF C - DONOGHUE"},"geometry":{"type":"Point","coordinates":[-87.608501,41.827726]}},{"type":"Feature","properties":{"label":null,"hover_name":"U OF C - WOODLAWN HS"},"geometry":{"type":"Point","coordinates":[-87.597379,41.780412]}},{"type":"Feature","properties":{"label":null,"hover_name":"NOBLE - JOHNSON HS"},"geometry":{"type":"Point","coordinates":[-87.635116,41.77837]}},{"type":"Feature","properties":{"label":null,"hover_name":"LEARN - PERKINS"},"geometry":{"type":"Point","coordinates":[-87.665721,41.743122]}},{"type":"Feature","properties":{"label":null,"hover_name":"NOBLE - HANSBERRY HS"},"geometry":{"type":"Point","coordinates":[-87.650987,41.734442]}},{"type":"Feature","properties":{"label":null,"hover_name":"YCCS - PROGRESSIVE LEADERSHIP"},"geometry":{"type":"Point","coordinates":[-87.615842,41.77417]}},{"type":"Feature","properties":{"label":null,"hover_name":"YCCS - YOUTH DEVELOPMENT"},"geometry":{"type":"Point","coordinates":[-87.641731,41.751377]}},{"type":"Feature","properties":{"label":null,"hover_name":"YCCS - SULLIVAN"},"geometry":{"type":"Point","coordinates":[-87.578492,41.746287]}},{"type":"Feature","properties":{"label":null,"hover_name":"CHICAGO EXCEL HS"},"geometry":{"type":"Point","coordinates":[-87.653727,41.691969]}},{"type":"Feature","properties":{"label":null,"hover_name":"YCCS - CHATHAM"},"geometry":{"type":"Point","coordinates":[-87.60698,41.730131]}},{"type":"Feature","properties":{"label":null,"hover_name":"PATHWAYS - ASHBURN HS"},"geometry":{"type":"Point","coordinates":[-87.70406,41.735239]}},{"type":"Feature","properties":{"label":null,"hover_name":"GREAT LAKES"},"geometry":{"type":"Point","coordinates":[-87.559907,41.742671]}},{"type":"Feature","properties":{"label":null,"hover_name":"ART IN MOTION"},"geometry":{"type":"Point","coordinates":[-87.583328,41.760034]}},{"type":"Feature","properties":{"label":null,"hover_name":"OMBUDSMAN - ROSELAND HS"},"geometry":{"type":"Point","coordinates":[-87.642816,41.695105]}},{"type":"Feature","properties":{"label":null,"hover_name":"CICS - PRAIRIE"},"geometry":{"type":"Point","coordinates":[-87.616888,41.684433]}},{"type":"Feature","properties":{"label":null,"hover_name":"CICS - BOND"},"geometry":{"type":"Point","coordinates":[-87.605039,41.653663]}},{"type":"Feature","properties":{"label":null,"hover_name":"EPIC HS"},"geometry":{"type":"Point","coordinates":[-87.550222,41.744849]}},{"type":"Feature","properties":{"label":null,"hover_name":"YCCS - OLIVE HARVEY"},"geometry":{"type":"Point","coordinates":[-87.592333,41.712922]}},{"type":"Feature","properties":{"label":null,"hover_name":"CHICAGO COLLEGIATE"},"geometry":{"type":"Point","coordinates":[-87.617968,41.679318]}},{"type":"Feature","properties":{"label":null,"hover_name":"EXCEL SOUTH SHORE HS"},"geometry":{"type":"Point","coordinates":[-87.556487,41.759749]}},{"type":"Feature","properties":{"label":null,"hover_name":"SAFE ACHIEVE HS"},"geometry":{"type":"Point","coordinates":[-87.551804,41.753115]}},{"type":"Feature","properties":{"label":null,"hover_name":"SAFE ACHIEVE ES"},"geometry":{"type":"Point","coordinates":[-87.550513,41.753117]}},{"type":"Feature","properties":{"label":null,"hover_name":"ASPIRA - EARLY COLLEGE HS"},"geometry":{"type":"Point","coordinates":[-87.727096,41.937298]}},{"type":"Feature","properties":{"label":null,"hover_name":"CHIARTS HS"},"geometry":{"type":"Point","coordinates":[-87.694945,41.899377]}},{"type":"Feature","properties":{"label":null,"hover_name":"CICS - IRVING PARK"},"geometry":{"type":"Point","coordinates":[-87.710492,41.950891]}},{"type":"Feature","properties":{"label":null,"hover_name":"CICS - WEST BELDEN"},"geometry":{"type":"Point","coordinates":[-87.776749,41.921687]}},{"type":"Feature","properties":{"label":null,"hover_name":"ERIE"},"geometry":{"type":"Point","coordinates":[-87.694364,41.906771]}},{"type":"Feature","properties":{"label":null,"hover_name":"NOBLE - PRITZKER HS"},"geometry":{"type":"Point","coordinates":[-87.730127,41.915214]}},{"type":"Feature","properties":{"label":null,"hover_name":"ACERO - FUENTES"},"geometry":{"type":"Point","coordinates":[-87.699594,41.937476]}},{"type":"Feature","properties":{"label":null,"hover_name":"ACERO - SANTIAGO"},"geometry":{"type":"Point","coordinates":[-87.689896,41.900344]}},{"type":"Feature","properties":{"label":null,"hover_name":"ACERO - CLEMENTE"},"geometry":{"type":"Point","coordinates":[-87.78783,41.917952]}},{"type":"Feature","properties":{"label":null,"hover_name":"YCCS - ASPIRA PANTOJA"},"geometry":{"type":"Point","coordinates":[-87.727137,41.938187]}},{"type":"Feature","properties":{"label":null,"hover_name":"YCCS - ASSOCIATION HOUSE"},"geometry":{"type":"Point","coordinates":[-87.70686,41.901572]}},{"type":"Feature","properties":{"label":null,"hover_name":"YCCS - CAMPOS"},"geometry":{"type":"Point","coordinates":[-87.696006,41.90285]}},{"type":"Feature","properties":{"label":null,"hover_name":"CHRISTOPHER HOUSE"},"geometry":{"type":"Point","coordinates":[-87.757522,41.922181]}},{"type":"Feature","properties":{"label":null,"hover_name":"INTRINSIC HS"},"geometry":{"type":"Point","coordinates":[-87.741129,41.938988]}},{"type":"Feature","properties":{"label":null,"hover_name":"NOBLE - ITW SPEER HS"},"geometry":{"type":"Point","coordinates":[-87.759675,41.917266]}},{"type":"Feature","properties":{"label":null,"hover_name":"VAUGHN HS"},"geometry":{"type":"Point","coordinates":[-87.764663,41.960364]}},{"type":"Feature","properties":{"label":null,"hover_name":"PATHWAYS - AVONDALE HS"},"geometry":{"type":"Point","coordinates":[-87.705206,41.939433]}},{"type":"Feature","properties":{"label":null,"hover_name":"ASPIRA - BUSINESS & FINANCE HS"},"geometry":{"type":"Point","coordinates":[-87.718204,41.935726]}},{"type":"Feature","properties":{"label":null,"hover_name":"PATHWAYS - HUMBOLDT PARK HS"},"geometry":{"type":"Point","coordinates":[-87.687946,41.902841]}},{"type":"Feature","properties":{"label":null,"hover_name":"GLOBAL CITIZENSHIP"},"geometry":{"type":"Point","coordinates":[-87.740098,41.807579]}},{"type":"Feature","properties":{"label":null,"hover_name":"NAMASTE"},"geometry":{"type":"Point","coordinates":[-87.667724,41.8257]}},{"type":"Feature","properties":{"label":null,"hover_name":"ACERO - ZIZUMBO"},"geometry":{"type":"Point","coordinates":[-87.730495,41.810135]}},{"type":"Feature","properties":{"label":null,"hover_name":"ACERO - TORRES"},"geometry":{"type":"Point","coordinates":[-87.730451,41.8082]}},{"type":"Feature","properties":{"label":null,"hover_name":"ACERO - DE LAS CASAS"},"geometry":{"type":"Point","coordinates":[-87.667949,41.859504]}},{"type":"Feature","properties":{"label":null,"hover_name":"ACERO - TAMAYO"},"geometry":{"type":"Point","coordinates":[-87.693862,41.79993]}},{"type":"Feature","properties":{"label":null,"hover_name":"ACERO - GARCIA HS"},"geometry":{"type":"Point","coordinates":[-87.730467,41.809171]}},{"type":"Feature","properties":{"label":null,"hover_name":"ACERO - MARQUEZ"},"geometry":{"type":"Point","coordinates":[-87.697394,41.808309]}},{"type":"Feature","properties":{"label":null,"hover_name":"ACERO - CISNEROS"},"geometry":{"type":"Point","coordinates":[-87.693996,41.822884]}},{"type":"Feature","properties":{"label":null,"hover_name":"INSTITUTO - HEALTH HS"},"geometry":{"type":"Point","coordinates":[-87.68724,41.845967]}},{"type":"Feature","properties":{"label":null,"hover_name":"ACERO - IDAR"},"geometry":{"type":"Point","coordinates":[-87.708797,41.801043]}},{"type":"Feature","properties":{"label":null,"hover_name":"YCCS - LATINO YOUTH"},"geometry":{"type":"Point","coordinates":[-87.69543,41.854665]}},{"type":"Feature","properties":{"label":null,"hover_name":"YCCS - YOUTH CONNECTION"},"geometry":{"type":"Point","coordinates":[-87.728232,41.800402]}},{"type":"Feature","properties":{"label":null,"hover_name":"INSTITUTO - JUSTICE HS"},"geometry":{"type":"Point","coordinates":[-87.684065,41.845446]}},{"type":"Feature","properties":{"label":null,"hover_name":"ACERO - SOTO HS"},"geometry":{"type":"Point","coordinates":[-87.711025,41.801762]}},{"type":"Feature","properties":{"label":null,"hover_name":"ACERO - BRIGHTON PARK"},"geometry":{"type":"Point","coordinates":[-87.693238,41.81311]}},{"type":"Feature","properties":{"label":null,"hover_name":"HORIZON - SOUTHWEST"},"geometry":{"type":"Point","coordinates":[-87.683963,41.795201]}},{"type":"Feature","properties":{"label":null,"hover_name":"PATHWAYS - BRIGHTON PARK HS"},"geometry":{"type":"Point","coordinates":[-87.702645,41.808226]}},{"type":"Feature","properties":{"label":null,"hover_name":"YORK HS"},"geometry":{"type":"Point","coordinates":[-87.695261,41.842533]}},{"type":"Feature","properties":{"label":null,"hover_name":"PEACE AND EDUCATION HS"},"geometry":{"type":"Point","coordinates":[-87.667378,41.803515]}},{"type":"Feature","properties":{"label":null,"hover_name":"THOMAS"},"geometry":{"type":"Point","coordinates":[-87.677542,41.827775]}},{"type":"Feature","properties":{"label":null,"hover_name":"NOBLE - MANSUETO HS"},"geometry":{"type":"Point","coordinates":[-87.697058,41.807987]}},{"type":"Feature","properties":{"label":null,"hover_name":"CICS - BUCKTOWN"},"geometry":{"type":"Point","coordinates":[-87.681358,41.922415]}},{"type":"Feature","properties":{"label":null,"hover_name":"CICS - NORTHTOWN HS"},"geometry":{"type":"Point","coordinates":[-87.726504,41.990245]}},{"type":"Feature","properties":{"label":null,"hover_name":"NORTHSIDE LEARNING HS"},"geometry":{"type":"Point","coordinates":[-87.722386,41.982973]}},{"type":"Feature","properties":{"label":null,"hover_name":"BEARD"},"geometry":{"type":"Point","coordinates":[-87.78963,41.970125]}},{"type":"Feature","properties":{"label":null,"hover_name":"DEVRY HS"},"geometry":{"type":"Point","coordinates":[-87.676326,41.96882]}},{"type":"Feature","properties":{"label":null,"hover_name":"FISHER"},"geometry":{"type":"Point","coordinates":[-87.634631,41.916]}},{"type":"Feature","properties":{"label":null,"hover_name":"CATALPA"},"geometry":{"type":"Point","coordinates":[-87.763564,41.976505]}},{"type":"Feature","properties":{"label":null,"hover_name":"VICK"},"geometry":{"type":"Point","coordinates":[-87.685677,41.688191]}},{"type":"Feature","properties":{"label":null,"hover_name":"BLAIR"},"geometry":{"type":"Point","coordinates":[-87.790604,41.776557]}},{"type":"Feature","properties":{"label":null,"hover_name":"LOCKE A"},"geometry":{"type":"Point","coordinates":[-87.705235,41.877248]}},{"type":"Feature","properties":{"label":null,"hover_name":"CATALYST - CIRCLE ROCK"},"geometry":{"type":"Point","coordinates":[-87.765322,41.882322]}},{"type":"Feature","properties":{"label":null,"hover_name":"CICS - BASIL"},"geometry":{"type":"Point","coordinates":[-87.670243,41.794043]}},{"type":"Feature","properties":{"label":null,"hover_name":"CICS - WASHINGTON PARK"},"geometry":{"type":"Point","coordinates":[-87.621261,41.784126]}},{"type":"Feature","properties":{"label":null,"hover_name":"LEARN - BUTLER"},"geometry":{"type":"Point","coordinates":[-87.710679,41.867273]}},{"type":"Feature","properties":{"label":null,"hover_name":"LEARN - CAMPBELL"},"geometry":{"type":"Point","coordinates":[-87.698739,41.877861]}},{"type":"Feature","properties":{"label":null,"hover_name":"LEARN - EXCEL"},"geometry":{"type":"Point","coordinates":[-87.702071,41.88732]}},{"type":"Feature","properties":{"label":null,"hover_name":"LEGACY"},"geometry":{"type":"Point","coordinates":[-87.708508,41.856962]}},{"type":"Feature","properties":{"label":null,"hover_name":"NOBLE - NOBLE HS"},"geometry":{"type":"Point","coordinates":[-87.662628,41.900191]}},{"type":"Feature","properties":{"label":null,"hover_name":"NOBLE - GOLDER HS"},"geometry":{"type":"Point","coordinates":[-87.664483,41.895282]}},{"type":"Feature","properties":{"label":null,"hover_name":"NOBLE - RAUNER HS"},"geometry":{"type":"Point","coordinates":[-87.660859,41.892425]}},{"type":"Feature","properties":{"label":null,"hover_name":"NOBLE - ROWE CLARK HS"},"geometry":{"type":"Point","coordinates":[-87.718047,41.895362]}},{"type":"Feature","properties":{"label":null,"hover_name":"NOBLE - UIC HS"},"geometry":{"type":"Point","coordinates":[-87.676111,41.865817]}},{"type":"Feature","properties":{"label":null,"hover_name":"NLCP - CHRISTIANA HS"},"geometry":{"type":"Point","coordinates":[-87.70899,41.858684]}},{"type":"Feature","properties":{"label":null,"hover_name":"PERSPECTIVES - JOSLIN HS"},"geometry":{"type":"Point","coordinates":[-87.628531,41.855999]}},{"type":"Feature","properties":{"label":null,"hover_name":"POLARIS"},"geometry":{"type":"Point","coordinates":[-87.707796,41.89255]}},{"type":"Feature","properties":{"label":null,"hover_name":"PROVIDENCE ENGLEWOOD"},"geometry":{"type":"Point","coordinates":[-87.663996,41.775367]}},{"type":"Feature","properties":{"label":null,"hover_name":"CHICAGO TECH HS"},"geometry":{"type":"Point","coordinates":[-87.659095,41.863301]}},{"type":"Feature","properties":{"label":null,"hover_name":"NOBLE - BULLS HS"},"geometry":{"type":"Point","coordinates":[-87.678195,41.878809]}},{"type":"Feature","properties":{"label":null,"hover_name":"NOBLE - MUCHIN HS"},"geometry":{"type":"Point","coordinates":[-87.626338,41.88274]}},{"type":"Feature","properties":{"label":null,"hover_name":"CATALYST - MARIA ES"},"geometry":{"type":"Point","coordinates":[-87.693075,41.770992]}},{"type":"Feature","properties":{"label":null,"hover_name":"MONTESSORI ENGLEWOOD"},"geometry":{"type":"Point","coordinates":[-87.667639,41.76739]}},{"type":"Feature","properties":{"label":null,"hover_name":"NOBLE - DRW HS"},"geometry":{"type":"Point","coordinates":[-87.711654,41.869328]}},{"type":"Feature","properties":{"label":null,"hover_name":"LEGAL PREP HS"},"geometry":{"type":"Point","coordinates":[-87.733778,41.881733]}},{"type":"Feature","properties":{"label":null,"hover_name":"YCCS - SCHOLASTIC ACHIEVEMENT"},"geometry":{"type":"Point","coordinates":[-87.742539,41.880447]}},{"type":"Feature","properties":{"label":null,"hover_name":"YCCS - MCKINLEY"},"geometry":{"type":"Point","coordinates":[-87.625331,41.841331]}},{"type":"Feature","properties":{"label":null,"hover_name":"YCCS - CCA ACADEMY"},"geometry":{"type":"Point","coordinates":[-87.723662,41.864943]}},{"type":"Feature","properties":{"label":null,"hover_name":"YCCS - INNOVATIONS"},"geometry":{"type":"Point","coordinates":[-87.627734,41.883047]}},{"type":"Feature","properties":{"label":null,"hover_name":"YCCS - WEST TOWN"},"geometry":{"type":"Point","coordinates":[-87.702053,41.890803]}},{"type":"Feature","properties":{"label":null,"hover_name":"YCCS - WEST"},"geometry":{"type":"Point","coordinates":[-87.74881,41.90224]}},{"type":"Feature","properties":{"label":null,"hover_name":"LEARN - 7"},"geometry":{"type":"Point","coordinates":[-87.701417,41.887317]}},{"type":"Feature","properties":{"label":null,"hover_name":"KIPP - BLOOM"},"geometry":{"type":"Point","coordinates":[-87.639967,41.793556]}},{"type":"Feature","properties":{"label":null,"hover_name":"LEARN - MIDDLE"},"geometry":{"type":"Point","coordinates":[-87.702724,41.88732]}},{"type":"Feature","properties":{"label":null,"hover_name":"NOBLE - ACADEMY HS"},"geometry":{"type":"Point","coordinates":[-87.645577,41.906879]}},{"type":"Feature","properties":{"label":null,"hover_name":"EXCEL SOUTHWEST HS"},"geometry":{"type":"Point","coordinates":[-87.690957,41.764988]}},{"type":"Feature","properties":{"label":null,"hover_name":"SOUTHSIDE HS"},"geometry":{"type":"Point","coordinates":[-87.675947,41.759852]}},{"type":"Feature","properties":{"label":null,"hover_name":"SIMPSON HS"},"geometry":{"type":"Point","coordinates":[-87.668722,41.864365]}},{"type":"Feature","properties":{"label":null,"hover_name":"GRAHAM HS"},"geometry":{"type":"Point","coordinates":[-87.625315,41.849675]}},{"type":"Feature","properties":{"label":null,"hover_name":"JEFFERSON HS"},"geometry":{"type":"Point","coordinates":[-87.680418,41.867832]}},{"type":"Feature","properties":{"label":null,"hover_name":"RUDOLPH"},"geometry":{"type":"Point","coordinates":[-87.668091,41.883907]}},{"type":"Feature","properties":{"label":null,"hover_name":"EXCEL ENGLEWOOD HS"},"geometry":{"type":"Point","coordinates":[-87.649124,41.763896]}},{"type":"Feature","properties":{"label":null,"hover_name":"OMBUDSMAN - SOUTH HS"},"geometry":{"type":"Point","coordinates":[-87.683634,41.783027]}},{"type":"Feature","properties":{"label":null,"hover_name":"OMBUDSMAN - WEST HS"},"geometry":{"type":"Point","coordinates":[-87.706039,41.866459]}},{"type":"Feature","properties":{"label":null,"hover_name":"MOVING EVEREST"},"geometry":{"type":"Point","coordinates":[-87.755424,41.888263]}},{"type":"Feature","properties":{"label":null,"hover_name":"CATALYST - MARIA HS"},"geometry":{"type":"Point","coordinates":[-87.693065,41.770242]}},{"type":"Feature","properties":{"label":null,"hover_name":"URBAN PREP - ENGLEWOOD HS"},"geometry":{"type":"Point","coordinates":[-87.634357,41.781498]}},{"type":"Feature","properties":{"label":null,"hover_name":"CHICAGO MATH & SCIENCE HS"},"geometry":{"type":"Point","coordinates":[-87.674818,42.013031]}},{"type":"Feature","properties":{"label":null,"hover_name":"PASSAGES"},"geometry":{"type":"Point","coordinates":[-87.67116,41.983371]}},{"type":"Feature","properties":{"label":null,"hover_name":"YCCS - TRUMAN"},"geometry":{"type":"Point","coordinates":[-87.659239,41.965295]}},{"type":"Feature","properties":{"label":null,"hover_name":"STOCK"},"geometry":{"type":"Point","coordinates":[-87.814195,42.016892]}},{"type":"Feature","properties":{"label":null,"hover_name":"OMBUDSMAN - NORTHWEST HS"},"geometry":{"type":"Point","coordinates":[-87.806682,42.017171]}},{"type":"Feature","properties":{"label":null,"hover_name":"SAFE ACHIEVE WEST HS"},"geometry":{"type":"Point","coordinates":[-87.739256,41.884306]}},{"type":"Feature","properties":{"label":null,"hover_name":"VIRTUAL ACADEMY HS"},"geometry":{"type":"Point","coordinates":[-87.65994,41.863444]}},{"type":"Feature","properties":{"label":null,"hover_name":"VIRTUAL ACADEMY ES"},"geometry":{"type":"Point","coordinates":[-87.659501,41.863447]}}]}