{"type":"FeatureCollection","features":[{"type":"Feature","properties":{"label":null,"hover_name":"1958 North Milwaukee Avenue"},"geometry":{"type":"Point","coordinates":[-87.687828,41.91694]}},{"type":"Feature","properties":{"label":null,"hover_name":"121 North LaSalle Street, Room 300"},"geometry":{"type":"Point","coordinates":[-87.632275,41.883765]}},{"type":"Feature","properties":{"label":null,"hover_name":"5046 South State Street"},"geometry":{"type":"Point","coordinates":[-87.626046,41.802356]}},{"type":"Feature","properties":{"label":null,"hover_name":"928 East 43rd Street"},"geometry":{"type":"Point","coordinates":[-87.60284,41.816969]}},{"type":"Feature","properties":{"label":null,"hover_name":"2230 East 71st Street"},"geometry":{"type":"Point","coordinates":[-87.570155,41.766408]}},{"type":"Feature","properties":{"label":null,"hover_name":"8541 South State Street"},"geometry":{"type":"Point","coordinates":[-87.624056,41.738788]}},{"type":"Feature","properties":{"label":null,"hover_name":"2249 East 95th Street"},"geometry":{"type":"Point","coordinates":[-87.568609,41.722443]}},{"type":"Feature","properties":{"label":null,"hover_name":"8539 South Cottage Grove Avenue"},"geometry":{"type":"Point","coordinates":[-87.604745,41.739116]}},{"type":"Feature","properties":{"label":null,"hover_name":"34 East 112th Place"},"geometry":{"type":"Point","coordinates":[-87.621721,41.689991]}},{"type":"Feature","properties":{"label":null,"hover_name":"10500 South Ewing Avenue"},"geometry":{"type":"Point","coordinates":[-87.535431,41.704473]}},{"type":"Feature","properties":{"label":null,"hover_name":"3659 South Halsted Street"},"geometry":{"type":"Point","coordinates":[-87.645875,41.82713]}},{"type":"Feature","properties":{"label":null,"hover_name":"3868 South Archer Avenue"},"geometry":{"type":"Point","coordinates":[-87.689531,41.823261]}},{"type":"Feature","properties":{"label":null,"hover_name":"6500 South Pulaski Road"},"geometry":{"type":"Point","coordinates":[-87.722812,41.774965]}},{"type":"Feature","properties":{"label":null,"hover_name":"3124 West 59th Street"},"geometry":{"type":"Point","coordinates":[-87.702071,41.786377]}},{"type":"Feature","properties":{"label":null,"hover_name":"2650 West 51st Street"},"geometry":{"type":"Point","coordinates":[-87.691163,41.801147]}},{"type":"Feature","properties":{"label":null,"hover_name":"1137 West 63rd Street, Unit C"},"geometry":{"type":"Point","coordinates":[-87.653513,41.779513]}},{"type":"Feature","properties":{"label":null,"hover_name":"1344 West 79th Street"},"geometry":{"type":"Point","coordinates":[-87.656993,41.750559]}},{"type":"Feature","properties":{"label":null,"hover_name":"8359 South Pulaski Road"},"geometry":{"type":"Point","coordinates":[-87.721474,41.740397]}},{"type":"Feature","properties":{"label":null,"hover_name":"10400 South Western Avenue"},"geometry":{"type":"Point","coordinates":[-87.681708,41.704461]}},{"type":"Feature","properties":{"label":null,"hover_name":"5401 South Wentworth Avenue, Suite 19E"},"geometry":{"type":"Point","coordinates":[-87.630405,41.796235]}},{"type":"Feature","properties":{"label":null,"hover_name":"10805 South Halsted Street"},"geometry":{"type":"Point","coordinates":[-87.642398,41.697619]}},{"type":"Feature","properties":{"label":null,"hover_name":"2500 South St. Louis Avenue"},"geometry":{"type":"Point","coordinates":[-87.712546,41.846148]}},{"type":"Feature","properties":{"label":null,"hover_name":"6247 South Archer Avenue"},"geometry":{"type":"Point","coordinates":[-87.776264,41.793467]}},{"type":"Feature","properties":{"label":null,"hover_name":"1158 South Keeler Street"},"geometry":{"type":"Point","coordinates":[-87.730212,41.866145]}},{"type":"Feature","properties":{"label":null,"hover_name":"2100 West Cermak Road"},"geometry":{"type":"Point","coordinates":[-87.678418,41.852245]}},{"type":"Feature","properties":{"label":null,"hover_name":"2511 West Division Street"},"geometry":{"type":"Point","coordinates":[-87.689945,41.902879]}},{"type":"Feature","properties":{"label":null,"hover_name":"4 North Western Avenue, Unit 1C"},"geometry":{"type":"Point","coordinates":[-87.686582,41.881269]}},{"type":"Feature","properties":{"label":null,"hover_name":"2622 West Jackson Boulevard, Suite 200A"},"geometry":{"type":"Point","coordinates":[-87.692317,41.87759]}},{"type":"Feature","properties":{"label":null,"hover_name":"6272 West North Avenue"},"geometry":{"type":"Point","coordinates":[-87.782999,41.909283]}},{"type":"Feature","properties":{"label":null,"hover_name":"5418 W. Belmont Ave"},"geometry":{"type":"Point","coordinates":[-87.762368,41.938739]}},{"type":"Feature","properties":{"label":null,"hover_name":"4606 West Diversey Avenue"},"geometry":{"type":"Point","coordinates":[-87.742232,41.9317]}},{"type":"Feature","properties":{"label":null,"hover_name":"2657 North Clybourn Avenue"},"geometry":{"type":"Point","coordinates":[-87.675334,41.930025]}},{"type":"Feature","properties":{"label":null,"hover_name":"4747 North Sawyer Avenue"},"geometry":{"type":"Point","coordinates":[-87.709538,41.968005]}},{"type":"Feature","properties":{"label":null,"hover_name":"121 North LaSalle Street, Room 300"},"geometry":{"type":"Point","coordinates":[-87.632275,41.883765]}},{"type":"Feature","properties":{"label":null,"hover_name":"2934 North Milwaukee Avenue, Unit C"},"geometry":{"type":"Point","coordinates":[-87.716508,41.934479]}},{"type":"Feature","properties":{"label":null,"hover_name":"6560 West Fullerton Avenue, Unit C118, Suite A; 2246 West Chicago Avenue"},"geometry":{"type":"Point","coordinates":[-87.789881,41.92375]}},{"type":"Feature","properties":{"label":null,"hover_name":"4924 West Chicago Avenue"},"geometry":{"type":"Point","coordinates":[-87.749293,41.895087]}},{"type":"Feature","properties":{"label":null,"hover_name":"3821 North Harlem Avenue"},"geometry":{"type":"Point","coordinates":[-87.807009,41.94956]}},{"type":"Feature","properties":{"label":null,"hover_name":"4200 West Lawrence Avenue"},"geometry":{"type":"Point","coordinates":[-87.733032,41.968295]}},{"type":"Feature","properties":{"label":null,"hover_name":"5620 North Western Avenue"},"geometry":{"type":"Point","coordinates":[-87.689608,41.983824]}},{"type":"Feature","properties":{"label":null,"hover_name":"7231 West Touhy Avenue"},"geometry":{"type":"Point","coordinates":[-87.807913,42.011575]}},{"type":"Feature","properties":{"label":null,"hover_name":"121 North LaSalle Street, Room 200, Office 6"},"geometry":{"type":"Point","coordinates":[-87.632275,41.883765]}},{"type":"Feature","properties":{"label":null,"hover_name":"2523 North Halsted Street"},"geometry":{"type":"Point","coordinates":[-87.648707,41.928037]}},{"type":"Feature","properties":{"label":null,"hover_name":"3223 North Sheffield Avenue, Suite A"},"geometry":{"type":"Point","coordinates":[-87.653982,41.940631]}},{"type":"Feature","properties":{"label":null,"hover_name":"5460 N. Milwaukee Ave"},"geometry":{"type":"Point","coordinates":[-87.772539,41.980733]}},{"type":"Feature","properties":{"label":null,"hover_name":"4544 North Broadway"},"geometry":{"type":"Point","coordinates":[-87.657258,41.964807]}},{"type":"Feature","properties":{"label":null,"hover_name":"4243 North Lincoln Avenue"},"geometry":{"type":"Point","coordinates":[-87.68195,41.958942]}},{"type":"Feature","properties":{"label":null,"hover_name":"1129  West Bryn Mawr Avenue"},"geometry":{"type":"Point","coordinates":[-87.659235,41.983528]}},{"type":"Feature","properties":{"label":null,"hover_name":"1447 West Morse Avenue"},"geometry":{"type":"Point","coordinates":[-87.667774,42.007765]}},{"type":"Feature","properties":{"label":null,"hover_name":"2949 West Devon Avenue"},"geometry":{"type":"Point","coordinates":[-87.704027,41.997374]}}]}