{"type":"FeatureCollection","features":[{"type":"Feature","properties":{"label":null,"hover_name":null},"geometry":{"type":"LineString","coordinates":[[-87.628209,41.876908],[-87.626349,41.87696],[-87.62625,41.876946],[-87.626121,41.87688],[-87.626051,41.876806],[-87.62603,41.876704]]}},{"type":"Feature","properties":{"label":null,"hover_name":null},"geometry":{"type":"LineString","coordinates":[[-87.639302,41.910409],[-87.64255,41.910387],[-87.643479,41.910363],[-87.646644,41.91033],[-87.646818,41.910338],[-87.647095,41.910397],[-87.647277,41.910511],[-87.647336,41.910613],[-87.647404,41.911125],[-87.647558,41.911385],[-87.64768,41.911459],[-87.647812,41.9115],[-87.647916,41.911512],[-87.648999,41.9115],[-87.649204,41.911527],[-87.649481,41.911602],[-87.649714,41.911714],[-87.650168,41.91203],[-87.650926,41.912601],[-87.652078,41.913388],[-87.652228,41.913507],[-87.652344,41.913619],[-87.652422,41.913765],[-87.6525,41.914059]]}},{"type":"Feature","properties":{"label":null,"hover_name":null},"geometry":{"type":"LineString","coordinates":[[-87.7472,42.026192],[-87.747096,42.025908],[-87.746962,42.025626],[-87.746807,42.02535],[-87.746434,42.024821],[-87.746218,42.024569],[-87.745728,42.024095],[-87.745169,42.023667],[-87.744865,42.023471],[-87.744215,42.023121],[-87.743871,42.022967],[-87.74315,42.022705],[-87.742776,42.022598],[-87.742005,42.022433],[-87.74124,42.022353],[-87.740589,42.022309],[-87.723324,42.022341],[-87.722194,42.022376],[-87.720455,42.022533],[-87.719141,42.022615],[-87.717901,42.022648],[-87.716023,42.022645],[-87.714962,42.022661],[-87.713821,42.022652],[-87.71274,42.022601],[-87.710393,42.02255],[-87.708786,42.022495],[-87.70787,42.022509],[-87.707316,42.022502],[-87.704155,42.022577],[-87.703,42.022622],[-87.701815,42.022627],[-87.701009,42.022594],[-87.700311,42.022533],[-87.698559,42.02232],[-87.697194,42.022203],[-87.695799,42.022201],[-87.69497,42.022231],[-87.693327,42.022257],[-87.692561,42.022241],[-87.691856,42.022151],[-87.690955,42.022001],[-87.690487,42.021948],[-87.690053,42.021921],[-87.689229,42.0218],[-87.688008,42.021697],[-87.679634,42.021709],[-87.679157,42.021682],[-87.678115,42.021582],[-87.677165,42.021402],[-87.6766,42.021256],[-87.676285,42.021146],[-87.675888,42.020982],[-87.675556,42.020805],[-87.673882,42.019863],[-87.672892,42.019063]]}},{"type":"Feature","properties":{"label":null,"hover_name":null},"geometry":{"type":"LineString","coordinates":[[-87.626098,41.87951],[-87.626189,41.88322]]}},{"type":"Feature","properties":{"label":null,"hover_name":null},"geometry":{"type":"LineString","coordinates":[[-87.626189,41.88322],[-87.626253,41.88557],[-87.626268,41.885618],[-87.626347,41.885689],[-87.626421,41.885723],[-87.626503,41.885733],[-87.627835,41.88574]]}},{"type":"Feature","properties":{"label":null,"hover_name":null},"geometry":{"type":"LineString","coordinates":[[-87.627835,41.88574],[-87.630886,41.885737]]}},{"type":"Feature","properties":{"label":null,"hover_name":null},"geometry":{"type":"LineString","coordinates":[[-87.708844,41.966093],[-87.701656,41.966147]]}},{"type":"Feature","properties":{"label":null,"hover_name":null},"geometry":{"type":"LineString","coordinates":[[-87.694111,41.96621],[-87.689463,41.966253],[-87.688503,41.96625]]}},{"type":"Feature","properties":{"label":null,"hover_name":null},"geometry":{"type":"LineString","coordinates":[[-87.678635,41.966411],[-87.677664,41.966422],[-87.677409,41.966414],[-87.676955,41.96638],[-87.676649,41.966321],[-87.676382,41.966231],[-87.676128,41.966116],[-87.67589,41.965962],[-87.675697,41.965789],[-87.675574,41.965645],[-87.675445,41.965471],[-87.675304,41.965189],[-87.675242,41.965034],[-87.675229,41.96491],[-87.67519,41.963711],[-87.675165,41.961752]]}},{"type":"Feature","properties":{"label":null,"hover_name":null},"geometry":{"type":"LineString","coordinates":[[-87.674736,41.947029],[-87.67466,41.945131],[-87.67463,41.94494],[-87.674571,41.944738],[-87.674419,41.944382],[-87.674299,41.944236],[-87.674195,41.944143],[-87.673859,41.943934],[-87.673477,41.9438],[-87.673108,41.943727],[-87.67263,41.943686],[-87.670884,41.943709]]}},{"type":"Feature","properties":{"label":null,"hover_name":null},"geometry":{"type":"LineString","coordinates":[[-87.670884,41.943709],[-87.667487,41.943768],[-87.66361,41.943812]]}},{"type":"Feature","properties":{"label":null,"hover_name":null},"geometry":{"type":"LineString","coordinates":[[-87.793783,41.886988],[-87.79795,41.886924],[-87.799921,41.886911],[-87.803176,41.886848]]}},{"type":"Feature","properties":{"label":null,"hover_name":null},"geometry":{"type":"LineString","coordinates":[[-87.76565,41.887389],[-87.771897,41.887334],[-87.774135,41.887293]]}},{"type":"Feature","properties":{"label":null,"hover_name":null},"geometry":{"type":"LineString","coordinates":[[-87.744698,41.886519],[-87.745467,41.886594],[-87.746458,41.886657],[-87.750351,41.886897],[-87.753268,41.887045],[-87.754986,41.887163]]}},{"type":"Feature","properties":{"label":null,"hover_name":null},"geometry":{"type":"LineString","coordinates":[[-87.716523,41.884904],[-87.725404,41.885412]]}},{"type":"Feature","properties":{"label":null,"hover_name":null},"geometry":{"type":"LineString","coordinates":[[-87.706155,41.884321],[-87.716523,41.884904]]}},{"type":"Feature","properties":{"label":null,"hover_name":null},"geometry":{"type":"LineString","coordinates":[[-87.615546,41.78013],[-87.612288,41.780172],[-87.609705,41.780245],[-87.605857,41.780309]]}},{"type":"Feature","properties":{"label":null,"hover_name":null},"geometry":{"type":"LineString","coordinates":[[-87.618501,41.802092],[-87.61845,41.799325],[-87.618364,41.797036],[-87.618324,41.795177]]}},{"type":"Feature","properties":{"label":null,"hover_name":null},"geometry":{"type":"LineString","coordinates":[[-87.619036,41.816463],[-87.618826,41.809209]]}},{"type":"Feature","properties":{"label":null,"hover_name":null},"geometry":{"type":"LineString","coordinates":[[-87.625881,41.831678],[-87.62571,41.824787],[-87.625668,41.822461],[-87.625636,41.822148],[-87.625546,41.821987],[-87.625474,41.82191],[-87.625312,41.821833],[-87.625048,41.821767],[-87.624806,41.821756],[-87.623539,41.821791],[-87.621463,41.821815]]}},{"type":"Feature","properties":{"label":null,"hover_name":null},"geometry":{"type":"LineString","coordinates":[[-87.737956,41.786614],[-87.738165,41.792325],[-87.738158,41.792704],[-87.738058,41.793227],[-87.737715,41.793807],[-87.737567,41.793997],[-87.73731,41.794245],[-87.736966,41.794541],[-87.736191,41.795085],[-87.735237,41.795612],[-87.73478,41.795819],[-87.72445,41.799888]]}},{"type":"Feature","properties":{"label":null,"hover_name":null},"geometry":{"type":"LineString","coordinates":[[-87.627696,41.880745],[-87.627596,41.878153]]}},{"type":"Feature","properties":{"label":null,"hover_name":null},"geometry":{"type":"LineString","coordinates":[[-87.627813,41.884809],[-87.627748,41.883215],[-87.627696,41.880745]]}},{"type":"Feature","properties":{"label":null,"hover_name":null},"geometry":{"type":"LineString","coordinates":[[-87.725625,41.873889],[-87.724218,41.873917],[-87.712523,41.874064],[-87.710757,41.874065],[-87.709448,41.874097],[-87.708256,41.874132],[-87.707521,41.874209],[-87.705978,41.874426]]}},{"type":"Feature","properties":{"label":null,"hover_name":null},"geometry":{"type":"LineString","coordinates":[[-87.673946,41.875635],[-87.667531,41.875762]]}},{"type":"Feature","properties":{"label":null,"hover_name":null},"geometry":{"type":"LineString","coordinates":[[-87.859388,41.983507],[-87.853596,41.983746],[-87.850667,41.983788],[-87.845676,41.983976],[-87.844774,41.983978],[-87.841857,41.984094],[-87.840218,41.984189],[-87.838026,41.984294]]}},{"type":"Feature","properties":{"label":null,"hover_name":null},"geometry":{"type":"LineString","coordinates":[[-87.624753,41.735371],[-87.624634,41.732117],[-87.624584,41.729045],[-87.624544,41.728001],[-87.624415,41.722376]]}},{"type":"Feature","properties":{"label":null,"hover_name":null},"geometry":{"type":"LineString","coordinates":[[-87.625178,41.750412],[-87.624998,41.744599],[-87.624967,41.74303],[-87.624823,41.739483],[-87.624784,41.736135],[-87.624753,41.735371]]}},{"type":"Feature","properties":{"label":null,"hover_name":null},"geometry":{"type":"LineString","coordinates":[[-87.631,41.780534],[-87.630971,41.779822],[-87.630932,41.779421],[-87.630818,41.778923],[-87.630767,41.778742],[-87.630646,41.778468],[-87.630484,41.778149],[-87.63028,41.777832],[-87.630039,41.777489],[-87.629539,41.77698],[-87.628526,41.776233],[-87.627503,41.775409],[-87.627119,41.775006],[-87.626699,41.774451],[-87.626518,41.774161],[-87.626415,41.773974],[-87.626194,41.773489],[-87.626007,41.772864],[-87.62592,41.772181],[-87.625898,41.771872],[-87.625809,41.768368]]}},{"type":"Feature","properties":{"label":null,"hover_name":null},"geometry":{"type":"LineString","coordinates":[[-87.677437,41.909744],[-87.67572,41.9086],[-87.671036,41.905603],[-87.670635,41.905377],[-87.670143,41.905138],[-87.669,41.904652],[-87.668276,41.904403],[-87.666496,41.903355]]}},{"type":"Feature","properties":{"label":null,"hover_name":null},"geometry":{"type":"LineString","coordinates":[[-87.69689,41.921939],[-87.691128,41.918466],[-87.687364,41.916157]]}},{"type":"Feature","properties":{"label":null,"hover_name":null},"geometry":{"type":"LineString","coordinates":[[-87.729177,41.95294],[-87.725476,41.950848],[-87.723017,41.949436],[-87.722403,41.949102],[-87.721547,41.948688],[-87.720427,41.948204],[-87.71992,41.947956],[-87.719719,41.94784],[-87.719496,41.947679],[-87.719099,41.94736]]}},{"type":"Feature","properties":{"label":null,"hover_name":null},"geometry":{"type":"LineString","coordinates":[[-87.743617,41.961487],[-87.743264,41.961175],[-87.743001,41.960976],[-87.74251,41.960559],[-87.742146,41.960283],[-87.74074,41.959407],[-87.735943,41.956704],[-87.734466,41.95595],[-87.732729,41.95495],[-87.729177,41.95294]]}},{"type":"Feature","properties":{"label":null,"hover_name":null},"geometry":{"type":"LineString","coordinates":[[-87.630636,41.831191],[-87.630559,41.827484],[-87.630186,41.812811],[-87.630218,41.812138],[-87.630272,41.811819],[-87.630379,41.811472],[-87.630557,41.811086],[-87.631026,41.810338]]}},{"type":"Feature","properties":{"label":null,"hover_name":null},"geometry":{"type":"LineString","coordinates":[[-87.817318,41.874257],[-87.815906,41.87414],[-87.815234,41.874071],[-87.815017,41.874033],[-87.81484,41.87398],[-87.814101,41.873652],[-87.813933,41.873607],[-87.813704,41.873581],[-87.813212,41.873611],[-87.812684,41.873673],[-87.812413,41.873682],[-87.811335,41.873811],[-87.810799,41.87384],[-87.810446,41.873839],[-87.806961,41.87349]]}},{"type":"Feature","properties":{"label":null,"hover_name":null},"geometry":{"type":"LineString","coordinates":[[-87.647578,41.891189],[-87.645716,41.88997],[-87.644444,41.889099],[-87.640008,41.885839],[-87.639849,41.885751],[-87.639443,41.885703],[-87.630886,41.885737]]}},{"type":"Feature","properties":{"label":null,"hover_name":null},"geometry":{"type":"LineString","coordinates":[[-87.640984,41.875539],[-87.641908,41.875513],[-87.649642,41.875516]]}},{"type":"Feature","properties":{"label":null,"hover_name":null},"geometry":{"type":"LineString","coordinates":[[-87.652019,41.885579],[-87.655587,41.885535],[-87.656727,41.885502],[-87.661479,41.885433],[-87.666951,41.885311]]}},{"type":"Feature","properties":{"label":null,"hover_name":null},"geometry":{"type":"LineString","coordinates":[[-87.627402,41.867368],[-87.627309,41.864037],[-87.627392,41.863633],[-87.627556,41.863373],[-87.627781,41.863156],[-87.628035,41.862964],[-87.628491,41.862686],[-87.629341,41.862115],[-87.630178,41.861381],[-87.630582,41.860928],[-87.630944,41.860345],[-87.631122,41.860129],[-87.631295,41.859764],[-87.631365,41.859519],[-87.631419,41.859231],[-87.63144,41.858693],[-87.631361,41.855752],[-87.631277,41.85454],[-87.631155,41.853893],[-87.630968,41.853206]]}},{"type":"Feature","properties":{"label":null,"hover_name":null},"geometry":{"type":"LineString","coordinates":[[-87.658493,41.969139],[-87.658422,41.967459],[-87.658314,41.966181],[-87.657734,41.964255]]}},{"type":"Feature","properties":{"label":null,"hover_name":null},"geometry":{"type":"LineString","coordinates":[[-87.654929,41.953775],[-87.654306,41.953754],[-87.654079,41.953734],[-87.653939,41.953703],[-87.653786,41.953582],[-87.653693,41.953431],[-87.653626,41.952456],[-87.65366,41.951995],[-87.653626,41.947428]]}},{"type":"Feature","properties":{"label":null,"hover_name":null},"geometry":{"type":"LineString","coordinates":[[-87.653454,41.942177],[-87.653397,41.940832],[-87.65338,41.939751]]}},{"type":"Feature","properties":{"label":null,"hover_name":null},"geometry":{"type":"LineString","coordinates":[[-87.653131,41.932732],[-87.652962,41.928703],[-87.652866,41.925051]]}},{"type":"Feature","properties":{"label":null,"hover_name":null},"geometry":{"type":"LineString","coordinates":[[-87.672892,42.019063],[-87.669882,42.016577],[-87.669092,42.015876]]}},{"type":"Feature","properties":{"label":null,"hover_name":null},"geometry":{"type":"LineString","coordinates":[[-87.661061,42.001073],[-87.660828,42.000899],[-87.660492,42.000589],[-87.660047,42.000085],[-87.659895,41.999887],[-87.659647,41.999434],[-87.659479,41.998997],[-87.659426,41.998803],[-87.659268,41.997983],[-87.659267,41.99751],[-87.659189,41.99549],[-87.659183,41.994635],[-87.659202,41.993664]]}},{"type":"Feature","properties":{"label":null,"hover_name":null},"geometry":{"type":"LineString","coordinates":[[-87.65884,41.983504],[-87.658668,41.977984]]}},{"type":"Feature","properties":{"label":null,"hover_name":null},"geometry":{"type":"LineString","coordinates":[[-87.628176,41.896671],[-87.628129,41.895623],[-87.628021,41.891665]]}},{"type":"Feature","properties":{"label":null,"hover_name":null},"geometry":{"type":"LineString","coordinates":[[-87.649177,41.910655],[-87.639934,41.904041],[-87.639712,41.903918],[-87.639506,41.903834],[-87.639257,41.903791],[-87.638957,41.903791],[-87.631412,41.90392]]}},{"type":"Feature","properties":{"label":null,"hover_name":null},"geometry":{"type":"LineString","coordinates":[[-87.6525,41.914059],[-87.652486,41.913081],[-87.652424,41.912987],[-87.649177,41.910655]]}},{"type":"Feature","properties":{"label":null,"hover_name":null},"geometry":{"type":"LineString","coordinates":[[-87.669092,42.015876],[-87.667183,42.014215],[-87.666891,42.013882],[-87.666635,42.013549],[-87.666298,42.012974],[-87.666126,42.012593],[-87.666056,42.012268],[-87.666014,42.011833],[-87.665909,42.008362]]}},{"type":"Feature","properties":{"label":null,"hover_name":null},"geometry":{"type":"LineString","coordinates":[[-87.659202,41.993664],[-87.65913,41.992353],[-87.659076,41.990259]]}},{"type":"Feature","properties":{"label":null,"hover_name":null},"geometry":{"type":"LineString","coordinates":[[-87.65853,41.973453],[-87.658488,41.97118],[-87.658493,41.969139]]}},{"type":"Feature","properties":{"label":null,"hover_name":null},"geometry":{"type":"LineString","coordinates":[[-87.653266,41.936033],[-87.653131,41.932732]]}},{"type":"Feature","properties":{"label":null,"hover_name":null},"geometry":{"type":"LineString","coordinates":[[-87.683337,42.058282],[-87.683333,42.057939],[-87.683389,42.056908],[-87.683521,42.055771],[-87.683511,42.055298],[-87.68356,42.05416]]}},{"type":"Feature","properties":{"label":null,"hover_name":null},"geometry":{"type":"LineString","coordinates":[[-87.681602,42.041655],[-87.681364,42.04051],[-87.680334,42.035918],[-87.679936,42.034226],[-87.679826,42.033964],[-87.679612,42.033632],[-87.679538,42.033456]]}},{"type":"Feature","properties":{"label":null,"hover_name":null},"geometry":{"type":"LineString","coordinates":[[-87.678329,42.027612],[-87.67811,42.026099],[-87.677432,42.022743],[-87.677302,42.022411],[-87.677185,42.022233],[-87.677054,42.022086],[-87.676892,42.021974],[-87.675736,42.021299],[-87.674056,42.020022],[-87.673882,42.019863],[-87.672892,42.019063]]}},{"type":"Feature","properties":{"label":null,"hover_name":null},"geometry":{"type":"LineString","coordinates":[[-87.72445,41.799888],[-87.720744,41.80151],[-87.718139,41.802613],[-87.716765,41.803165],[-87.715749,41.80357],[-87.715056,41.80379],[-87.714644,41.803902],[-87.714124,41.804021],[-87.713626,41.804113],[-87.713228,41.804168],[-87.71252,41.804229],[-87.706734,41.804331],[-87.704321,41.804349]]}},{"type":"Feature","properties":{"label":null,"hover_name":null},"geometry":{"type":"LineString","coordinates":[[-87.684065,41.804684],[-87.683036,41.804704],[-87.682406,41.804693],[-87.682116,41.804716],[-87.681804,41.804761],[-87.681341,41.804868],[-87.681037,41.804967],[-87.680701,41.805132],[-87.680419,41.805313],[-87.680159,41.805522],[-87.679957,41.805732],[-87.679831,41.805913],[-87.679691,41.806172],[-87.679609,41.806405],[-87.679531,41.806933],[-87.679724,41.814247],[-87.679798,41.81481],[-87.680009,41.815678],[-87.680366,41.816547],[-87.681708,41.818589],[-87.683086,41.820582],[-87.68595,41.824621],[-87.686137,41.824982],[-87.686201,41.825251],[-87.686208,41.825573],[-87.686131,41.825882],[-87.68603,41.826106],[-87.685907,41.826281],[-87.685695,41.826492],[-87.685474,41.826662],[-87.685166,41.826842],[-87.684295,41.827297],[-87.681744,41.828881],[-87.680587,41.82956]]}},{"type":"Feature","properties":{"label":null,"hover_name":null},"geometry":{"type":"LineString","coordinates":[[-87.680587,41.82956],[-87.674757,41.833141],[-87.673256,41.834113],[-87.669069,41.837065],[-87.666913,41.838515],[-87.666243,41.838892],[-87.665312,41.839356]]}},{"type":"Feature","properties":{"label":null,"hover_name":null},"geometry":{"type":"LineString","coordinates":[[-87.62603,41.876704],[-87.625979,41.875694],[-87.626015,41.875263],[-87.626223,41.874899],[-87.626512,41.87458],[-87.62668,41.874322],[-87.626776,41.874096],[-87.626806,41.873895],[-87.626711,41.869975],[-87.62659,41.867405]]}},{"type":"Feature","properties":{"label":null,"hover_name":null},"geometry":{"type":"LineString","coordinates":[[-87.669429,41.885243],[-87.670819,41.885204],[-87.673081,41.885101],[-87.679456,41.884872],[-87.686087,41.884597],[-87.687651,41.884559],[-87.691672,41.884374],[-87.692648,41.88435],[-87.696234,41.88422]]}},{"type":"Feature","properties":{"label":null,"hover_name":null},"geometry":{"type":"LineString","coordinates":[[-87.633913,41.885725],[-87.641771,41.885703]]}},{"type":"Feature","properties":{"label":null,"hover_name":null},"geometry":{"type":"LineString","coordinates":[[-87.669543,41.871563],[-87.66942,41.866738],[-87.669349,41.864808],[-87.66916,41.857908]]}},{"type":"Feature","properties":{"label":null,"hover_name":null},"geometry":{"type":"LineString","coordinates":[[-87.685179,41.854397],[-87.688516,41.854384],[-87.694823,41.85428]]}},{"type":"Feature","properties":{"label":null,"hover_name":null},"geometry":{"type":"LineString","coordinates":[[-87.694823,41.85428],[-87.698303,41.854248],[-87.705428,41.854131]]}},{"type":"Feature","properties":{"label":null,"hover_name":null},"geometry":{"type":"LineString","coordinates":[[-87.71488,41.853992],[-87.716705,41.853946],[-87.724327,41.853857]]}},{"type":"Feature","properties":{"label":null,"hover_name":null},"geometry":{"type":"LineString","coordinates":[[-87.631734,41.876855],[-87.628209,41.876908]]}},{"type":"Feature","properties":{"label":null,"hover_name":null},"geometry":{"type":"LineString","coordinates":[[-87.633973,41.888968],[-87.633956,41.887069],[-87.633913,41.885725]]}},{"type":"Feature","properties":{"label":null,"hover_name":null},"geometry":{"type":"LineString","coordinates":[[-87.633913,41.885725],[-87.633854,41.882695]]}},{"type":"Feature","properties":{"label":null,"hover_name":null},"geometry":{"type":"LineString","coordinates":[[-87.713142,41.967928],[-87.71311,41.966434],[-87.713087,41.966295],[-87.712979,41.96615],[-87.71292,41.966115],[-87.712802,41.966072],[-87.712681,41.966047],[-87.708844,41.966093]]}},{"type":"Feature","properties":{"label":null,"hover_name":null},"geometry":{"type":"LineString","coordinates":[[-87.701656,41.966147],[-87.699536,41.966152],[-87.696749,41.966198],[-87.694111,41.96621]]}},{"type":"Feature","properties":{"label":null,"hover_name":null},"geometry":{"type":"LineString","coordinates":[[-87.674956,41.954523],[-87.674908,41.953923],[-87.674866,41.953023],[-87.674835,41.951014],[-87.674736,41.947029]]}},{"type":"Feature","properties":{"label":null,"hover_name":null},"geometry":{"type":"LineString","coordinates":[[-87.66361,41.943812],[-87.659095,41.943907],[-87.657666,41.943911],[-87.655496,41.943941],[-87.65503,41.943929],[-87.654699,41.94386],[-87.654413,41.943746],[-87.654248,41.943641],[-87.654005,41.94342],[-87.653747,41.943063],[-87.653555,41.942686],[-87.653511,41.942571],[-87.653454,41.942177]]}},{"type":"Feature","properties":{"label":null,"hover_name":null},"geometry":{"type":"LineString","coordinates":[[-87.783661,41.887159],[-87.787936,41.887099],[-87.788602,41.887073],[-87.791243,41.887039],[-87.793783,41.886988]]}},{"type":"Feature","properties":{"label":null,"hover_name":null},"geometry":{"type":"LineString","coordinates":[[-87.754986,41.887163],[-87.755312,41.887176],[-87.756147,41.887302],[-87.756502,41.887379],[-87.757013,41.887445],[-87.757268,41.887476],[-87.75781,41.887501],[-87.758458,41.887475],[-87.760775,41.88744],[-87.762596,41.887439],[-87.765132,41.887387],[-87.76565,41.887389]]}},{"type":"Feature","properties":{"label":null,"hover_name":null},"geometry":{"type":"LineString","coordinates":[[-87.696234,41.88422],[-87.697869,41.88413],[-87.698798,41.884112],[-87.699527,41.884076],[-87.701312,41.884021],[-87.706155,41.884321]]}},{"type":"Feature","properties":{"label":null,"hover_name":null},"geometry":{"type":"LineString","coordinates":[[-87.618143,41.787468],[-87.618014,41.784766],[-87.617939,41.780356],[-87.617902,41.780221],[-87.617818,41.780143],[-87.617686,41.780071],[-87.617506,41.780056],[-87.617088,41.780089],[-87.615546,41.78013]]}},{"type":"Feature","properties":{"label":null,"hover_name":null},"geometry":{"type":"LineString","coordinates":[[-87.644023,41.779028],[-87.645405,41.779027],[-87.646387,41.779215],[-87.65709,41.779077],[-87.663845,41.778954]]}},{"type":"Feature","properties":{"label":null,"hover_name":null},"geometry":{"type":"LineString","coordinates":[[-87.618826,41.809209],[-87.618768,41.806748],[-87.618637,41.806211],[-87.618603,41.805794],[-87.618581,41.803925],[-87.618501,41.802092]]}},{"type":"Feature","properties":{"label":null,"hover_name":null},"geometry":{"type":"LineString","coordinates":[[-87.62659,41.867405],[-87.626473,41.860162],[-87.626418,41.858759]]}},{"type":"Feature","properties":{"label":null,"hover_name":null},"geometry":{"type":"LineString","coordinates":[[-87.704321,41.804349],[-87.691093,41.804592],[-87.686874,41.804635],[-87.684065,41.804684]]}},{"type":"Feature","properties":{"label":null,"hover_name":null},"geometry":{"type":"LineString","coordinates":[[-87.665312,41.839356],[-87.657797,41.842947],[-87.654339,41.844635],[-87.653127,41.84508],[-87.652644,41.845235],[-87.651424,41.845547],[-87.650654,41.845778],[-87.650097,41.845979],[-87.649419,41.846256],[-87.648131,41.846901]]}},{"type":"Feature","properties":{"label":null,"hover_name":null},"geometry":{"type":"LineString","coordinates":[[-87.648131,41.846901],[-87.646533,41.847678],[-87.645784,41.847974],[-87.645139,41.848182],[-87.643509,41.848598],[-87.642819,41.848812],[-87.641224,41.849578],[-87.640608,41.849948],[-87.640146,41.850298],[-87.638004,41.852682],[-87.636562,41.854319],[-87.635947,41.854951],[-87.633979,41.856569],[-87.633575,41.856838],[-87.633052,41.857109],[-87.632511,41.85732],[-87.631978,41.857462],[-87.631301,41.857591],[-87.630755,41.857635],[-87.627827,41.857686],[-87.627412,41.857724],[-87.627268,41.857752],[-87.62699,41.857836],[-87.62682,41.857911],[-87.626692,41.857984],[-87.626548,41.858122],[-87.62647,41.858244],[-87.626418,41.858759]]}},{"type":"Feature","properties":{"label":null,"hover_name":null},"geometry":{"type":"LineString","coordinates":[[-87.666951,41.885311],[-87.669429,41.885243]]}},{"type":"Feature","properties":{"label":null,"hover_name":null},"geometry":{"type":"LineString","coordinates":[[-87.66916,41.857908],[-87.669097,41.855325],[-87.669107,41.855212],[-87.669191,41.854989],[-87.669234,41.85493],[-87.669364,41.854812],[-87.669522,41.854714],[-87.669753,41.854628],[-87.669955,41.854599],[-87.675974,41.854515]]}},{"type":"Feature","properties":{"label":null,"hover_name":null},"geometry":{"type":"LineString","coordinates":[[-87.705428,41.854131],[-87.70977,41.854046],[-87.71488,41.853992]]}},{"type":"Feature","properties":{"label":null,"hover_name":null},"geometry":{"type":"LineString","coordinates":[[-87.724327,41.853857],[-87.725933,41.853875],[-87.72736,41.853867],[-87.733264,41.853751]]}},{"type":"Feature","properties":{"label":null,"hover_name":null},"geometry":{"type":"LineString","coordinates":[[-87.669543,41.871563],[-87.669643,41.87515],[-87.669701,41.875427],[-87.66976,41.877761],[-87.669775,41.877866],[-87.669827,41.877997],[-87.67,41.878264],[-87.670056,41.878482],[-87.670187,41.882747],[-87.670096,41.883411],[-87.670144,41.88456],[-87.670113,41.884804],[-87.670012,41.884943],[-87.669895,41.885064],[-87.669634,41.885198],[-87.669429,41.885243]]}},{"type":"Feature","properties":{"label":null,"hover_name":null},"geometry":{"type":"LineString","coordinates":[[-87.733264,41.853751],[-87.734781,41.853729],[-87.735094,41.853693],[-87.735385,41.853613],[-87.735552,41.853541],[-87.7358,41.853409],[-87.73591,41.853329],[-87.736589,41.852596],[-87.736935,41.852321],[-87.737171,41.852204],[-87.737609,41.852069],[-87.737934,41.852037],[-87.739034,41.85203],[-87.742526,41.851961],[-87.745342,41.851925]]}},{"type":"Feature","properties":{"label":null,"hover_name":null},"geometry":{"type":"LineString","coordinates":[[-87.745342,41.851925],[-87.74921,41.85188],[-87.75213,41.851884],[-87.756692,41.851773]]}},{"type":"Feature","properties":{"label":null,"hover_name":null},"geometry":{"type":"LineString","coordinates":[[-87.776785,41.870886],[-87.768249,41.870376],[-87.767389,41.870313],[-87.764321,41.870046],[-87.763845,41.870038],[-87.763536,41.870046],[-87.763015,41.870105],[-87.762371,41.870231],[-87.761884,41.870389],[-87.760599,41.870958],[-87.759783,41.871258],[-87.759397,41.87135],[-87.758914,41.871411],[-87.757653,41.871462],[-87.756744,41.871481],[-87.753352,41.871499],[-87.749987,41.871557],[-87.745172,41.871608]]}},{"type":"Feature","properties":{"label":null,"hover_name":null},"geometry":{"type":"LineString","coordinates":[[-87.657734,41.964255],[-87.656999,41.961814],[-87.656769,41.954907],[-87.65674,41.954299],[-87.656718,41.954166],[-87.656648,41.954042],[-87.656465,41.953877],[-87.656347,41.953801],[-87.656235,41.953774],[-87.656063,41.953764],[-87.654929,41.953775]]}},{"type":"Feature","properties":{"label":null,"hover_name":null},"geometry":{"type":"LineString","coordinates":[[-87.685617,42.063987],[-87.684849,42.062741],[-87.683817,42.06086],[-87.683655,42.060431],[-87.683429,42.059629],[-87.683352,42.059021],[-87.683328,42.058446],[-87.683337,42.058282]]}},{"type":"Feature","properties":{"label":null,"hover_name":null},"geometry":{"type":"LineString","coordinates":[[-87.658668,41.977984],[-87.65853,41.973453]]}},{"type":"Feature","properties":{"label":null,"hover_name":null},"geometry":{"type":"LineString","coordinates":[[-87.635947,41.896774],[-87.635834,41.896668],[-87.635735,41.896545],[-87.635685,41.896452],[-87.635535,41.891467],[-87.635526,41.890512],[-87.635481,41.890302],[-87.635327,41.890125],[-87.63524,41.89007],[-87.634933,41.88997],[-87.634468,41.889886],[-87.634246,41.889787],[-87.634137,41.889702],[-87.634072,41.889624],[-87.633993,41.889426],[-87.633973,41.888968]]}},{"type":"Feature","properties":{"label":null,"hover_name":null},"geometry":{"type":"LineString","coordinates":[[-87.679538,42.033456],[-87.679259,42.032116],[-87.678555,42.028944],[-87.678329,42.027612]]}},{"type":"Feature","properties":{"label":null,"hover_name":null},"geometry":{"type":"LineString","coordinates":[[-87.665909,42.008362],[-87.665832,42.006866],[-87.66577,42.006184],[-87.665712,42.00586],[-87.665526,42.00525],[-87.665271,42.004665],[-87.664999,42.004148],[-87.664768,42.003815],[-87.664475,42.00348],[-87.664005,42.003047],[-87.663461,42.002637],[-87.662249,42.001869],[-87.661657,42.001525],[-87.66142,42.001367],[-87.661061,42.001073]]}},{"type":"Feature","properties":{"label":null,"hover_name":null},"geometry":{"type":"LineString","coordinates":[[-87.705978,41.874426],[-87.700813,41.875177],[-87.700003,41.875263],[-87.698778,41.875356],[-87.69778,41.875398],[-87.69673,41.875396],[-87.688435,41.87553]]}},{"type":"Feature","properties":{"label":null,"hover_name":null},"geometry":{"type":"LineString","coordinates":[[-87.688503,41.96625],[-87.685454,41.966309],[-87.678635,41.966411]]}},{"type":"Feature","properties":{"label":null,"hover_name":null},"geometry":{"type":"LineString","coordinates":[[-87.675165,41.961752],[-87.674956,41.954523]]}},{"type":"Feature","properties":{"label":null,"hover_name":null},"geometry":{"type":"LineString","coordinates":[[-87.774135,41.887293],[-87.775111,41.887292],[-87.778565,41.887233],[-87.782476,41.887194],[-87.783661,41.887159]]}},{"type":"Feature","properties":{"label":null,"hover_name":null},"geometry":{"type":"LineString","coordinates":[[-87.725404,41.885412],[-87.744698,41.886519]]}},{"type":"Feature","properties":{"label":null,"hover_name":null},"geometry":{"type":"LineString","coordinates":[[-87.666496,41.903355],[-87.665237,41.902521],[-87.659869,41.899097],[-87.655214,41.896075]]}},{"type":"Feature","properties":{"label":null,"hover_name":null},"geometry":{"type":"LineString","coordinates":[[-87.808895,41.982323],[-87.785979,41.982501],[-87.78554,41.982481],[-87.785162,41.982447],[-87.784687,41.982376],[-87.784201,41.982269],[-87.783644,41.982118],[-87.783067,41.981892],[-87.782523,41.981639],[-87.778382,41.97928],[-87.777015,41.978525],[-87.76944,41.974212],[-87.766239,41.972434],[-87.765718,41.972165],[-87.76513,41.971914],[-87.764715,41.971755],[-87.764297,41.971614],[-87.76371,41.971455],[-87.763202,41.971345],[-87.762095,41.971074],[-87.76149,41.970879],[-87.760892,41.970634]]}},{"type":"Feature","properties":{"label":null,"hover_name":null},"geometry":{"type":"LineString","coordinates":[[-87.760892,41.970634],[-87.760126,41.970306],[-87.759181,41.969793],[-87.7564,41.968195],[-87.753322,41.966453],[-87.752615,41.966016],[-87.751631,41.965365],[-87.750858,41.964776],[-87.749752,41.964191],[-87.749247,41.963955],[-87.748697,41.963728],[-87.747589,41.963356],[-87.746113,41.962912],[-87.745464,41.962661],[-87.744768,41.962293],[-87.744559,41.962161],[-87.744096,41.961851],[-87.743617,41.961487]]}},{"type":"Feature","properties":{"label":null,"hover_name":null},"geometry":{"type":"LineString","coordinates":[[-87.618143,41.787468],[-87.618177,41.787289],[-87.618228,41.787204],[-87.61832,41.787112],[-87.618432,41.787041],[-87.618549,41.786998],[-87.618734,41.78697],[-87.6247,41.786893],[-87.625704,41.786906],[-87.629412,41.786819],[-87.631211,41.786756],[-87.631561,41.786659],[-87.631696,41.78659],[-87.631849,41.786477],[-87.632001,41.78625],[-87.632035,41.786134],[-87.632016,41.785737],[-87.632051,41.783296],[-87.632029,41.781544],[-87.632,41.780738],[-87.632015,41.780456],[-87.632051,41.780356],[-87.632184,41.780195],[-87.633097,41.779483],[-87.633374,41.779343],[-87.633532,41.779306],[-87.634716,41.779224],[-87.635648,41.779142],[-87.639595,41.779078],[-87.644023,41.779028]]}},{"type":"Feature","properties":{"label":null,"hover_name":null},"geometry":{"type":"LineString","coordinates":[[-87.621463,41.821815],[-87.620022,41.821842],[-87.619748,41.821826],[-87.619479,41.82175],[-87.619355,41.821676],[-87.619267,41.821587],[-87.619195,41.821469],[-87.619162,41.821331],[-87.619036,41.816463]]}},{"type":"Feature","properties":{"label":null,"hover_name":null},"geometry":{"type":"LineString","coordinates":[[-87.901848,41.978877],[-87.901522,41.979159],[-87.900819,41.979827],[-87.900137,41.980434],[-87.899649,41.980844],[-87.899201,41.981169],[-87.898715,41.981468],[-87.89823,41.981646],[-87.897773,41.981705],[-87.897133,41.981738],[-87.896584,41.981674],[-87.896273,41.981586],[-87.896013,41.981467],[-87.895762,41.981318],[-87.895623,41.981187]]}},{"type":"Feature","properties":{"label":null,"hover_name":null},"geometry":{"type":"LineString","coordinates":[[-87.895623,41.981187],[-87.893826,41.979647],[-87.89279,41.978706],[-87.891704,41.977787],[-87.891481,41.977626],[-87.891236,41.977489],[-87.89095,41.977355],[-87.890655,41.977242],[-87.890309,41.977156],[-87.889932,41.977083],[-87.889595,41.977037],[-87.889007,41.977032],[-87.888747,41.977044],[-87.888401,41.977094],[-87.888049,41.977171],[-87.887472,41.977368],[-87.885508,41.978229],[-87.878738,41.980981],[-87.875701,41.982234],[-87.874344,41.982773],[-87.873638,41.982974],[-87.873173,41.983065],[-87.872757,41.983126],[-87.871936,41.98319],[-87.870326,41.983233],[-87.863954,41.98335],[-87.859388,41.983507]]}},{"type":"Feature","properties":{"label":null,"hover_name":null},"geometry":{"type":"LineString","coordinates":[[-87.675974,41.854515],[-87.682345,41.854442],[-87.685179,41.854397]]}},{"type":"Feature","properties":{"label":null,"hover_name":null},"geometry":{"type":"LineString","coordinates":[[-87.791602,41.872108],[-87.782516,41.871301],[-87.778262,41.870978],[-87.776785,41.870886]]}},{"type":"Feature","properties":{"label":null,"hover_name":null},"geometry":{"type":"LineString","coordinates":[[-87.688435,41.87553],[-87.673946,41.875635]]}},{"type":"Feature","properties":{"label":null,"hover_name":null},"geometry":{"type":"LineString","coordinates":[[-87.629378,41.880703],[-87.629296,41.878183]]}},{"type":"Feature","properties":{"label":null,"hover_name":null},"geometry":{"type":"LineString","coordinates":[[-87.806961,41.87349],[-87.801518,41.872967],[-87.796354,41.872507],[-87.791602,41.872108]]}},{"type":"Feature","properties":{"label":null,"hover_name":null},"geometry":{"type":"LineString","coordinates":[[-87.62944,41.883164],[-87.629378,41.880703]]}},{"type":"Feature","properties":{"label":null,"hover_name":null},"geometry":{"type":"LineString","coordinates":[[-87.630886,41.885737],[-87.629753,41.885733],[-87.629583,41.885678],[-87.629478,41.885571],[-87.62944,41.883164]]}},{"type":"Feature","properties":{"label":null,"hover_name":null},"geometry":{"type":"LineString","coordinates":[[-87.627596,41.878153],[-87.627512,41.874714],[-87.627479,41.874039]]}},{"type":"Feature","properties":{"label":null,"hover_name":null},"geometry":{"type":"LineString","coordinates":[[-87.745172,41.871608],[-87.744854,41.871604],[-87.743807,41.871634],[-87.74066,41.871684],[-87.74018,41.871703],[-87.739761,41.871738],[-87.739407,41.871788],[-87.738513,41.871972],[-87.737872,41.872143],[-87.737109,41.872431],[-87.735836,41.873061],[-87.735038,41.873377],[-87.734213,41.873606],[-87.733749,41.873696],[-87.733184,41.873773],[-87.732679,41.873808],[-87.725625,41.873889]]}},{"type":"Feature","properties":{"label":null,"hover_name":null},"geometry":{"type":"LineString","coordinates":[[-87.659456,41.875886],[-87.66499,41.87581],[-87.667531,41.875762]]}},{"type":"Feature","properties":{"label":null,"hover_name":null},"geometry":{"type":"LineString","coordinates":[[-87.719099,41.94736],[-87.71891,41.9472],[-87.718677,41.946939],[-87.718501,41.946662],[-87.718308,41.946409],[-87.717267,41.944564],[-87.716802,41.943794],[-87.716522,41.943397],[-87.716168,41.942998],[-87.715934,41.942787],[-87.715294,41.942305],[-87.715028,41.942132],[-87.71473,41.941956],[-87.713936,41.941561],[-87.713611,41.941426],[-87.713287,41.941266],[-87.712995,41.941094],[-87.712785,41.94091],[-87.712575,41.940653],[-87.71248,41.940458],[-87.712417,41.940142],[-87.712359,41.938132]]}},{"type":"Feature","properties":{"label":null,"hover_name":null},"geometry":{"type":"LineString","coordinates":[[-87.625809,41.768368],[-87.625691,41.765416],[-87.625672,41.762896],[-87.625533,41.756039],[-87.625496,41.755158],[-87.62525,41.75264],[-87.625205,41.751888],[-87.625178,41.750412]]}},{"type":"Feature","properties":{"label":null,"hover_name":null},"geometry":{"type":"LineString","coordinates":[[-87.655214,41.896075],[-87.652847,41.894596],[-87.651929,41.893978],[-87.647578,41.891189]]}},{"type":"Feature","properties":{"label":null,"hover_name":null},"geometry":{"type":"LineString","coordinates":[[-87.687364,41.916157],[-87.682092,41.912735],[-87.677437,41.909744]]}},{"type":"Feature","properties":{"label":null,"hover_name":null},"geometry":{"type":"LineString","coordinates":[[-87.631169,41.795418],[-87.631004,41.787722],[-87.631122,41.785582],[-87.631,41.780534]]}},{"type":"Feature","properties":{"label":null,"hover_name":null},"geometry":{"type":"LineString","coordinates":[[-87.627479,41.874039],[-87.627487,41.873057],[-87.627457,41.871891],[-87.627469,41.870763],[-87.627451,41.869215],[-87.627402,41.867368]]}},{"type":"Feature","properties":{"label":null,"hover_name":null},"geometry":{"type":"LineString","coordinates":[[-87.649642,41.875516],[-87.650398,41.875477],[-87.651795,41.875466],[-87.653755,41.875599],[-87.655843,41.875779],[-87.657386,41.875876],[-87.657863,41.8759],[-87.659456,41.875886]]}},{"type":"Feature","properties":{"label":null,"hover_name":null},"geometry":{"type":"LineString","coordinates":[[-87.631722,41.875568],[-87.633626,41.875569],[-87.637299,41.875604],[-87.640984,41.875539]]}},{"type":"Feature","properties":{"label":null,"hover_name":null},"geometry":{"type":"LineString","coordinates":[[-87.653626,41.947428],[-87.65362,41.946892],[-87.653535,41.94539],[-87.653515,41.944477],[-87.653423,41.944211],[-87.653363,41.943174],[-87.653454,41.942177]]}},{"type":"Feature","properties":{"label":null,"hover_name":null},"geometry":{"type":"LineString","coordinates":[[-87.65338,41.939751],[-87.653364,41.93865],[-87.653266,41.936033]]}},{"type":"Feature","properties":{"label":null,"hover_name":null},"geometry":{"type":"LineString","coordinates":[[-87.652866,41.925051],[-87.652644,41.918217]]}},{"type":"Feature","properties":{"label":null,"hover_name":null},"geometry":{"type":"LineString","coordinates":[[-87.659076,41.990259],[-87.65884,41.983504]]}},{"type":"Feature","properties":{"label":null,"hover_name":null},"geometry":{"type":"LineString","coordinates":[[-87.652644,41.918217],[-87.6525,41.914059]]}},{"type":"Feature","properties":{"label":null,"hover_name":null},"geometry":{"type":"LineString","coordinates":[[-87.631412,41.90392],[-87.629077,41.903945],[-87.628914,41.903936],[-87.628802,41.903903],[-87.628745,41.90387],[-87.628695,41.903818],[-87.628666,41.903756],[-87.628642,41.903642],[-87.62862,41.903163],[-87.628348,41.90212],[-87.628176,41.896671]]}},{"type":"Feature","properties":{"label":null,"hover_name":null},"geometry":{"type":"LineString","coordinates":[[-87.628021,41.891665],[-87.627989,41.889649],[-87.627935,41.887832],[-87.627831,41.885961],[-87.627813,41.884809]]}},{"type":"Feature","properties":{"label":null,"hover_name":null},"geometry":{"type":"LineString","coordinates":[[-87.683543,42.04771],[-87.68358,42.046995],[-87.683262,42.046385],[-87.682767,42.045272],[-87.68242,42.044448],[-87.682221,42.043923],[-87.681855,42.042743],[-87.681602,42.041655]]}},{"type":"Feature","properties":{"label":null,"hover_name":null},"geometry":{"type":"LineString","coordinates":[[-87.69073,42.073153],[-87.690323,42.072395],[-87.689852,42.071615],[-87.68891,42.070125],[-87.687915,42.068225],[-87.687307,42.066995],[-87.685617,42.063987]]}},{"type":"Feature","properties":{"label":null,"hover_name":null},"geometry":{"type":"LineString","coordinates":[[-87.630886,41.885737],[-87.633913,41.885725]]}},{"type":"Feature","properties":{"label":null,"hover_name":null},"geometry":{"type":"LineString","coordinates":[[-87.68356,42.05416],[-87.683542,42.052966],[-87.683496,42.05234],[-87.683488,42.051653],[-87.683543,42.04771]]}},{"type":"Feature","properties":{"label":null,"hover_name":null},"geometry":{"type":"LineString","coordinates":[[-87.635947,41.896774],[-87.636226,41.896986],[-87.636409,41.897148],[-87.636492,41.897255],[-87.636541,41.897376],[-87.636565,41.898666],[-87.636637,41.900287],[-87.636704,41.901194],[-87.63669,41.901427],[-87.636658,41.901557],[-87.63647,41.902111],[-87.636456,41.90235],[-87.636527,41.902549],[-87.636592,41.902653],[-87.636881,41.902994],[-87.636994,41.90322],[-87.637008,41.903338],[-87.637016,41.903811],[-87.637109,41.905434],[-87.637249,41.909508],[-87.637269,41.909859],[-87.637296,41.909991],[-87.637363,41.910108],[-87.63746,41.910208],[-87.637711,41.910341],[-87.637871,41.910392],[-87.638139,41.910419],[-87.639302,41.910409]]}},{"type":"Feature","properties":{"label":null,"hover_name":null},"geometry":{"type":"LineString","coordinates":[[-87.62603,41.876704],[-87.626054,41.878307],[-87.626098,41.87951]]}},{"type":"Feature","properties":{"label":null,"hover_name":null},"geometry":{"type":"LineString","coordinates":[[-87.63374,41.878723],[-87.633686,41.877261],[-87.633693,41.877063],[-87.633645,41.876953],[-87.633528,41.876881],[-87.633375,41.876846],[-87.631734,41.876855]]}},{"type":"Feature","properties":{"label":null,"hover_name":null},"geometry":{"type":"LineString","coordinates":[[-87.633854,41.882695],[-87.633845,41.88144],[-87.633783,41.880141],[-87.63374,41.878723]]}},{"type":"Feature","properties":{"label":null,"hover_name":null},"geometry":{"type":"LineString","coordinates":[[-87.838026,41.984294],[-87.836786,41.98434],[-87.832755,41.984537],[-87.831159,41.984573],[-87.829591,41.984548],[-87.828339,41.984506],[-87.826844,41.984435],[-87.825276,41.984313],[-87.82179,41.983889],[-87.819489,41.983575],[-87.818607,41.983442],[-87.817728,41.98326],[-87.816849,41.983056],[-87.81528,41.982658],[-87.814699,41.982536],[-87.813552,41.982349],[-87.813035,41.982308],[-87.812481,41.982282],[-87.808895,41.982323]]}},{"type":"Feature","properties":{"label":null,"hover_name":null},"geometry":{"type":"LineString","coordinates":[[-87.631026,41.810338],[-87.631336,41.809848],[-87.631586,41.809286],[-87.631696,41.808954],[-87.631772,41.80853],[-87.631807,41.808046],[-87.631462,41.803053],[-87.631345,41.80189],[-87.631169,41.795418]]}},{"type":"Feature","properties":{"label":null,"hover_name":null},"geometry":{"type":"LineString","coordinates":[[-87.712359,41.938132],[-87.712308,41.936765],[-87.712198,41.932422],[-87.712142,41.932076],[-87.712061,41.931938],[-87.711924,41.931821],[-87.711598,41.931594],[-87.71032,41.93083],[-87.708541,41.929728]]}},{"type":"Feature","properties":{"label":null,"hover_name":null},"geometry":{"type":"LineString","coordinates":[[-87.630968,41.853206],[-87.63085,41.852676],[-87.630735,41.851791],[-87.630689,41.851072],[-87.630686,41.849602],[-87.630725,41.848969],[-87.631012,41.847477],[-87.631149,41.846854],[-87.631272,41.845856],[-87.631279,41.845472],[-87.631257,41.844583],[-87.631136,41.842852],[-87.631032,41.841837],[-87.630867,41.839525],[-87.630636,41.831191]]}},{"type":"Feature","properties":{"label":null,"hover_name":null},"geometry":{"type":"LineString","coordinates":[[-87.629296,41.878183],[-87.629221,41.875977],[-87.629227,41.875861],[-87.629286,41.875741],[-87.629421,41.875665],[-87.629548,41.875629],[-87.62969,41.875608],[-87.631722,41.875568]]}},{"type":"Feature","properties":{"label":null,"hover_name":null},"geometry":{"type":"LineString","coordinates":[[-87.751919,42.038951],[-87.751606,42.038112],[-87.749695,42.033959],[-87.749482,42.033351],[-87.749076,42.032019],[-87.748684,42.030912],[-87.7482,42.029263],[-87.747583,42.02733],[-87.747426,42.026788],[-87.7472,42.026192]]}},{"type":"Feature","properties":{"label":null,"hover_name":null},"geometry":{"type":"LineString","coordinates":[[-87.641771,41.885703],[-87.643941,41.885707],[-87.646338,41.885679],[-87.652019,41.885579]]}},{"type":"Feature","properties":{"label":null,"hover_name":null},"geometry":{"type":"LineString","coordinates":[[-87.626418,41.858759],[-87.626488,41.858069],[-87.626402,41.853115]]}},{"type":"Feature","properties":{"label":null,"hover_name":null},"geometry":{"type":"LineString","coordinates":[[-87.626402,41.853115],[-87.626324,41.849552],[-87.62623,41.847098],[-87.626152,41.844323],[-87.626147,41.8427],[-87.626114,41.841155],[-87.626001,41.83828],[-87.625927,41.834942],[-87.625881,41.831678]]}},{"type":"Feature","properties":{"label":null,"hover_name":null},"geometry":{"type":"LineString","coordinates":[[-87.618324,41.795177],[-87.618227,41.791534],[-87.61814,41.789307],[-87.618176,41.788965],[-87.618143,41.787468]]}},{"type":"Feature","properties":{"label":null,"hover_name":null},"geometry":{"type":"LineString","coordinates":[[-87.708541,41.929728],[-87.70735,41.928995],[-87.70639,41.928331],[-87.705939,41.927959],[-87.704704,41.926831],[-87.703952,41.926267],[-87.702028,41.92506],[-87.699943,41.923821],[-87.69689,41.921939]]}}]}