{"type":"FeatureCollection","features":[{"type":"Feature","properties":{"ward":"01","label_lon":-87.653881,"label_lat":41.892274},"geometry":{"type":"Polygon","coordinates":[[[-87.617931,41.878892],[-87.617931,41.905654],[-87.689831,41.905654],[-87.689831,41.878892],[-87.617931,41.878892]]]}},{"type":"Feature","properties":{"ward":"02","label_lon":-87.575728,"label_lat":41.863179},"geometry":{"type":"Polygon","coordinates":[[[-87.539778,41.849791],[-87.539778,41.876564],[-87.611678,41.876564],[-87.611678,41.849791],[-87.539778,41.849791]]]}},{"type":"Feature","properties":{"ward":"03","label_lon":-87.653881,"label_lat":41.804949},"geometry":{"type":"Polygon","coordinates":[[[-87.617931,41.791549],[-87.617931,41.818347],[-87.689831,41.818347],[-87.689831,41.791549],[-87.617931,41.791549]]]}},{"type":"Feature","properties":{"ward":"04","label_lon":-87.575728,"label_lat":41.804949},"geometry":{"type":"Polygon","coordinates":[[[-87.539778,41.791549],[-87.539778,41.818347],[-87.611678,41.818347],[-87.611678,41.791549],[-87.539778,41.791549]]]}},{"type":"Feature","properties":{"ward":"05","label_lon":-87.575728,"label_lat":41.717505},"geometry":{"type":"Polygon","coordinates":[[[-87.539778,41.704086],[-87.539778,41.73092],[-87.611678,41.73092],[-87.611678,41.704086],[-87.539778,41.704086]]]}},{"type":"Feature","properties":{"ward":"06","label_lon":-87.732034,"label_lat":41.68833},"geometry":{"type":"Polygon","coordinates":[[[-87.696083,41.674905],[-87.696083,41.701752],[-87.767984,41.701752],[-87.767984,41.674905],[-87.696083,41.674905]]]}},{"type":"Feature","properties":{"ward":"07","label_lon":-87.575728,"label_lat":41.68833},"geometry":{"type":"Polygon","coordinates":[[[-87.539778,41.674905],[-87.539778,41.701752],[-87.611678,41.701752],[-87.611678,41.674905],[-87.539778,41.674905]]]}},{"type":"Feature","properties":{"ward":"08","label_lon":-87.653881,"label_lat":41.68833},"geometry":{"type":"Polygon","coordinates":[[[-87.617931,41.674905],[-87.617931,41.701752],[-87.689831,41.701752],[-87.689831,41.674905],[-87.617931,41.674905]]]}},{"type":"Feature","properties":{"ward":"09","label_lon":-87.653881,"label_lat":41.659142},"geometry":{"type":"Polygon","coordinates":[[[-87.617931,41.645711],[-87.617931,41.67257],[-87.689831,41.67257],[-87.689831,41.645711],[-87.617931,41.645711]]]}},{"type":"Feature","properties":{"ward":"10","label_lon":-87.575728,"label_lat":41.659142},"geometry":{"type":"Polygon","coordinates":[[[-87.539778,41.645711],[-87.539778,41.67257],[-87.611678,41.67257],[-87.611678,41.645711],[-87.539778,41.645711]]]}},{"type":"Feature","properties":{"ward":"11","label_lon":-87.732034,"label_lat":41.804949},"geometry":{"type":"Polygon","coordinates":[[[-87.696083,41.791549],[-87.696083,41.818347],[-87.767984,41.818347],[-87.767984,41.791549],[-87.696083,41.791549]]]}},{"type":"Feature","properties":{"ward":"12","label_lon":-87.653881,"label_lat":41.775814},"geometry":{"type":"Polygon","coordinates":[[[-87.617931,41.762408],[-87.617931,41.789218],[-87.689831,41.789218],[-87.689831,41.762408],[-87.617931,41.762408]]]}},{"type":"Feature","properties":{"ward":"13","label_lon":-87.810187,"label_lat":41.717505},"geometry":{"type":"Polygon","coordinates":[[[-87.774236,41.704086],[-87.774236,41.73092],[-87.846137,41.73092],[-87.846137,41.704086],[-87.774236,41.704086]]]}},{"type":"Feature","properties":{"ward":"14","label_lon":-87.810187,"label_lat":41.746666},"geometry":{"type":"Polygon","coordinates":[[[-87.774236,41.733253],[-87.774236,41.760076],[-87.846137,41.760076],[-87.846137,41.733253],[-87.774236,41.733253]]]}},{"type":"Feature","properties":{"ward":"15","label_lon":-87.732034,"label_lat":41.746666},"geometry":{"type":"Polygon","coordinates":[[[-87.696083,41.733253],[-87.696083,41.760076],[-87.767984,41.760076],[-87.767984,41.733253],[-87.696083,41.733253]]]}},{"type":"Feature","properties":{"ward":"16","label_lon":-87.653881,"label_lat":41.746666},"geometry":{"type":"Polygon","coordinates":[[[-87.617931,41.733253],[-87.617931,41.760076],[-87.689831,41.760076],[-87.689831,41.733253],[-87.617931,41.733253]]]}},{"type":"Feature","properties":{"ward":"17","label_lon":-87.810187,"label_lat":41.68833},"geometry":{"type":"Polygon","coordinates":[[[-87.774236,41.674905],[-87.774236,41.701752],[-87.846137,41.701752],[-87.846137,41.674905],[-87.774236,41.674905]]]}},{"type":"Feature","properties":{"ward":"18","label_lon":-87.888339,"label_lat":41.68833},"geometry":{"type":"Polygon","coordinates":[[[-87.852389,41.674905],[-87.852389,41.701752],[-87.92429,41.701752],[-87.92429,41.674905],[-87.852389,41.674905]]]}},{"type":"Feature","properties":{"ward":"19","label_lon":-87.810187,"label_lat":41.659142},"geometry":{"type":"Polygon","coordinates":[[[-87.774236,41.645711],[-87.774236,41.67257],[-87.846137,41.67257],[-87.846137,41.645711],[-87.774236,41.645711]]]}},{"type":"Feature","properties":{"ward":"20","label_lon":-87.575728,"label_lat":41.746666},"geometry":{"type":"Polygon","coordinates":[[[-87.539778,41.733253],[-87.539778,41.760076],[-87.611678,41.760076],[-87.611678,41.733253],[-87.539778,41.733253]]]}},{"type":"Feature","properties":{"ward":"21","label_lon":-87.732034,"label_lat":41.659142},"geometry":{"type":"Polygon","coordinates":[[[-87.696083,41.645711],[-87.696083,41.67257],[-87.767984,41.67257],[-87.767984,41.645711],[-87.696083,41.645711]]]}},{"type":"Feature","properties":{"ward":"22","label_lon":-87.732034,"label_lat":41.775814},"geometry":{"type":"Polygon","coordinates":[[[-87.696083,41.762408],[-87.696083,41.789218],[-87.767984,41.789218],[-87.767984,41.762408],[-87.696083,41.762408]]]}},{"type":"Feature","properties":{"ward":"23","label_lon":-87.732034,"label_lat":41.717505},"geometry":{"type":"Polygon","coordinates":[[[-87.696083,41.704086],[-87.696083,41.73092],[-87.767984,41.73092],[-87.767984,41.704086],[-87.696083,41.704086]]]}},{"type":"Feature","properties":{"ward":"24","label_lon":-87.810187,"label_lat":41.834071},"geometry":{"type":"Polygon","coordinates":[[[-87.774236,41.820676],[-87.774236,41.847462],[-87.846137,41.847462],[-87.846137,41.820676],[-87.774236,41.820676]]]}},{"type":"Feature","properties":{"ward":"25","label_lon":-87.810187,"label_lat":41.804949},"geometry":{"type":"Polygon","coordinates":[[[-87.774236,41.791549],[-87.774236,41.818347],[-87.846137,41.818347],[-87.846137,41.791549],[-87.774236,41.791549]]]}},{"type":"Feature","properties":{"ward":"26","label_lon":-87.732034,"label_lat":41.892274},"geometry":{"type":"Polygon","coordinates":[[[-87.696083,41.878892],[-87.696083,41.905654],[-87.767984,41.905654],[-87.767984,41.878892],[-87.696083,41.878892]]]}},{"type":"Feature","properties":{"ward":"27","label_lon":-87.653881,"label_lat":41.863179},"geometry":{"type":"Polygon","coordinates":[[[-87.617931,41.849791],[-87.617931,41.876564],[-87.689831,41.876564],[-87.689831,41.849791],[-87.617931,41.849791]]]}},{"type":"Feature","properties":{"ward":"28","label_lon":-87.732034,"label_lat":41.834071},"geometry":{"type":"Polygon","coordinates":[[[-87.696083,41.820676],[-87.696083,41.847462],[-87.767984,41.847462],[-87.767984,41.820676],[-87.696083,41.820676]]]}},{"type":"Feature","properties":{"ward":"29","label_lon":-87.810187,"label_lat":41.863179},"geometry":{"type":"Polygon","coordinates":[[[-87.774236,41.849791],[-87.774236,41.876564],[-87.846137,41.876564],[-87.846137,41.849791],[-87.774236,41.849791]]]}},{"type":"Feature","properties":{"ward":"30","label_lon":-87.888339,"label_lat":41.921356},"geometry":{"type":"Polygon","coordinates":[[[-87.852389,41.90798],[-87.852389,41.934729],[-87.92429,41.934729],[-87.92429,41.90798],[-87.852389,41.90798]]]}},{"type":"Feature","properties":{"ward":"31","label_lon":-87.810187,"label_lat":41.921356},"geometry":{"type":"Polygon","coordinates":[[[-87.774236,41.90798],[-87.774236,41.934729],[-87.846137,41.934729],[-87.846137,41.90798],[-87.774236,41.90798]]]}},{"type":"Feature","properties":{"ward":"32","label_lon":-87.653881,"label_lat":41.921356},"geometry":{"type":"Polygon","coordinates":[[[-87.617931,41.90798],[-87.617931,41.934729],[-87.689831,41.934729],[-87.689831,41.90798],[-87.617931,41.90798]]]}},{"type":"Feature","properties":{"ward":"33","label_lon":-87.732034,"label_lat":41.950425},"geometry":{"type":"Polygon","coordinates":[[[-87.696083,41.937055],[-87.696083,41.963792],[-87.767984,41.963792],[-87.767984,41.937055],[-87.696083,41.937055]]]}},{"type":"Feature","properties":{"ward":"34","label_lon":-87.653881,"label_lat":41.834071},"geometry":{"type":"Polygon","coordinates":[[[-87.617931,41.820676],[-87.617931,41.847462],[-87.689831,41.847462],[-87.689831,41.820676],[-87.617931,41.820676]]]}},{"type":"Feature","properties":{"ward":"35","label_lon":-87.732034,"label_lat":41.921356},"geometry":{"type":"Polygon","coordinates":[[[-87.696083,41.90798],[-87.696083,41.934729],[-87.767984,41.934729],[-87.767984,41.90798],[-87.696083,41.90798]]]}},{"type":"Feature","properties":{"ward":"36","label_lon":-87.810187,"label_lat":41.892274},"geometry":{"type":"Polygon","coordinates":[[[-87.774236,41.878892],[-87.774236,41.905654],[-87.846137,41.905654],[-87.846137,41.878892],[-87.774236,41.878892]]]}},{"type":"Feature","properties":{"ward":"37","label_lon":-87.732034,"label_lat":41.863179},"geometry":{"type":"Polygon","coordinates":[[[-87.696083,41.849791],[-87.696083,41.876564],[-87.767984,41.876564],[-87.767984,41.849791],[-87.696083,41.849791]]]}},{"type":"Feature","properties":{"ward":"38","label_lon":-87.810187,"label_lat":41.950425},"geometry":{"type":"Polygon","coordinates":[[[-87.774236,41.937055],[-87.774236,41.963792],[-87.846137,41.963792],[-87.846137,41.937055],[-87.774236,41.937055]]]}},{"type":"Feature","properties":{"ward":"39","label_lon":-87.732034,"label_lat":41.97948},"geometry":{"type":"Polygon","coordinates":[[[-87.696083,41.966116],[-87.696083,41.992841],[-87.767984,41.992841],[-87.767984,41.966116],[-87.696083,41.966116]]]}},{"type":"Feature","properties":{"ward":"40","label_lon":-87.653881,"label_lat":41.97948},"geometry":{"type":"Polygon","coordinates":[[[-87.617931,41.966116],[-87.617931,41.992841],[-87.689831,41.992841],[-87.689831,41.966116],[-87.617931,41.966116]]]}},{"type":"Feature","properties":{"ward":"41","label_lon":-87.888339,"label_lat":41.97948},"geometry":{"type":"Polygon","coordinates":[[[-87.852389,41.966116],[-87.852389,41.992841],[-87.92429,41.992841],[-87.92429,41.966116],[-87.852389,41.966116]]]}},{"type":"Feature","properties":{"ward":"42","label_lon":-87.575728,"label_lat":41.834071},"geometry":{"type":"Polygon","coordinates":[[[-87.539778,41.820676],[-87.539778,41.847462],[-87.611678,41.847462],[-87.611678,41.820676],[-87.539778,41.820676]]]}},{"type":"Feature","properties":{"ward":"43","label_lon":-87.575728,"label_lat":41.892274},"geometry":{"type":"Polygon","coordinates":[[[-87.539778,41.878892],[-87.539778,41.905654],[-87.611678,41.905654],[-87.611678,41.878892],[-87.539778,41.878892]]]}},{"type":"Feature","properties":{"ward":"44","label_lon":-87.575728,"label_lat":41.921356},"geometry":{"type":"Polygon","coordinates":[[[-87.539778,41.90798],[-87.539778,41.934729],[-87.611678,41.934729],[-87.611678,41.90798],[-87.539778,41.90798]]]}},{"type":"Feature","properties":{"ward":"45","label_lon":-87.810187,"label_lat":41.97948},"geometry":{"type":"Polygon","coordinates":[[[-87.774236,41.966116],[-87.774236,41.992841],[-87.846137,41.992841],[-87.846137,41.966116],[-87.774236,41.966116]]]}},{"type":"Feature","properties":{"ward":"46","label_lon":-87.575728,"label_lat":41.950425},"geometry":{"type":"Polygon","coordinates":[[[-87.539778,41.937055],[-87.539778,41.963792],[-87.611678,41.963792],[-87.611678,41.937055],[-87.539778,41.937055]]]}},{"type":"Feature","properties":{"ward":"47","label_lon":-87.653881,"label_lat":41.950425},"geometry":{"type":"Polygon","coordinates":[[[-87.617931,41.937055],[-87.617931,41.963792],[-87.689831,41.963792],[-87.689831,41.937055],[-87.617931,41.937055]]]}},{"type":"Feature","properties":{"ward":"48","label_lon":-87.575728,"label_lat":41.97948},"geometry":{"type":"Polygon","coordinates":[[[-87.539778,41.966116],[-87.539778,41.992841],[-87.611678,41.992841],[-87.611678,41.966116],[-87.539778,41.966116]]]}},{"type":"Feature","properties":{"ward":"49","label_lon":-87.575728,"label_lat":42.008522},"geometry":{"type":"Polygon","coordinates":[[[-87.539778,41.995165],[-87.539778,42.021877],[-87.611678,42.021877],[-87.611678,41.995165],[-87.539778,41.995165]]]}},{"type":"Feature","properties":{"ward":"50","label_lon":-87.653881,"label_lat":42.008522},"geometry":{"type":"Polygon","coordinates":[[[-87.617931,41.995165],[-87.617931,42.021877],[-87.689831,42.021877],[-87.689831,41.995165],[-87.617931,41.995165]]]}}]}