{"type":"FeatureCollection","features":[{"type":"Feature","properties":{"ward":"01","label_lon":-87.663322,"label_lat":41.890275},"geometry":{"type":"Polygon","coordinates":[[[-87.644792,41.883377],[-87.644792,41.897172],[-87.681852,41.897172],[-87.681852,41.883377],[-87.644792,41.883377]]]}},{"type":"Feature","properties":{"ward":"02","label_lon":-87.618729,"label_lat":41.886262},"geometry":{"type":"Polygon","coordinates":[[[-87.600199,41.879364],[-87.600199,41.893159],[-87.637259,41.893159],[-87.637259,41.879364],[-87.600199,41.879364]]]}},{"type":"Feature","properties":{"ward":"03","label_lon":-87.599755,"label_lat":41.826212},"geometry":{"type":"Polygon","coordinates":[[[-87.581224,41.819307],[-87.581224,41.833115],[-87.618285,41.833115],[-87.618285,41.819307],[-87.581224,41.819307]]]}},{"type":"Feature","properties":{"ward":"04","label_lon":-87.599574,"label_lat":41.842989},"geometry":{"type":"Polygon","coordinates":[[[-87.581044,41.836086],[-87.581044,41.849891],[-87.618104,41.849891],[-87.618104,41.836086],[-87.581044,41.836086]]]}},{"type":"Feature","properties":{"ward":"05","label_lon":-87.584285,"label_lat":41.797284},"geometry":{"type":"Polygon","coordinates":[[[-87.565755,41.790377],[-87.565755,41.804191],[-87.602815,41.804191],[-87.602815,41.790377],[-87.565755,41.790377]]]}},{"type":"Feature","properties":{"ward":"06","label_lon":-87.625023,"label_lat":41.770969},"geometry":{"type":"Polygon","coordinates":[[[-87.606492,41.764058],[-87.606492,41.777878],[-87.643553,41.777878],[-87.643553,41.764058],[-87.606492,41.764058]]]}},{"type":"Feature","properties":{"ward":"07","label_lon":-87.535403,"label_lat":41.758816},"geometry":{"type":"Polygon","coordinates":[[[-87.516873,41.751904],[-87.516873,41.765727],[-87.553933,41.765727],[-87.553933,41.751904],[-87.516873,41.751904]]]}},{"type":"Feature","properties":{"ward":"08","label_lon":-87.58013,"label_lat":41.761187},"geometry":{"type":"Polygon","coordinates":[[[-87.561599,41.754276],[-87.561599,41.768098],[-87.59866,41.768098],[-87.59866,41.754276],[-87.561599,41.754276]]]}},{"type":"Feature","properties":{"ward":"09","label_lon":-87.614865,"label_lat":41.724233},"geometry":{"type":"Polygon","coordinates":[[[-87.596334,41.717318],[-87.596334,41.731148],[-87.633395,41.731148],[-87.633395,41.717318],[-87.596334,41.717318]]]}},{"type":"Feature","properties":{"ward":"10","label_lon":-87.560845,"label_lat":41.729565},"geometry":{"type":"Polygon","coordinates":[[[-87.542315,41.722651],[-87.542315,41.73648],[-87.579375,41.73648],[-87.579375,41.722651],[-87.542315,41.722651]]]}},{"type":"Feature","properties":{"ward":"11","label_lon":-87.644238,"label_lat":41.835672},"geometry":{"type":"Polygon","coordinates":[[[-87.625708,41.828769],[-87.625708,41.842575],[-87.662768,41.842575],[-87.662768,41.828769],[-87.625708,41.828769]]]}},{"type":"Feature","properties":{"ward":"12","label_lon":-87.693142,"label_lat":41.82379},"geometry":{"type":"Polygon","coordinates":[[[-87.674612,41.816886],[-87.674612,41.830694],[-87.711672,41.830694],[-87.711672,41.816886],[-87.674612,41.816886]]]}},{"type":"Feature","properties":{"ward":"13","label_lon":-87.765464,"label_lat":41.795132},"geometry":{"type":"Polygon","coordinates":[[[-87.746934,41.788224],[-87.746934,41.802039],[-87.783994,41.802039],[-87.783994,41.788224],[-87.746934,41.788224]]]}},{"type":"Feature","properties":{"ward":"14","label_lon":-87.717758,"label_lat":41.807044},"geometry":{"type":"Polygon","coordinates":[[[-87.699228,41.800138],[-87.699228,41.81395],[-87.736288,41.81395],[-87.736288,41.800138],[-87.699228,41.800138]]]}},{"type":"Feature","properties":{"ward":"15","label_lon":-87.673266,"label_lat":41.807138},"geometry":{"type":"Polygon","coordinates":[[[-87.654736,41.800232],[-87.654736,41.814044],[-87.691796,41.814044],[-87.691796,41.800232],[-87.654736,41.800232]]]}},{"type":"Feature","properties":{"ward":"16","label_lon":-87.647153,"label_lat":41.790385},"geometry":{"type":"Polygon","coordinates":[[[-87.628623,41.783476],[-87.628623,41.797292],[-87.665683,41.797292],[-87.665683,41.783476],[-87.628623,41.783476]]]}},{"type":"Feature","properties":{"ward":"17","label_lon":-87.669957,"label_lat":41.773797},"geometry":{"type":"Polygon","coordinates":[[[-87.651427,41.766886],[-87.651427,41.780706],[-87.688488,41.780706],[-87.688488,41.766886],[-87.651427,41.766886]]]}},{"type":"Feature","properties":{"ward":"18","label_lon":-87.714609,"label_lat":41.769122},"geometry":{"type":"Polygon","coordinates":[[[-87.696078,41.762212],[-87.696078,41.776032],[-87.733139,41.776032],[-87.733139,41.762212],[-87.696078,41.762212]]]}},{"type":"Feature","properties":{"ward":"19","label_lon":-87.685585,"label_lat":41.738371},"geometry":{"type":"Polygon","coordinates":[[[-87.667055,41.731458],[-87.667055,41.745285],[-87.704116,41.745285],[-87.704116,41.731458],[-87.667055,41.731458]]]}},{"type":"Feature","properties":{"ward":"20","label_lon":-87.628775,"label_lat":41.808841},"geometry":{"type":"Polygon","coordinates":[[[-87.610245,41.801935],[-87.610245,41.815747],[-87.647306,41.815747],[-87.647306,41.801935],[-87.610245,41.801935]]]}},{"type":"Feature","properties":{"ward":"21","label_lon":-87.640845,"label_lat":41.740904},"geometry":{"type":"Polygon","coordinates":[[[-87.622315,41.733991],[-87.622315,41.747817],[-87.659375,41.747817],[-87.659375,41.733991],[-87.622315,41.733991]]]}},{"type":"Feature","properties":{"ward":"22","label_lon":-87.737694,"label_lat":41.823894},"geometry":{"type":"Polygon","coordinates":[[[-87.719164,41.816989],[-87.719164,41.830798],[-87.756224,41.830798],[-87.756224,41.816989],[-87.719164,41.816989]]]}},{"type":"Feature","properties":{"ward":"23","label_lon":-87.720873,"label_lat":41.790143},"geometry":{"type":"Polygon","coordinates":[[[-87.702342,41.783234],[-87.702342,41.79705],[-87.739403,41.79705],[-87.739403,41.783234],[-87.702342,41.783234]]]}},{"type":"Feature","properties":{"ward":"24","label_lon":-87.7338,"label_lat":41.8405},"geometry":{"type":"Polygon","coordinates":[[[-87.71527,41.833597],[-87.71527,41.847402],[-87.75233,41.847402],[-87.75233,41.833597],[-87.71527,41.833597]]]}},{"type":"Feature","properties":{"ward":"25","label_lon":-87.689186,"label_lat":41.84053},"geometry":{"type":"Polygon","coordinates":[[[-87.670656,41.833627],[-87.670656,41.847432],[-87.707716,41.847432],[-87.707716,41.833627],[-87.670656,41.833627]]]}},{"type":"Feature","properties":{"ward":"26","label_lon":-87.707806,"label_lat":41.892273},"geometry":{"type":"Polygon","coordinates":[[[-87.689276,41.885376],[-87.689276,41.89917],[-87.726336,41.89917],[-87.726336,41.885376],[-87.689276,41.885376]]]}},{"type":"Feature","properties":{"ward":"27","label_lon":-87.695031,"label_lat":41.873684},"geometry":{"type":"Polygon","coordinates":[[[-87.676501,41.866785],[-87.676501,41.880583],[-87.713562,41.880583],[-87.713562,41.866785],[-87.676501,41.866785]]]}},{"type":"Feature","properties":{"ward":"28","label_lon":-87.695259,"label_lat":41.857113},"geometry":{"type":"Polygon","coordinates":[[[-87.676729,41.850212],[-87.676729,41.864014],[-87.713789,41.864014],[-87.713789,41.850212],[-87.676729,41.850212]]]}},{"type":"Feature","properties":{"ward":"29","label_lon":-87.797515,"label_lat":41.878698},"geometry":{"type":"Polygon","coordinates":[[[-87.778984,41.8718],[-87.778984,41.885596],[-87.816045,41.885596],[-87.816045,41.8718],[-87.778984,41.8718]]]}},{"type":"Feature","properties":{"ward":"30","label_lon":-87.788448,"label_lat":41.914604},"geometry":{"type":"Polygon","coordinates":[[[-87.769917,41.907709],[-87.769917,41.921498],[-87.806978,41.921498],[-87.806978,41.907709],[-87.769917,41.907709]]]}},{"type":"Feature","properties":{"ward":"31","label_lon":-87.743704,"label_lat":41.911901},"geometry":{"type":"Polygon","coordinates":[[[-87.725174,41.905006],[-87.725174,41.918796],[-87.762234,41.918796],[-87.762234,41.905006],[-87.725174,41.905006]]]}},{"type":"Feature","properties":{"ward":"32","label_lon":-87.654471,"label_lat":41.906832},"geometry":{"type":"Polygon","coordinates":[[[-87.63594,41.899937],[-87.63594,41.913727],[-87.673001,41.913727],[-87.673001,41.899937],[-87.63594,41.899937]]]}},{"type":"Feature","properties":{"ward":"33","label_lon":-87.728495,"label_lat":41.928507},"geometry":{"type":"Polygon","coordinates":[[[-87.709965,41.921613],[-87.709965,41.935399],[-87.747025,41.935399],[-87.747025,41.921613],[-87.709965,41.921613]]]}},{"type":"Feature","properties":{"ward":"34","label_lon":-87.65034,"label_lat":41.867448},"geometry":{"type":"Polygon","coordinates":[[[-87.63181,41.860548],[-87.63181,41.874347],[-87.66887,41.874347],[-87.66887,41.860548],[-87.63181,41.860548]]]}},{"type":"Feature","properties":{"ward":"35","label_lon":-87.699214,"label_lat":41.909109},"geometry":{"type":"Polygon","coordinates":[[[-87.680684,41.902213],[-87.680684,41.916004],[-87.717744,41.916004],[-87.717744,41.902213],[-87.680684,41.902213]]]}},{"type":"Feature","properties":{"ward":"36","label_lon":-87.755674,"label_lat":41.895342},"geometry":{"type":"Polygon","coordinates":[[[-87.737144,41.888445],[-87.737144,41.902238],[-87.774204,41.902238],[-87.774204,41.888445],[-87.737144,41.888445]]]}},{"type":"Feature","properties":{"ward":"37","label_lon":-87.752741,"label_lat":41.878769},"geometry":{"type":"Polygon","coordinates":[[[-87.734211,41.871871],[-87.734211,41.885667],[-87.771271,41.885667],[-87.771271,41.871871],[-87.734211,41.871871]]]}},{"type":"Feature","properties":{"ward":"38","label_lon":-87.833127,"label_lat":41.922442},"geometry":{"type":"Polygon","coordinates":[[[-87.814597,41.915548],[-87.814597,41.929335],[-87.851657,41.929335],[-87.851657,41.915548],[-87.814597,41.915548]]]}},{"type":"Feature","properties":{"ward":"39","label_lon":-87.734443,"label_lat":41.945286},"geometry":{"type":"Polygon","coordinates":[[[-87.715912,41.938394],[-87.715912,41.952176],[-87.752973,41.952176],[-87.752973,41.938394],[-87.715912,41.938394]]]}},{"type":"Feature","properties":{"ward":"40","label_lon":-87.689952,"label_lat":41.945296},"geometry":{"type":"Polygon","coordinates":[[[-87.671422,41.938404],[-87.671422,41.952187],[-87.708482,41.952187],[-87.708482,41.938404],[-87.671422,41.938404]]]}},{"type":"Feature","properties":{"ward":"41","label_lon":-87.847493,"label_lat":41.946959},"geometry":{"type":"Polygon","coordinates":[[[-87.828963,41.940067],[-87.828963,41.953849],[-87.866023,41.953849],[-87.866023,41.940067],[-87.828963,41.940067]]]}},{"type":"Feature","properties":{"ward":"42","label_lon":-87.605387,"label_lat":41.869385},"geometry":{"type":"Polygon","coordinates":[[[-87.586856,41.862485],[-87.586856,41.876284],[-87.623917,41.876284],[-87.623917,41.862485],[-87.586856,41.862485]]]}},{"type":"Feature","properties":{"ward":"43","label_lon":-87.609794,"label_lat":41.902821},"geometry":{"type":"Polygon","coordinates":[[[-87.591264,41.895925],[-87.591264,41.909717],[-87.628324,41.909717],[-87.628324,41.895925],[-87.591264,41.895925]]]}},{"type":"Feature","properties":{"ward":"44","label_lon":-87.638081,"label_lat":41.92352},"geometry":{"type":"Polygon","coordinates":[[[-87.619551,41.916626],[-87.619551,41.930413],[-87.656611,41.930413],[-87.656611,41.916626],[-87.619551,41.916626]]]}},{"type":"Feature","properties":{"ward":"45","label_lon":-87.778922,"label_lat":41.945303},"geometry":{"type":"Polygon","coordinates":[[[-87.760391,41.938411],[-87.760391,41.952193],[-87.797452,41.952193],[-87.797452,41.938411],[-87.760391,41.938411]]]}},{"type":"Feature","properties":{"ward":"46","label_lon":-87.638944,"label_lat":41.940135},"geometry":{"type":"Polygon","coordinates":[[[-87.620414,41.933243],[-87.620414,41.947027],[-87.657474,41.947027],[-87.657474,41.933243],[-87.620414,41.933243]]]}},{"type":"Feature","properties":{"ward":"47","label_lon":-87.683877,"label_lat":41.926224},"geometry":{"type":"Polygon","coordinates":[[[-87.665347,41.919331],[-87.665347,41.933117],[-87.702407,41.933117],[-87.702407,41.919331],[-87.665347,41.919331]]]}},{"type":"Feature","properties":{"ward":"48","label_lon":-87.645472,"label_lat":41.956772},"geometry":{"type":"Polygon","coordinates":[[[-87.626942,41.949882],[-87.626942,41.963662],[-87.664002,41.963662],[-87.664002,41.949882],[-87.626942,41.949882]]]}},{"type":"Feature","properties":{"ward":"49","label_lon":-87.662978,"label_lat":41.973339},"geometry":{"type":"Polygon","coordinates":[[[-87.644448,41.96645],[-87.644448,41.980227],[-87.681508,41.980227],[-87.681508,41.96645],[-87.644448,41.96645]]]}},{"type":"Feature","properties":{"ward":"50","label_lon":-87.710027,"label_lat":41.962086},"geometry":{"type":"Polygon","coordinates":[[[-87.691497,41.955196],[-87.691497,41.968975],[-87.728557,41.968975],[-87.728557,41.955196],[-87.691497,41.955196]]]}}]}